<?xml version="1.0" encoding="UTF-8"?>
<gpx version="1.1" creator="Vysočina 2026 – Mlýn Vikinek" xmlns="http://www.topografix.com/GPX/1/1">
<metadata><name>Velký okruh po skalách Žďárských vrchů</name><desc>Pro zdatné: Žákova hora, Devět skal, Lisovská skála, Drátník, Milovy a Křižánky.</desc></metadata>
<wpt lat="49.643880" lon="15.999420"><name>Pramen Svratky</name><desc>Tady se rodí Svratka. Její voda doteče přes Brno a Dunaj až do Černého moře.</desc></wpt>
<wpt lat="49.670730" lon="16.032240"><name>Devět skal (836 m)</name><desc>Nejvyšší vrchol Žďárských vrchů: skalní labyrint a vyhlídka se zábradlím.</desc></wpt>
<wpt lat="49.654750" lon="16.084040"><name>Drátník (Drátenická skála, 776 m)</name><desc>200 m dlouhá skalní hradba s věží Sokol (35 m), kde trénují horolezci.</desc></wpt>
<wpt lat="49.650390" lon="16.079900"><name>Hospoda U Kolouška</name><desc>Hospůdka uprostřed luk pod skálou Dráteničky, na konci skalní hřebenovky.</desc></wpt>
<wpt lat="49.689390" lon="16.065340"><name>Hostinec Za Řekou</name><desc>Hostinec v Českých Křižánkách, pod Devíti skalami.</desc></wpt>
<wpt lat="49.656990" lon="15.991830"><name>Žákova hora (810 m): prales</name><desc>Národní přírodní rezervace se starým jedlo-bukovým lesem a naučnou stezkou.</desc></wpt>
<trk><name>Velký okruh po skalách Žďárských vrchů</name><trkseg>
<trkpt lat="49.643916" lon="15.968121"><ele>658</ele></trkpt>
<trkpt lat="49.644152" lon="15.967435"><ele>660</ele></trkpt>
<trkpt lat="49.644313" lon="15.966793"><ele>660</ele></trkpt>
<trkpt lat="49.643848" lon="15.966364"><ele>656</ele></trkpt>
<trkpt lat="49.642601" lon="15.965254"><ele>658</ele></trkpt>
<trkpt lat="49.642290" lon="15.964978"><ele>661</ele></trkpt>
<trkpt lat="49.642130" lon="15.965125"><ele>663</ele></trkpt>
<trkpt lat="49.642068" lon="15.965235"><ele>664</ele></trkpt>
<trkpt lat="49.642097" lon="15.965323"><ele>663</ele></trkpt>
<trkpt lat="49.642305" lon="15.969681"><ele>668</ele></trkpt>
<trkpt lat="49.642262" lon="15.970633"><ele>672</ele></trkpt>
<trkpt lat="49.641938" lon="15.971912"><ele>678</ele></trkpt>
<trkpt lat="49.641563" lon="15.972927"><ele>683</ele></trkpt>
<trkpt lat="49.641291" lon="15.973698"><ele>687</ele></trkpt>
<trkpt lat="49.641226" lon="15.974199"><ele>688</ele></trkpt>
<trkpt lat="49.641247" lon="15.974980"><ele>689</ele></trkpt>
<trkpt lat="49.641535" lon="15.979124"><ele>694</ele></trkpt>
<trkpt lat="49.641851" lon="15.980501"><ele>695</ele></trkpt>
<trkpt lat="49.641898" lon="15.981073"><ele>696</ele></trkpt>
<trkpt lat="49.641916" lon="15.981445"><ele>696</ele></trkpt>
<trkpt lat="49.641926" lon="15.981665"><ele>696</ele></trkpt>
<trkpt lat="49.641937" lon="15.981919"><ele>697</ele></trkpt>
<trkpt lat="49.641971" lon="15.982239"><ele>697</ele></trkpt>
<trkpt lat="49.642029" lon="15.982429"><ele>697</ele></trkpt>
<trkpt lat="49.642070" lon="15.982523"><ele>697</ele></trkpt>
<trkpt lat="49.642149" lon="15.982654"><ele>697</ele></trkpt>
<trkpt lat="49.643098" lon="15.983713"><ele>705</ele></trkpt>
<trkpt lat="49.643342" lon="15.983989"><ele>707</ele></trkpt>
<trkpt lat="49.644220" lon="15.985111"><ele>714</ele></trkpt>
<trkpt lat="49.644840" lon="15.985965"><ele>718</ele></trkpt>
<trkpt lat="49.645084" lon="15.986363"><ele>721</ele></trkpt>
<trkpt lat="49.645476" lon="15.987065"><ele>721</ele></trkpt>
<trkpt lat="49.645664" lon="15.987563"><ele>720</ele></trkpt>
<trkpt lat="49.645814" lon="15.988082"><ele>722</ele></trkpt>
<trkpt lat="49.645863" lon="15.988382"><ele>722</ele></trkpt>
<trkpt lat="49.645872" lon="15.988606"><ele>724</ele></trkpt>
<trkpt lat="49.645835" lon="15.988960"><ele>725</ele></trkpt>
<trkpt lat="49.645820" lon="15.989049"><ele>726</ele></trkpt>
<trkpt lat="49.645748" lon="15.989297"><ele>727</ele></trkpt>
<trkpt lat="49.645664" lon="15.989529"><ele>728</ele></trkpt>
<trkpt lat="49.645119" lon="15.990748"><ele>736</ele></trkpt>
<trkpt lat="49.645037" lon="15.991128"><ele>738</ele></trkpt>
<trkpt lat="49.644844" lon="15.992346"><ele>744</ele></trkpt>
<trkpt lat="49.644464" lon="15.993616"><ele>752</ele></trkpt>
<trkpt lat="49.643586" lon="15.996094"><ele>768</ele></trkpt>
<trkpt lat="49.643546" lon="15.996225"><ele>769</ele></trkpt>
<trkpt lat="49.643500" lon="15.996404"><ele>770</ele></trkpt>
<trkpt lat="49.643469" lon="15.996558"><ele>771</ele></trkpt>
<trkpt lat="49.643454" lon="15.996660"><ele>772</ele></trkpt>
<trkpt lat="49.643438" lon="15.996917"><ele>773</ele></trkpt>
<trkpt lat="49.643443" lon="15.997118"><ele>775</ele></trkpt>
<trkpt lat="49.643462" lon="15.997386"><ele>776</ele></trkpt>
<trkpt lat="49.643490" lon="15.997654"><ele>777</ele></trkpt>
<trkpt lat="49.643498" lon="15.997822"><ele>778</ele></trkpt>
<trkpt lat="49.643481" lon="15.998195"><ele>779</ele></trkpt>
<trkpt lat="49.643458" lon="15.998349"><ele>780</ele></trkpt>
<trkpt lat="49.643382" lon="15.998657"><ele>781</ele></trkpt>
<trkpt lat="49.643230" lon="15.999081"><ele>782</ele></trkpt>
<trkpt lat="49.643449" lon="15.999285"><ele>781</ele></trkpt>
<trkpt lat="49.643642" lon="15.999344"><ele>779</ele></trkpt>
<trkpt lat="49.643698" lon="15.999384"><ele>778</ele></trkpt>
<trkpt lat="49.643864" lon="15.999447"><ele>778</ele></trkpt>
<trkpt lat="49.643698" lon="15.999384"><ele>778</ele></trkpt>
<trkpt lat="49.643642" lon="15.999344"><ele>779</ele></trkpt>
<trkpt lat="49.643449" lon="15.999285"><ele>781</ele></trkpt>
<trkpt lat="49.643230" lon="15.999081"><ele>782</ele></trkpt>
<trkpt lat="49.642829" lon="16.000121"><ele>784</ele></trkpt>
<trkpt lat="49.641398" lon="16.003790"><ele>788</ele></trkpt>
<trkpt lat="49.643017" lon="16.003797"><ele>786</ele></trkpt>
<trkpt lat="49.643424" lon="16.003845"><ele>784</ele></trkpt>
<trkpt lat="49.643812" lon="16.003890"><ele>784</ele></trkpt>
<trkpt lat="49.646013" lon="16.004614"><ele>780</ele></trkpt>
<trkpt lat="49.646271" lon="16.004675"><ele>779</ele></trkpt>
<trkpt lat="49.646536" lon="16.004650"><ele>779</ele></trkpt>
<trkpt lat="49.646852" lon="16.004449"><ele>778</ele></trkpt>
<trkpt lat="49.647013" lon="16.004319"><ele>778</ele></trkpt>
<trkpt lat="49.647147" lon="16.004142"><ele>778</ele></trkpt>
<trkpt lat="49.647279" lon="16.003946"><ele>777</ele></trkpt>
<trkpt lat="49.647386" lon="16.003705"><ele>776</ele></trkpt>
<trkpt lat="49.647485" lon="16.003443"><ele>775</ele></trkpt>
<trkpt lat="49.647638" lon="16.002947"><ele>774</ele></trkpt>
<trkpt lat="49.647767" lon="16.002475"><ele>774</ele></trkpt>
<trkpt lat="49.648331" lon="16.000470"><ele>772</ele></trkpt>
<trkpt lat="49.648507" lon="15.999812"><ele>772</ele></trkpt>
<trkpt lat="49.648628" lon="15.999423"><ele>772</ele></trkpt>
<trkpt lat="49.648768" lon="15.999044"><ele>772</ele></trkpt>
<trkpt lat="49.648873" lon="15.998794"><ele>773</ele></trkpt>
<trkpt lat="49.648967" lon="15.998618"><ele>772</ele></trkpt>
<trkpt lat="49.649070" lon="15.998453"><ele>772</ele></trkpt>
<trkpt lat="49.649468" lon="15.997936"><ele>772</ele></trkpt>
<trkpt lat="49.650232" lon="15.997054"><ele>769</ele></trkpt>
<trkpt lat="49.651497" lon="15.995660"><ele>768</ele></trkpt>
<trkpt lat="49.651731" lon="15.995775"><ele>769</ele></trkpt>
<trkpt lat="49.651889" lon="15.995989"><ele>770</ele></trkpt>
<trkpt lat="49.651976" lon="15.996140"><ele>771</ele></trkpt>
<trkpt lat="49.652068" lon="15.996324"><ele>772</ele></trkpt>
<trkpt lat="49.652165" lon="15.996581"><ele>772</ele></trkpt>
<trkpt lat="49.652583" lon="15.997812"><ele>776</ele></trkpt>
<trkpt lat="49.652684" lon="15.998109"><ele>776</ele></trkpt>
<trkpt lat="49.653089" lon="15.998525"><ele>778</ele></trkpt>
<trkpt lat="49.653367" lon="15.998761"><ele>781</ele></trkpt>
<trkpt lat="49.653522" lon="15.998876"><ele>781</ele></trkpt>
<trkpt lat="49.653615" lon="15.998881"><ele>781</ele></trkpt>
<trkpt lat="49.653800" lon="15.998855"><ele>781</ele></trkpt>
<trkpt lat="49.654032" lon="15.998800"><ele>781</ele></trkpt>
<trkpt lat="49.654403" lon="15.998652"><ele>778</ele></trkpt>
<trkpt lat="49.654032" lon="15.998800"><ele>781</ele></trkpt>
<trkpt lat="49.653800" lon="15.998855"><ele>781</ele></trkpt>
<trkpt lat="49.653615" lon="15.998881"><ele>781</ele></trkpt>
<trkpt lat="49.653522" lon="15.998876"><ele>781</ele></trkpt>
<trkpt lat="49.653367" lon="15.998761"><ele>781</ele></trkpt>
<trkpt lat="49.653089" lon="15.998525"><ele>778</ele></trkpt>
<trkpt lat="49.652684" lon="15.998109"><ele>776</ele></trkpt>
<trkpt lat="49.652783" lon="15.998409"><ele>777</ele></trkpt>
<trkpt lat="49.653314" lon="15.999932"><ele>780</ele></trkpt>
<trkpt lat="49.653404" lon="16.000204"><ele>781</ele></trkpt>
<trkpt lat="49.653472" lon="16.000368"><ele>781</ele></trkpt>
<trkpt lat="49.653540" lon="16.000466"><ele>781</ele></trkpt>
<trkpt lat="49.653660" lon="16.000565"><ele>780</ele></trkpt>
<trkpt lat="49.653764" lon="16.000600"><ele>780</ele></trkpt>
<trkpt lat="49.653925" lon="16.000614"><ele>778</ele></trkpt>
<trkpt lat="49.654005" lon="16.000588"><ele>778</ele></trkpt>
<trkpt lat="49.654107" lon="16.000524"><ele>777</ele></trkpt>
<trkpt lat="49.654254" lon="16.000314"><ele>776</ele></trkpt>
<trkpt lat="49.654482" lon="15.999897"><ele>774</ele></trkpt>
<trkpt lat="49.654766" lon="15.999458"><ele>771</ele></trkpt>
<trkpt lat="49.654875" lon="15.999326"><ele>770</ele></trkpt>
<trkpt lat="49.654908" lon="15.999278"><ele>770</ele></trkpt>
<trkpt lat="49.655527" lon="15.999028"><ele>767</ele></trkpt>
<trkpt lat="49.656785" lon="15.998586"><ele>759</ele></trkpt>
<trkpt lat="49.656932" lon="15.998581"><ele>757</ele></trkpt>
<trkpt lat="49.657072" lon="15.998651"><ele>756</ele></trkpt>
<trkpt lat="49.657201" lon="15.998800"><ele>755</ele></trkpt>
<trkpt lat="49.657287" lon="15.998962"><ele>753</ele></trkpt>
<trkpt lat="49.657332" lon="15.999158"><ele>752</ele></trkpt>
<trkpt lat="49.657356" lon="15.999416"><ele>750</ele></trkpt>
<trkpt lat="49.657367" lon="15.999661"><ele>749</ele></trkpt>
<trkpt lat="49.657355" lon="16.000100"><ele>748</ele></trkpt>
<trkpt lat="49.657312" lon="16.000985"><ele>744</ele></trkpt>
<trkpt lat="49.657307" lon="16.001096"><ele>744</ele></trkpt>
<trkpt lat="49.657318" lon="16.001565"><ele>743</ele></trkpt>
<trkpt lat="49.657343" lon="16.001808"><ele>742</ele></trkpt>
<trkpt lat="49.657383" lon="16.001950"><ele>741</ele></trkpt>
<trkpt lat="49.657460" lon="16.002089"><ele>741</ele></trkpt>
<trkpt lat="49.657737" lon="16.002302"><ele>738</ele></trkpt>
<trkpt lat="49.658084" lon="16.002527"><ele>736</ele></trkpt>
<trkpt lat="49.658161" lon="16.002575"><ele>735</ele></trkpt>
<trkpt lat="49.658716" lon="16.003005"><ele>732</ele></trkpt>
<trkpt lat="49.658896" lon="16.003106"><ele>731</ele></trkpt>
<trkpt lat="49.658986" lon="16.003180"><ele>730</ele></trkpt>
<trkpt lat="49.658996" lon="16.003235"><ele>730</ele></trkpt>
<trkpt lat="49.659007" lon="16.003292"><ele>731</ele></trkpt>
<trkpt lat="49.659086" lon="16.003601"><ele>732</ele></trkpt>
<trkpt lat="49.659131" lon="16.003974"><ele>732</ele></trkpt>
<trkpt lat="49.659281" lon="16.004874"><ele>735</ele></trkpt>
<trkpt lat="49.659514" lon="16.006193"><ele>732</ele></trkpt>
<trkpt lat="49.659553" lon="16.006291"><ele>731</ele></trkpt>
<trkpt lat="49.659598" lon="16.006389"><ele>730</ele></trkpt>
<trkpt lat="49.659907" lon="16.006770"><ele>724</ele></trkpt>
<trkpt lat="49.659996" lon="16.006910"><ele>723</ele></trkpt>
<trkpt lat="49.660068" lon="16.007130"><ele>721</ele></trkpt>
<trkpt lat="49.660111" lon="16.007496"><ele>720</ele></trkpt>
<trkpt lat="49.659967" lon="16.007966"><ele>721</ele></trkpt>
<trkpt lat="49.659808" lon="16.008896"><ele>720</ele></trkpt>
<trkpt lat="49.659808" lon="16.009018"><ele>720</ele></trkpt>
<trkpt lat="49.659848" lon="16.009253"><ele>720</ele></trkpt>
<trkpt lat="49.659920" lon="16.009429"><ele>718</ele></trkpt>
<trkpt lat="49.660122" lon="16.010028"><ele>716</ele></trkpt>
<trkpt lat="49.660138" lon="16.010205"><ele>715</ele></trkpt>
<trkpt lat="49.660125" lon="16.010918"><ele>714</ele></trkpt>
<trkpt lat="49.660171" lon="16.011123"><ele>713</ele></trkpt>
<trkpt lat="49.660226" lon="16.011250"><ele>712</ele></trkpt>
<trkpt lat="49.660426" lon="16.011561"><ele>708</ele></trkpt>
<trkpt lat="49.660448" lon="16.011618"><ele>708</ele></trkpt>
<trkpt lat="49.660497" lon="16.011835"><ele>706</ele></trkpt>
<trkpt lat="49.660531" lon="16.012166"><ele>704</ele></trkpt>
<trkpt lat="49.660570" lon="16.012407"><ele>701</ele></trkpt>
<trkpt lat="49.660570" lon="16.012615"><ele>700</ele></trkpt>
<trkpt lat="49.660557" lon="16.012940"><ele>699</ele></trkpt>
<trkpt lat="49.660317" lon="16.013300"><ele>700</ele></trkpt>
<trkpt lat="49.659781" lon="16.014221"><ele>702</ele></trkpt>
<trkpt lat="49.659570" lon="16.014727"><ele>702</ele></trkpt>
<trkpt lat="49.659209" lon="16.015617"><ele>704</ele></trkpt>
<trkpt lat="49.659570" lon="16.014727"><ele>702</ele></trkpt>
<trkpt lat="49.659781" lon="16.014221"><ele>702</ele></trkpt>
<trkpt lat="49.660317" lon="16.013300"><ele>700</ele></trkpt>
<trkpt lat="49.660557" lon="16.012940"><ele>699</ele></trkpt>
<trkpt lat="49.660602" lon="16.013020"><ele>698</ele></trkpt>
<trkpt lat="49.660758" lon="16.013146"><ele>698</ele></trkpt>
<trkpt lat="49.660859" lon="16.013277"><ele>698</ele></trkpt>
<trkpt lat="49.661098" lon="16.013533"><ele>698</ele></trkpt>
<trkpt lat="49.660684" lon="16.014838"><ele>701</ele></trkpt>
<trkpt lat="49.660607" lon="16.014977"><ele>701</ele></trkpt>
<trkpt lat="49.660382" lon="16.015265"><ele>701</ele></trkpt>
<trkpt lat="49.660290" lon="16.015497"><ele>702</ele></trkpt>
<trkpt lat="49.660254" lon="16.015694"><ele>703</ele></trkpt>
<trkpt lat="49.660221" lon="16.015994"><ele>704</ele></trkpt>
<trkpt lat="49.660216" lon="16.017692"><ele>714</ele></trkpt>
<trkpt lat="49.660198" lon="16.018969"><ele>716</ele></trkpt>
<trkpt lat="49.660018" lon="16.020482"><ele>713</ele></trkpt>
<trkpt lat="49.659970" lon="16.020883"><ele>712</ele></trkpt>
<trkpt lat="49.659967" lon="16.021135"><ele>712</ele></trkpt>
<trkpt lat="49.659967" lon="16.021233"><ele>712</ele></trkpt>
<trkpt lat="49.660010" lon="16.021786"><ele>714</ele></trkpt>
<trkpt lat="49.660016" lon="16.022048"><ele>716</ele></trkpt>
<trkpt lat="49.659911" lon="16.022476"><ele>716</ele></trkpt>
<trkpt lat="49.659865" lon="16.022850"><ele>717</ele></trkpt>
<trkpt lat="49.659857" lon="16.023286"><ele>718</ele></trkpt>
<trkpt lat="49.659882" lon="16.023603"><ele>718</ele></trkpt>
<trkpt lat="49.660010" lon="16.024330"><ele>721</ele></trkpt>
<trkpt lat="49.660090" lon="16.024670"><ele>721</ele></trkpt>
<trkpt lat="49.660242" lon="16.025146"><ele>721</ele></trkpt>
<trkpt lat="49.660392" lon="16.025560"><ele>722</ele></trkpt>
<trkpt lat="49.660500" lon="16.025971"><ele>722</ele></trkpt>
<trkpt lat="49.660556" lon="16.026268"><ele>721</ele></trkpt>
<trkpt lat="49.660638" lon="16.026937"><ele>720</ele></trkpt>
<trkpt lat="49.660682" lon="16.027295"><ele>721</ele></trkpt>
<trkpt lat="49.660750" lon="16.028271"><ele>722</ele></trkpt>
<trkpt lat="49.660643" lon="16.029481"><ele>725</ele></trkpt>
<trkpt lat="49.660602" lon="16.029678"><ele>726</ele></trkpt>
<trkpt lat="49.660232" lon="16.030846"><ele>730</ele></trkpt>
<trkpt lat="49.660028" lon="16.031511"><ele>732</ele></trkpt>
<trkpt lat="49.659953" lon="16.031847"><ele>732</ele></trkpt>
<trkpt lat="49.659779" lon="16.032970"><ele>736</ele></trkpt>
<trkpt lat="49.659875" lon="16.033259"><ele>737</ele></trkpt>
<trkpt lat="49.660001" lon="16.033462"><ele>738</ele></trkpt>
<trkpt lat="49.660581" lon="16.033172"><ele>740</ele></trkpt>
<trkpt lat="49.660707" lon="16.033084"><ele>740</ele></trkpt>
<trkpt lat="49.661089" lon="16.032836"><ele>740</ele></trkpt>
<trkpt lat="49.661369" lon="16.032777"><ele>741</ele></trkpt>
<trkpt lat="49.662041" lon="16.032843"><ele>742</ele></trkpt>
<trkpt lat="49.662252" lon="16.032825"><ele>742</ele></trkpt>
<trkpt lat="49.662415" lon="16.032874"><ele>742</ele></trkpt>
<trkpt lat="49.662603" lon="16.033005"><ele>744</ele></trkpt>
<trkpt lat="49.663600" lon="16.034097"><ele>747</ele></trkpt>
<trkpt lat="49.663828" lon="16.034069"><ele>746</ele></trkpt>
<trkpt lat="49.664339" lon="16.033848"><ele>745</ele></trkpt>
<trkpt lat="49.664593" lon="16.033621"><ele>745</ele></trkpt>
<trkpt lat="49.664819" lon="16.033341"><ele>745</ele></trkpt>
<trkpt lat="49.665019" lon="16.033055"><ele>746</ele></trkpt>
<trkpt lat="49.665642" lon="16.032552"><ele>748</ele></trkpt>
<trkpt lat="49.665962" lon="16.032178"><ele>751</ele></trkpt>
<trkpt lat="49.666435" lon="16.031826"><ele>755</ele></trkpt>
<trkpt lat="49.666635" lon="16.031454"><ele>758</ele></trkpt>
<trkpt lat="49.666654" lon="16.031248"><ele>758</ele></trkpt>
<trkpt lat="49.666309" lon="16.030547"><ele>756</ele></trkpt>
<trkpt lat="49.666219" lon="16.030315"><ele>756</ele></trkpt>
<trkpt lat="49.666209" lon="16.030146"><ele>756</ele></trkpt>
<trkpt lat="49.666384" lon="16.029776"><ele>759</ele></trkpt>
<trkpt lat="49.666497" lon="16.029554"><ele>760</ele></trkpt>
<trkpt lat="49.666554" lon="16.029351"><ele>761</ele></trkpt>
<trkpt lat="49.666808" lon="16.029494"><ele>763</ele></trkpt>
<trkpt lat="49.667040" lon="16.029500"><ele>764</ele></trkpt>
<trkpt lat="49.667046" lon="16.029498"><ele>765</ele></trkpt>
<trkpt lat="49.667040" lon="16.029500"><ele>764</ele></trkpt>
<trkpt lat="49.666808" lon="16.029494"><ele>763</ele></trkpt>
<trkpt lat="49.666554" lon="16.029351"><ele>761</ele></trkpt>
<trkpt lat="49.666497" lon="16.029554"><ele>760</ele></trkpt>
<trkpt lat="49.666384" lon="16.029776"><ele>759</ele></trkpt>
<trkpt lat="49.666209" lon="16.030146"><ele>756</ele></trkpt>
<trkpt lat="49.666219" lon="16.030315"><ele>756</ele></trkpt>
<trkpt lat="49.666309" lon="16.030547"><ele>756</ele></trkpt>
<trkpt lat="49.666654" lon="16.031248"><ele>758</ele></trkpt>
<trkpt lat="49.666635" lon="16.031454"><ele>758</ele></trkpt>
<trkpt lat="49.666435" lon="16.031826"><ele>755</ele></trkpt>
<trkpt lat="49.665962" lon="16.032178"><ele>751</ele></trkpt>
<trkpt lat="49.665642" lon="16.032552"><ele>748</ele></trkpt>
<trkpt lat="49.665019" lon="16.033055"><ele>746</ele></trkpt>
<trkpt lat="49.664819" lon="16.033341"><ele>745</ele></trkpt>
<trkpt lat="49.664593" lon="16.033621"><ele>745</ele></trkpt>
<trkpt lat="49.664339" lon="16.033848"><ele>745</ele></trkpt>
<trkpt lat="49.663828" lon="16.034069"><ele>746</ele></trkpt>
<trkpt lat="49.663600" lon="16.034097"><ele>747</ele></trkpt>
<trkpt lat="49.663581" lon="16.034189"><ele>748</ele></trkpt>
<trkpt lat="49.663600" lon="16.034097"><ele>747</ele></trkpt>
<trkpt lat="49.662603" lon="16.033005"><ele>744</ele></trkpt>
<trkpt lat="49.662415" lon="16.032874"><ele>742</ele></trkpt>
<trkpt lat="49.662252" lon="16.032825"><ele>742</ele></trkpt>
<trkpt lat="49.662041" lon="16.032843"><ele>742</ele></trkpt>
<trkpt lat="49.661369" lon="16.032777"><ele>741</ele></trkpt>
<trkpt lat="49.661089" lon="16.032836"><ele>740</ele></trkpt>
<trkpt lat="49.660707" lon="16.033084"><ele>740</ele></trkpt>
<trkpt lat="49.660581" lon="16.033172"><ele>740</ele></trkpt>
<trkpt lat="49.660001" lon="16.033462"><ele>738</ele></trkpt>
<trkpt lat="49.659638" lon="16.033606"><ele>738</ele></trkpt>
<trkpt lat="49.659534" lon="16.033637"><ele>737</ele></trkpt>
<trkpt lat="49.659075" lon="16.034046"><ele>737</ele></trkpt>
<trkpt lat="49.658530" lon="16.034669"><ele>736</ele></trkpt>
<trkpt lat="49.658435" lon="16.034729"><ele>736</ele></trkpt>
<trkpt lat="49.658050" lon="16.034940"><ele>735</ele></trkpt>
<trkpt lat="49.657532" lon="16.035145"><ele>734</ele></trkpt>
<trkpt lat="49.657454" lon="16.035195"><ele>733</ele></trkpt>
<trkpt lat="49.657308" lon="16.035367"><ele>734</ele></trkpt>
<trkpt lat="49.657167" lon="16.035559"><ele>734</ele></trkpt>
<trkpt lat="49.656491" lon="16.036852"><ele>736</ele></trkpt>
<trkpt lat="49.656235" lon="16.037164"><ele>736</ele></trkpt>
<trkpt lat="49.655976" lon="16.037442"><ele>736</ele></trkpt>
<trkpt lat="49.655826" lon="16.037563"><ele>736</ele></trkpt>
<trkpt lat="49.655669" lon="16.037641"><ele>736</ele></trkpt>
<trkpt lat="49.655377" lon="16.037716"><ele>736</ele></trkpt>
<trkpt lat="49.654992" lon="16.037754"><ele>736</ele></trkpt>
<trkpt lat="49.654798" lon="16.037831"><ele>735</ele></trkpt>
<trkpt lat="49.654669" lon="16.037942"><ele>736</ele></trkpt>
<trkpt lat="49.654575" lon="16.038066"><ele>736</ele></trkpt>
<trkpt lat="49.654226" lon="16.038759"><ele>739</ele></trkpt>
<trkpt lat="49.653998" lon="16.039144"><ele>741</ele></trkpt>
<trkpt lat="49.653637" lon="16.039646"><ele>743</ele></trkpt>
<trkpt lat="49.653157" lon="16.040236"><ele>745</ele></trkpt>
<trkpt lat="49.652650" lon="16.040858"><ele>748</ele></trkpt>
<trkpt lat="49.652319" lon="16.041348"><ele>750</ele></trkpt>
<trkpt lat="49.651573" lon="16.042833"><ele>755</ele></trkpt>
<trkpt lat="49.650852" lon="16.044215"><ele>759</ele></trkpt>
<trkpt lat="49.650619" lon="16.044561"><ele>758</ele></trkpt>
<trkpt lat="49.650085" lon="16.045253"><ele>759</ele></trkpt>
<trkpt lat="49.649866" lon="16.045613"><ele>758</ele></trkpt>
<trkpt lat="49.649574" lon="16.046235"><ele>759</ele></trkpt>
<trkpt lat="49.648843" lon="16.047409"><ele>759</ele></trkpt>
<trkpt lat="49.648268" lon="16.048217"><ele>760</ele></trkpt>
<trkpt lat="49.647874" lon="16.048864"><ele>760</ele></trkpt>
<trkpt lat="49.647814" lon="16.048995"><ele>760</ele></trkpt>
<trkpt lat="49.647716" lon="16.049420"><ele>759</ele></trkpt>
<trkpt lat="49.647687" lon="16.049623"><ele>758</ele></trkpt>
<trkpt lat="49.647642" lon="16.049839"><ele>758</ele></trkpt>
<trkpt lat="49.647562" lon="16.050067"><ele>758</ele></trkpt>
<trkpt lat="49.647491" lon="16.050241"><ele>757</ele></trkpt>
<trkpt lat="49.647392" lon="16.050441"><ele>757</ele></trkpt>
<trkpt lat="49.647379" lon="16.050463"><ele>757</ele></trkpt>
<trkpt lat="49.647392" lon="16.050441"><ele>757</ele></trkpt>
<trkpt lat="49.647491" lon="16.050241"><ele>757</ele></trkpt>
<trkpt lat="49.647562" lon="16.050067"><ele>758</ele></trkpt>
<trkpt lat="49.647642" lon="16.049839"><ele>758</ele></trkpt>
<trkpt lat="49.647687" lon="16.049623"><ele>758</ele></trkpt>
<trkpt lat="49.647716" lon="16.049420"><ele>759</ele></trkpt>
<trkpt lat="49.647814" lon="16.048995"><ele>760</ele></trkpt>
<trkpt lat="49.647874" lon="16.048864"><ele>760</ele></trkpt>
<trkpt lat="49.648268" lon="16.048217"><ele>760</ele></trkpt>
<trkpt lat="49.648843" lon="16.047409"><ele>759</ele></trkpt>
<trkpt lat="49.650326" lon="16.048969"><ele>765</ele></trkpt>
<trkpt lat="49.650407" lon="16.049085"><ele>766</ele></trkpt>
<trkpt lat="49.650536" lon="16.049396"><ele>766</ele></trkpt>
<trkpt lat="49.650684" lon="16.049729"><ele>767</ele></trkpt>
<trkpt lat="49.650809" lon="16.050054"><ele>769</ele></trkpt>
<trkpt lat="49.651066" lon="16.050572"><ele>771</ele></trkpt>
<trkpt lat="49.651253" lon="16.050885"><ele>772</ele></trkpt>
<trkpt lat="49.651452" lon="16.051243"><ele>773</ele></trkpt>
<trkpt lat="49.651704" lon="16.051936"><ele>774</ele></trkpt>
<trkpt lat="49.651813" lon="16.052331"><ele>773</ele></trkpt>
<trkpt lat="49.651844" lon="16.052625"><ele>773</ele></trkpt>
<trkpt lat="49.651688" lon="16.053723"><ele>768</ele></trkpt>
<trkpt lat="49.651641" lon="16.054195"><ele>766</ele></trkpt>
<trkpt lat="49.651606" lon="16.054586"><ele>765</ele></trkpt>
<trkpt lat="49.651597" lon="16.054807"><ele>764</ele></trkpt>
<trkpt lat="49.651554" lon="16.054846"><ele>763</ele></trkpt>
<trkpt lat="49.651487" lon="16.055010"><ele>762</ele></trkpt>
<trkpt lat="49.651359" lon="16.055254"><ele>760</ele></trkpt>
<trkpt lat="49.651320" lon="16.055742"><ele>759</ele></trkpt>
<trkpt lat="49.651283" lon="16.056067"><ele>757</ele></trkpt>
<trkpt lat="49.651269" lon="16.056552"><ele>756</ele></trkpt>
<trkpt lat="49.651308" lon="16.056921"><ele>754</ele></trkpt>
<trkpt lat="49.651339" lon="16.057332"><ele>753</ele></trkpt>
<trkpt lat="49.651343" lon="16.057556"><ele>752</ele></trkpt>
<trkpt lat="49.651289" lon="16.058020"><ele>750</ele></trkpt>
<trkpt lat="49.651100" lon="16.058404"><ele>747</ele></trkpt>
<trkpt lat="49.650951" lon="16.058660"><ele>746</ele></trkpt>
<trkpt lat="49.650913" lon="16.058851"><ele>745</ele></trkpt>
<trkpt lat="49.650893" lon="16.059198"><ele>744</ele></trkpt>
<trkpt lat="49.650872" lon="16.059521"><ele>743</ele></trkpt>
<trkpt lat="49.650861" lon="16.059798"><ele>743</ele></trkpt>
<trkpt lat="49.650824" lon="16.060191"><ele>743</ele></trkpt>
<trkpt lat="49.650770" lon="16.060411"><ele>742</ele></trkpt>
<trkpt lat="49.650433" lon="16.061147"><ele>741</ele></trkpt>
<trkpt lat="49.650303" lon="16.061413"><ele>741</ele></trkpt>
<trkpt lat="49.649607" lon="16.062534"><ele>740</ele></trkpt>
<trkpt lat="49.649536" lon="16.062734"><ele>740</ele></trkpt>
<trkpt lat="49.649522" lon="16.063311"><ele>740</ele></trkpt>
<trkpt lat="49.649491" lon="16.063549"><ele>741</ele></trkpt>
<trkpt lat="49.649369" lon="16.064350"><ele>742</ele></trkpt>
<trkpt lat="49.649349" lon="16.064634"><ele>743</ele></trkpt>
<trkpt lat="49.649280" lon="16.065004"><ele>743</ele></trkpt>
<trkpt lat="49.649172" lon="16.065769"><ele>743</ele></trkpt>
<trkpt lat="49.649145" lon="16.066012"><ele>744</ele></trkpt>
<trkpt lat="49.649150" lon="16.066184"><ele>744</ele></trkpt>
<trkpt lat="49.649231" lon="16.066883"><ele>743</ele></trkpt>
<trkpt lat="49.649252" lon="16.067196"><ele>742</ele></trkpt>
<trkpt lat="49.649246" lon="16.067389"><ele>741</ele></trkpt>
<trkpt lat="49.649223" lon="16.067595"><ele>740</ele></trkpt>
<trkpt lat="49.649149" lon="16.067965"><ele>738</ele></trkpt>
<trkpt lat="49.649112" lon="16.068183"><ele>737</ele></trkpt>
<trkpt lat="49.649101" lon="16.068254"><ele>737</ele></trkpt>
<trkpt lat="49.649102" lon="16.068363"><ele>736</ele></trkpt>
<trkpt lat="49.649128" lon="16.068644"><ele>735</ele></trkpt>
<trkpt lat="49.649096" lon="16.068741"><ele>734</ele></trkpt>
<trkpt lat="49.649050" lon="16.068837"><ele>734</ele></trkpt>
<trkpt lat="49.649034" lon="16.068901"><ele>733</ele></trkpt>
<trkpt lat="49.649039" lon="16.068950"><ele>733</ele></trkpt>
<trkpt lat="49.649118" lon="16.069086"><ele>732</ele></trkpt>
<trkpt lat="49.649245" lon="16.069253"><ele>731</ele></trkpt>
<trkpt lat="49.649369" lon="16.069566"><ele>728</ele></trkpt>
<trkpt lat="49.649539" lon="16.069827"><ele>727</ele></trkpt>
<trkpt lat="49.649635" lon="16.069952"><ele>726</ele></trkpt>
<trkpt lat="49.649741" lon="16.070050"><ele>726</ele></trkpt>
<trkpt lat="49.649893" lon="16.070174"><ele>725</ele></trkpt>
<trkpt lat="49.649984" lon="16.070268"><ele>724</ele></trkpt>
<trkpt lat="49.650229" lon="16.070649"><ele>721</ele></trkpt>
<trkpt lat="49.650372" lon="16.070853"><ele>720</ele></trkpt>
<trkpt lat="49.650537" lon="16.071040"><ele>718</ele></trkpt>
<trkpt lat="49.650801" lon="16.071396"><ele>715</ele></trkpt>
<trkpt lat="49.651241" lon="16.071929"><ele>710</ele></trkpt>
<trkpt lat="49.651049" lon="16.072067"><ele>711</ele></trkpt>
<trkpt lat="49.650571" lon="16.072581"><ele>712</ele></trkpt>
<trkpt lat="49.650442" lon="16.072750"><ele>712</ele></trkpt>
<trkpt lat="49.650296" lon="16.073093"><ele>713</ele></trkpt>
<trkpt lat="49.650175" lon="16.073497"><ele>713</ele></trkpt>
<trkpt lat="49.650109" lon="16.073803"><ele>714</ele></trkpt>
<trkpt lat="49.650023" lon="16.074014"><ele>715</ele></trkpt>
<trkpt lat="49.649877" lon="16.074147"><ele>716</ele></trkpt>
<trkpt lat="49.649745" lon="16.074249"><ele>717</ele></trkpt>
<trkpt lat="49.649493" lon="16.074386"><ele>719</ele></trkpt>
<trkpt lat="49.649375" lon="16.074558"><ele>721</ele></trkpt>
<trkpt lat="49.649271" lon="16.074861"><ele>722</ele></trkpt>
<trkpt lat="49.649190" lon="16.075221"><ele>724</ele></trkpt>
<trkpt lat="49.649182" lon="16.075791"><ele>724</ele></trkpt>
<trkpt lat="49.648358" lon="16.075729"><ele>734</ele></trkpt>
<trkpt lat="49.648239" lon="16.075769"><ele>736</ele></trkpt>
<trkpt lat="49.648065" lon="16.075952"><ele>739</ele></trkpt>
<trkpt lat="49.647903" lon="16.076095"><ele>742</ele></trkpt>
<trkpt lat="49.647418" lon="16.076352"><ele>748</ele></trkpt>
<trkpt lat="49.647037" lon="16.076535"><ele>752</ele></trkpt>
<trkpt lat="49.646961" lon="16.076578"><ele>752</ele></trkpt>
<trkpt lat="49.647037" lon="16.076535"><ele>752</ele></trkpt>
<trkpt lat="49.647418" lon="16.076352"><ele>748</ele></trkpt>
<trkpt lat="49.647903" lon="16.076095"><ele>742</ele></trkpt>
<trkpt lat="49.648065" lon="16.075952"><ele>739</ele></trkpt>
<trkpt lat="49.648239" lon="16.075769"><ele>736</ele></trkpt>
<trkpt lat="49.648358" lon="16.075729"><ele>734</ele></trkpt>
<trkpt lat="49.649182" lon="16.075791"><ele>724</ele></trkpt>
<trkpt lat="49.649227" lon="16.076036"><ele>724</ele></trkpt>
<trkpt lat="49.649250" lon="16.076560"><ele>726</ele></trkpt>
<trkpt lat="49.649289" lon="16.076683"><ele>726</ele></trkpt>
<trkpt lat="49.649343" lon="16.076815"><ele>726</ele></trkpt>
<trkpt lat="49.649464" lon="16.076961"><ele>725</ele></trkpt>
<trkpt lat="49.649641" lon="16.077239"><ele>725</ele></trkpt>
<trkpt lat="49.649753" lon="16.077462"><ele>725</ele></trkpt>
<trkpt lat="49.649911" lon="16.078046"><ele>725</ele></trkpt>
<trkpt lat="49.649979" lon="16.078478"><ele>725</ele></trkpt>
<trkpt lat="49.650010" lon="16.079013"><ele>727</ele></trkpt>
<trkpt lat="49.650105" lon="16.079598"><ele>728</ele></trkpt>
<trkpt lat="49.650236" lon="16.079988"><ele>728</ele></trkpt>
<trkpt lat="49.650438" lon="16.080628"><ele>728</ele></trkpt>
<trkpt lat="49.650600" lon="16.081003"><ele>728</ele></trkpt>
<trkpt lat="49.650857" lon="16.081456"><ele>728</ele></trkpt>
<trkpt lat="49.651015" lon="16.081797"><ele>729</ele></trkpt>
<trkpt lat="49.651073" lon="16.082492"><ele>731</ele></trkpt>
<trkpt lat="49.651047" lon="16.082531"><ele>734</ele></trkpt>
<trkpt lat="49.651073" lon="16.082492"><ele>731</ele></trkpt>
<trkpt lat="49.651015" lon="16.081797"><ele>729</ele></trkpt>
<trkpt lat="49.650857" lon="16.081456"><ele>728</ele></trkpt>
<trkpt lat="49.650600" lon="16.081003"><ele>728</ele></trkpt>
<trkpt lat="49.650438" lon="16.080628"><ele>728</ele></trkpt>
<trkpt lat="49.650236" lon="16.079988"><ele>728</ele></trkpt>
<trkpt lat="49.650105" lon="16.079598"><ele>728</ele></trkpt>
<trkpt lat="49.650010" lon="16.079013"><ele>727</ele></trkpt>
<trkpt lat="49.649979" lon="16.078478"><ele>725</ele></trkpt>
<trkpt lat="49.649911" lon="16.078046"><ele>725</ele></trkpt>
<trkpt lat="49.649753" lon="16.077462"><ele>725</ele></trkpt>
<trkpt lat="49.649641" lon="16.077239"><ele>725</ele></trkpt>
<trkpt lat="49.649464" lon="16.076961"><ele>725</ele></trkpt>
<trkpt lat="49.649343" lon="16.076815"><ele>726</ele></trkpt>
<trkpt lat="49.649289" lon="16.076683"><ele>726</ele></trkpt>
<trkpt lat="49.649250" lon="16.076560"><ele>726</ele></trkpt>
<trkpt lat="49.649227" lon="16.076036"><ele>724</ele></trkpt>
<trkpt lat="49.649182" lon="16.075791"><ele>724</ele></trkpt>
<trkpt lat="49.649190" lon="16.075221"><ele>724</ele></trkpt>
<trkpt lat="49.649271" lon="16.074861"><ele>722</ele></trkpt>
<trkpt lat="49.649375" lon="16.074558"><ele>721</ele></trkpt>
<trkpt lat="49.649493" lon="16.074386"><ele>719</ele></trkpt>
<trkpt lat="49.649745" lon="16.074249"><ele>717</ele></trkpt>
<trkpt lat="49.649877" lon="16.074147"><ele>716</ele></trkpt>
<trkpt lat="49.650023" lon="16.074014"><ele>715</ele></trkpt>
<trkpt lat="49.650109" lon="16.073803"><ele>714</ele></trkpt>
<trkpt lat="49.650175" lon="16.073497"><ele>713</ele></trkpt>
<trkpt lat="49.650296" lon="16.073093"><ele>713</ele></trkpt>
<trkpt lat="49.650442" lon="16.072750"><ele>712</ele></trkpt>
<trkpt lat="49.650571" lon="16.072581"><ele>712</ele></trkpt>
<trkpt lat="49.651049" lon="16.072067"><ele>711</ele></trkpt>
<trkpt lat="49.651241" lon="16.071929"><ele>710</ele></trkpt>
<trkpt lat="49.651440" lon="16.071827"><ele>710</ele></trkpt>
<trkpt lat="49.651668" lon="16.071773"><ele>710</ele></trkpt>
<trkpt lat="49.651829" lon="16.071763"><ele>709</ele></trkpt>
<trkpt lat="49.652149" lon="16.071810"><ele>708</ele></trkpt>
<trkpt lat="49.652409" lon="16.071836"><ele>706</ele></trkpt>
<trkpt lat="49.652577" lon="16.071766"><ele>706</ele></trkpt>
<trkpt lat="49.652702" lon="16.071660"><ele>706</ele></trkpt>
<trkpt lat="49.652862" lon="16.071582"><ele>705</ele></trkpt>
<trkpt lat="49.653175" lon="16.071646"><ele>703</ele></trkpt>
<trkpt lat="49.653493" lon="16.071801"><ele>701</ele></trkpt>
<trkpt lat="49.653654" lon="16.071944"><ele>700</ele></trkpt>
<trkpt lat="49.654014" lon="16.072177"><ele>698</ele></trkpt>
<trkpt lat="49.654248" lon="16.072265"><ele>696</ele></trkpt>
<trkpt lat="49.654602" lon="16.072433"><ele>696</ele></trkpt>
<trkpt lat="49.655403" lon="16.072765"><ele>697</ele></trkpt>
<trkpt lat="49.655517" lon="16.072903"><ele>697</ele></trkpt>
<trkpt lat="49.655788" lon="16.073906"><ele>696</ele></trkpt>
<trkpt lat="49.655947" lon="16.074396"><ele>696</ele></trkpt>
<trkpt lat="49.656074" lon="16.074616"><ele>695</ele></trkpt>
<trkpt lat="49.656302" lon="16.074718"><ele>696</ele></trkpt>
<trkpt lat="49.656599" lon="16.074933"><ele>696</ele></trkpt>
<trkpt lat="49.656859" lon="16.075153"><ele>696</ele></trkpt>
<trkpt lat="49.656980" lon="16.075321"><ele>696</ele></trkpt>
<trkpt lat="49.657153" lon="16.075757"><ele>695</ele></trkpt>
<trkpt lat="49.657091" lon="16.076443"><ele>692</ele></trkpt>
<trkpt lat="49.657130" lon="16.076792"><ele>690</ele></trkpt>
<trkpt lat="49.657197" lon="16.077202"><ele>689</ele></trkpt>
<trkpt lat="49.657355" lon="16.077593"><ele>688</ele></trkpt>
<trkpt lat="49.657605" lon="16.077924"><ele>685</ele></trkpt>
<trkpt lat="49.657881" lon="16.078259"><ele>684</ele></trkpt>
<trkpt lat="49.658444" lon="16.078911"><ele>679</ele></trkpt>
<trkpt lat="49.658657" lon="16.079125"><ele>677</ele></trkpt>
<trkpt lat="49.658914" lon="16.079311"><ele>675</ele></trkpt>
<trkpt lat="49.659393" lon="16.079578"><ele>670</ele></trkpt>
<trkpt lat="49.660072" lon="16.079933"><ele>664</ele></trkpt>
<trkpt lat="49.660444" lon="16.080062"><ele>661</ele></trkpt>
<trkpt lat="49.660580" lon="16.080046"><ele>660</ele></trkpt>
<trkpt lat="49.660644" lon="16.080033"><ele>660</ele></trkpt>
<trkpt lat="49.660988" lon="16.080031"><ele>656</ele></trkpt>
<trkpt lat="49.661343" lon="16.080071"><ele>654</ele></trkpt>
<trkpt lat="49.661660" lon="16.080157"><ele>650</ele></trkpt>
<trkpt lat="49.661883" lon="16.080255"><ele>648</ele></trkpt>
<trkpt lat="49.662359" lon="16.080328"><ele>646</ele></trkpt>
<trkpt lat="49.663598" lon="16.080272"><ele>639</ele></trkpt>
<trkpt lat="49.664526" lon="16.080289"><ele>634</ele></trkpt>
<trkpt lat="49.664573" lon="16.080308"><ele>634</ele></trkpt>
<trkpt lat="49.664987" lon="16.080473"><ele>632</ele></trkpt>
<trkpt lat="49.665080" lon="16.080573"><ele>630</ele></trkpt>
<trkpt lat="49.665657" lon="16.081193"><ele>626</ele></trkpt>
<trkpt lat="49.666813" lon="16.082610"><ele>615</ele></trkpt>
<trkpt lat="49.667376" lon="16.083237"><ele>610</ele></trkpt>
<trkpt lat="49.667531" lon="16.083700"><ele>608</ele></trkpt>
<trkpt lat="49.667624" lon="16.083971"><ele>608</ele></trkpt>
<trkpt lat="49.667806" lon="16.084437"><ele>606</ele></trkpt>
<trkpt lat="49.668751" lon="16.086142"><ele>599</ele></trkpt>
<trkpt lat="49.668924" lon="16.086442"><ele>598</ele></trkpt>
<trkpt lat="49.669237" lon="16.087007"><ele>596</ele></trkpt>
<trkpt lat="49.669455" lon="16.087366"><ele>596</ele></trkpt>
<trkpt lat="49.669816" lon="16.088074"><ele>596</ele></trkpt>
<trkpt lat="49.669532" lon="16.088389"><ele>596</ele></trkpt>
<trkpt lat="49.669299" lon="16.088704"><ele>596</ele></trkpt>
<trkpt lat="49.668737" lon="16.089951"><ele>596</ele></trkpt>
<trkpt lat="49.668543" lon="16.090363"><ele>596</ele></trkpt>
<trkpt lat="49.668406" lon="16.090573"><ele>596</ele></trkpt>
<trkpt lat="49.668282" lon="16.090758"><ele>596</ele></trkpt>
<trkpt lat="49.668124" lon="16.090950"><ele>596</ele></trkpt>
<trkpt lat="49.667937" lon="16.091141"><ele>595</ele></trkpt>
<trkpt lat="49.667849" lon="16.091245"><ele>595</ele></trkpt>
<trkpt lat="49.667824" lon="16.091127"><ele>595</ele></trkpt>
<trkpt lat="49.667849" lon="16.091245"><ele>595</ele></trkpt>
<trkpt lat="49.667937" lon="16.091141"><ele>595</ele></trkpt>
<trkpt lat="49.668124" lon="16.090950"><ele>596</ele></trkpt>
<trkpt lat="49.668282" lon="16.090758"><ele>596</ele></trkpt>
<trkpt lat="49.668406" lon="16.090573"><ele>596</ele></trkpt>
<trkpt lat="49.668543" lon="16.090363"><ele>596</ele></trkpt>
<trkpt lat="49.668737" lon="16.089951"><ele>596</ele></trkpt>
<trkpt lat="49.669299" lon="16.088704"><ele>596</ele></trkpt>
<trkpt lat="49.669532" lon="16.088389"><ele>596</ele></trkpt>
<trkpt lat="49.669816" lon="16.088074"><ele>596</ele></trkpt>
<trkpt lat="49.670202" lon="16.087636"><ele>592</ele></trkpt>
<trkpt lat="49.670701" lon="16.087040"><ele>592</ele></trkpt>
<trkpt lat="49.672267" lon="16.085189"><ele>592</ele></trkpt>
<trkpt lat="49.672503" lon="16.084923"><ele>592</ele></trkpt>
<trkpt lat="49.672715" lon="16.084747"><ele>591</ele></trkpt>
<trkpt lat="49.673390" lon="16.084316"><ele>591</ele></trkpt>
<trkpt lat="49.673869" lon="16.083998"><ele>590</ele></trkpt>
<trkpt lat="49.673895" lon="16.083981"><ele>590</ele></trkpt>
<trkpt lat="49.673945" lon="16.083945"><ele>590</ele></trkpt>
<trkpt lat="49.673970" lon="16.083927"><ele>590</ele></trkpt>
<trkpt lat="49.674108" lon="16.083835"><ele>590</ele></trkpt>
<trkpt lat="49.674179" lon="16.083764"><ele>590</ele></trkpt>
<trkpt lat="49.674249" lon="16.083652"><ele>590</ele></trkpt>
<trkpt lat="49.674407" lon="16.083349"><ele>592</ele></trkpt>
<trkpt lat="49.674716" lon="16.084325"><ele>591</ele></trkpt>
<trkpt lat="49.675209" lon="16.085924"><ele>591</ele></trkpt>
<trkpt lat="49.675276" lon="16.086268"><ele>591</ele></trkpt>
<trkpt lat="49.675431" lon="16.086324"><ele>591</ele></trkpt>
<trkpt lat="49.679468" lon="16.087344"><ele>602</ele></trkpt>
<trkpt lat="49.680776" lon="16.087674"><ele>608</ele></trkpt>
<trkpt lat="49.681208" lon="16.087749"><ele>611</ele></trkpt>
<trkpt lat="49.681545" lon="16.087852"><ele>613</ele></trkpt>
<trkpt lat="49.681841" lon="16.087958"><ele>616</ele></trkpt>
<trkpt lat="49.682318" lon="16.088216"><ele>621</ele></trkpt>
<trkpt lat="49.682493" lon="16.088280"><ele>622</ele></trkpt>
<trkpt lat="49.682609" lon="16.088266"><ele>623</ele></trkpt>
<trkpt lat="49.682748" lon="16.088185"><ele>624</ele></trkpt>
<trkpt lat="49.682851" lon="16.088099"><ele>624</ele></trkpt>
<trkpt lat="49.683062" lon="16.087878"><ele>624</ele></trkpt>
<trkpt lat="49.683231" lon="16.087779"><ele>624</ele></trkpt>
<trkpt lat="49.683507" lon="16.087643"><ele>625</ele></trkpt>
<trkpt lat="49.683825" lon="16.087358"><ele>625</ele></trkpt>
<trkpt lat="49.683963" lon="16.087306"><ele>625</ele></trkpt>
<trkpt lat="49.684159" lon="16.087309"><ele>626</ele></trkpt>
<trkpt lat="49.684380" lon="16.087332"><ele>627</ele></trkpt>
<trkpt lat="49.684606" lon="16.087285"><ele>628</ele></trkpt>
<trkpt lat="49.684994" lon="16.087152"><ele>628</ele></trkpt>
<trkpt lat="49.685052" lon="16.087097"><ele>628</ele></trkpt>
<trkpt lat="49.685400" lon="16.086765"><ele>628</ele></trkpt>
<trkpt lat="49.686013" lon="16.086311"><ele>626</ele></trkpt>
<trkpt lat="49.686301" lon="16.086208"><ele>626</ele></trkpt>
<trkpt lat="49.686588" lon="16.086187"><ele>627</ele></trkpt>
<trkpt lat="49.686765" lon="16.086258"><ele>628</ele></trkpt>
<trkpt lat="49.687110" lon="16.086418"><ele>631</ele></trkpt>
<trkpt lat="49.687488" lon="16.086569"><ele>634</ele></trkpt>
<trkpt lat="49.688034" lon="16.086097"><ele>634</ele></trkpt>
<trkpt lat="49.690443" lon="16.080358"><ele>629</ele></trkpt>
<trkpt lat="49.690643" lon="16.079865"><ele>630</ele></trkpt>
<trkpt lat="49.690671" lon="16.079604"><ele>630</ele></trkpt>
<trkpt lat="49.690683" lon="16.079067"><ele>628</ele></trkpt>
<trkpt lat="49.690658" lon="16.078358"><ele>627</ele></trkpt>
<trkpt lat="49.690609" lon="16.077910"><ele>627</ele></trkpt>
<trkpt lat="49.690366" lon="16.076346"><ele>627</ele></trkpt>
<trkpt lat="49.689906" lon="16.073448"><ele>625</ele></trkpt>
<trkpt lat="49.689176" lon="16.068902"><ele>617</ele></trkpt>
<trkpt lat="49.689153" lon="16.068571"><ele>616</ele></trkpt>
<trkpt lat="49.689150" lon="16.068281"><ele>614</ele></trkpt>
<trkpt lat="49.689221" lon="16.066824"><ele>610</ele></trkpt>
<trkpt lat="49.689220" lon="16.066404"><ele>608</ele></trkpt>
<trkpt lat="49.689163" lon="16.065544"><ele>606</ele></trkpt>
<trkpt lat="49.688999" lon="16.063765"><ele>604</ele></trkpt>
<trkpt lat="49.688977" lon="16.063577"><ele>604</ele></trkpt>
<trkpt lat="49.688916" lon="16.063168"><ele>605</ele></trkpt>
<trkpt lat="49.688806" lon="16.063236"><ele>605</ele></trkpt>
<trkpt lat="49.688797" lon="16.063242"><ele>605</ele></trkpt>
<trkpt lat="49.688725" lon="16.063138"><ele>605</ele></trkpt>
<trkpt lat="49.688803" lon="16.063065"><ele>605</ele></trkpt>
<trkpt lat="49.688887" lon="16.062995"><ele>605</ele></trkpt>
<trkpt lat="49.689178" lon="16.062724"><ele>605</ele></trkpt>
<trkpt lat="49.689505" lon="16.062436"><ele>605</ele></trkpt>
<trkpt lat="49.690726" lon="16.061746"><ele>608</ele></trkpt>
<trkpt lat="49.691733" lon="16.061354"><ele>609</ele></trkpt>
<trkpt lat="49.692011" lon="16.061148"><ele>610</ele></trkpt>
<trkpt lat="49.692857" lon="16.060464"><ele>611</ele></trkpt>
<trkpt lat="49.693475" lon="16.059955"><ele>612</ele></trkpt>
<trkpt lat="49.693569" lon="16.059870"><ele>612</ele></trkpt>
<trkpt lat="49.693506" lon="16.059647"><ele>612</ele></trkpt>
<trkpt lat="49.693473" lon="16.059370"><ele>613</ele></trkpt>
<trkpt lat="49.693438" lon="16.058256"><ele>617</ele></trkpt>
<trkpt lat="49.693423" lon="16.057940"><ele>619</ele></trkpt>
<trkpt lat="49.693426" lon="16.057764"><ele>620</ele></trkpt>
<trkpt lat="49.693451" lon="16.057574"><ele>621</ele></trkpt>
<trkpt lat="49.693576" lon="16.056823"><ele>624</ele></trkpt>
<trkpt lat="49.693682" lon="16.056042"><ele>626</ele></trkpt>
<trkpt lat="49.693725" lon="16.055596"><ele>627</ele></trkpt>
<trkpt lat="49.693855" lon="16.054646"><ele>628</ele></trkpt>
<trkpt lat="49.693904" lon="16.054339"><ele>629</ele></trkpt>
<trkpt lat="49.694014" lon="16.054078"><ele>630</ele></trkpt>
<trkpt lat="49.694164" lon="16.053825"><ele>630</ele></trkpt>
<trkpt lat="49.694308" lon="16.053304"><ele>630</ele></trkpt>
<trkpt lat="49.694479" lon="16.052893"><ele>630</ele></trkpt>
<trkpt lat="49.694509" lon="16.052822"><ele>629</ele></trkpt>
<trkpt lat="49.694650" lon="16.052104"><ele>628</ele></trkpt>
<trkpt lat="49.694768" lon="16.051706"><ele>628</ele></trkpt>
<trkpt lat="49.694900" lon="16.051355"><ele>629</ele></trkpt>
<trkpt lat="49.694995" lon="16.051039"><ele>628</ele></trkpt>
<trkpt lat="49.695050" lon="16.050626"><ele>628</ele></trkpt>
<trkpt lat="49.694985" lon="16.049743"><ele>629</ele></trkpt>
<trkpt lat="49.694958" lon="16.049593"><ele>629</ele></trkpt>
<trkpt lat="49.694894" lon="16.049389"><ele>629</ele></trkpt>
<trkpt lat="49.694792" lon="16.049212"><ele>630</ele></trkpt>
<trkpt lat="49.694701" lon="16.049106"><ele>630</ele></trkpt>
<trkpt lat="49.693894" lon="16.048536"><ele>634</ele></trkpt>
<trkpt lat="49.693204" lon="16.047526"><ele>640</ele></trkpt>
<trkpt lat="49.692858" lon="16.047114"><ele>641</ele></trkpt>
<trkpt lat="49.692511" lon="16.046464"><ele>643</ele></trkpt>
<trkpt lat="49.692168" lon="16.046057"><ele>645</ele></trkpt>
<trkpt lat="49.691629" lon="16.045824"><ele>649</ele></trkpt>
<trkpt lat="49.691036" lon="16.045049"><ele>647</ele></trkpt>
<trkpt lat="49.690914" lon="16.044967"><ele>648</ele></trkpt>
<trkpt lat="49.690711" lon="16.044889"><ele>648</ele></trkpt>
<trkpt lat="49.690490" lon="16.044743"><ele>648</ele></trkpt>
<trkpt lat="49.690202" lon="16.044535"><ele>649</ele></trkpt>
<trkpt lat="49.689928" lon="16.044364"><ele>649</ele></trkpt>
<trkpt lat="49.689047" lon="16.044103"><ele>650</ele></trkpt>
<trkpt lat="49.688799" lon="16.043939"><ele>650</ele></trkpt>
<trkpt lat="49.688717" lon="16.043540"><ele>650</ele></trkpt>
<trkpt lat="49.688284" lon="16.040844"><ele>656</ele></trkpt>
<trkpt lat="49.688148" lon="16.040066"><ele>657</ele></trkpt>
<trkpt lat="49.687889" lon="16.038381"><ele>656</ele></trkpt>
<trkpt lat="49.687841" lon="16.038030"><ele>657</ele></trkpt>
<trkpt lat="49.687803" lon="16.037681"><ele>657</ele></trkpt>
<trkpt lat="49.687809" lon="16.037395"><ele>658</ele></trkpt>
<trkpt lat="49.687835" lon="16.037086"><ele>657</ele></trkpt>
<trkpt lat="49.687938" lon="16.036120"><ele>657</ele></trkpt>
<trkpt lat="49.688186" lon="16.034280"><ele>657</ele></trkpt>
<trkpt lat="49.688214" lon="16.034033"><ele>657</ele></trkpt>
<trkpt lat="49.688231" lon="16.033821"><ele>656</ele></trkpt>
<trkpt lat="49.688264" lon="16.031924"><ele>656</ele></trkpt>
<trkpt lat="49.688314" lon="16.031352"><ele>656</ele></trkpt>
<trkpt lat="49.687870" lon="16.030976"><ele>658</ele></trkpt>
<trkpt lat="49.687405" lon="16.030607"><ele>659</ele></trkpt>
<trkpt lat="49.687272" lon="16.030504"><ele>659</ele></trkpt>
<trkpt lat="49.687131" lon="16.030353"><ele>660</ele></trkpt>
<trkpt lat="49.686769" lon="16.029871"><ele>662</ele></trkpt>
<trkpt lat="49.686196" lon="16.029043"><ele>666</ele></trkpt>
<trkpt lat="49.686112" lon="16.028941"><ele>667</ele></trkpt>
<trkpt lat="49.686058" lon="16.028806"><ele>667</ele></trkpt>
<trkpt lat="49.685964" lon="16.028496"><ele>668</ele></trkpt>
<trkpt lat="49.685926" lon="16.028299"><ele>668</ele></trkpt>
<trkpt lat="49.685858" lon="16.027743"><ele>669</ele></trkpt>
<trkpt lat="49.685490" lon="16.025221"><ele>676</ele></trkpt>
<trkpt lat="49.685431" lon="16.024909"><ele>676</ele></trkpt>
<trkpt lat="49.685373" lon="16.024646"><ele>678</ele></trkpt>
<trkpt lat="49.685297" lon="16.024372"><ele>679</ele></trkpt>
<trkpt lat="49.685221" lon="16.024164"><ele>680</ele></trkpt>
<trkpt lat="49.685051" lon="16.023739"><ele>682</ele></trkpt>
<trkpt lat="49.684629" lon="16.022917"><ele>685</ele></trkpt>
<trkpt lat="49.684455" lon="16.022691"><ele>686</ele></trkpt>
<trkpt lat="49.684100" lon="16.022276"><ele>688</ele></trkpt>
<trkpt lat="49.683083" lon="16.021016"><ele>693</ele></trkpt>
<trkpt lat="49.682598" lon="16.020320"><ele>696</ele></trkpt>
<trkpt lat="49.682165" lon="16.019541"><ele>698</ele></trkpt>
<trkpt lat="49.681431" lon="16.017844"><ele>702</ele></trkpt>
<trkpt lat="49.680987" lon="16.016884"><ele>704</ele></trkpt>
<trkpt lat="49.680835" lon="16.016523"><ele>704</ele></trkpt>
<trkpt lat="49.680756" lon="16.016030"><ele>704</ele></trkpt>
<trkpt lat="49.680695" lon="16.015433"><ele>703</ele></trkpt>
<trkpt lat="49.680611" lon="16.014755"><ele>702</ele></trkpt>
<trkpt lat="49.680593" lon="16.014469"><ele>701</ele></trkpt>
<trkpt lat="49.680449" lon="16.014243"><ele>700</ele></trkpt>
<trkpt lat="49.680310" lon="16.014115"><ele>700</ele></trkpt>
<trkpt lat="49.680159" lon="16.014034"><ele>700</ele></trkpt>
<trkpt lat="49.679964" lon="16.013948"><ele>699</ele></trkpt>
<trkpt lat="49.679969" lon="16.014029"><ele>700</ele></trkpt>
<trkpt lat="49.679962" lon="16.014086"><ele>700</ele></trkpt>
<trkpt lat="49.679871" lon="16.014427"><ele>702</ele></trkpt>
<trkpt lat="49.679688" lon="16.014938"><ele>704</ele></trkpt>
<trkpt lat="49.679379" lon="16.015711"><ele>708</ele></trkpt>
<trkpt lat="49.679296" lon="16.015896"><ele>709</ele></trkpt>
<trkpt lat="49.679115" lon="16.016244"><ele>712</ele></trkpt>
<trkpt lat="49.678935" lon="16.016553"><ele>714</ele></trkpt>
<trkpt lat="49.678833" lon="16.016705"><ele>716</ele></trkpt>
<trkpt lat="49.678720" lon="16.016820"><ele>717</ele></trkpt>
<trkpt lat="49.678588" lon="16.016940"><ele>718</ele></trkpt>
<trkpt lat="49.678537" lon="16.016979"><ele>718</ele></trkpt>
<trkpt lat="49.678486" lon="16.017001"><ele>719</ele></trkpt>
<trkpt lat="49.677818" lon="16.017572"><ele>729</ele></trkpt>
<trkpt lat="49.677155" lon="16.018677"><ele>743</ele></trkpt>
<trkpt lat="49.676696" lon="16.019259"><ele>751</ele></trkpt>
<trkpt lat="49.676436" lon="16.019512"><ele>754</ele></trkpt>
<trkpt lat="49.676193" lon="16.019724"><ele>757</ele></trkpt>
<trkpt lat="49.676009" lon="16.019872"><ele>759</ele></trkpt>
<trkpt lat="49.675922" lon="16.019983"><ele>760</ele></trkpt>
<trkpt lat="49.675689" lon="16.020476"><ele>762</ele></trkpt>
<trkpt lat="49.675641" lon="16.020696"><ele>764</ele></trkpt>
<trkpt lat="49.675608" lon="16.021023"><ele>766</ele></trkpt>
<trkpt lat="49.675564" lon="16.021707"><ele>770</ele></trkpt>
<trkpt lat="49.675431" lon="16.022420"><ele>774</ele></trkpt>
<trkpt lat="49.675349" lon="16.022720"><ele>775</ele></trkpt>
<trkpt lat="49.675258" lon="16.022951"><ele>775</ele></trkpt>
<trkpt lat="49.675143" lon="16.023093"><ele>774</ele></trkpt>
<trkpt lat="49.674899" lon="16.023238"><ele>774</ele></trkpt>
<trkpt lat="49.674760" lon="16.023418"><ele>773</ele></trkpt>
<trkpt lat="49.674596" lon="16.023761"><ele>772</ele></trkpt>
<trkpt lat="49.674540" lon="16.023808"><ele>771</ele></trkpt>
<trkpt lat="49.674596" lon="16.023761"><ele>772</ele></trkpt>
<trkpt lat="49.674760" lon="16.023418"><ele>773</ele></trkpt>
<trkpt lat="49.674899" lon="16.023238"><ele>774</ele></trkpt>
<trkpt lat="49.675143" lon="16.023093"><ele>774</ele></trkpt>
<trkpt lat="49.675258" lon="16.022951"><ele>775</ele></trkpt>
<trkpt lat="49.675349" lon="16.022720"><ele>775</ele></trkpt>
<trkpt lat="49.675431" lon="16.022420"><ele>774</ele></trkpt>
<trkpt lat="49.675564" lon="16.021707"><ele>770</ele></trkpt>
<trkpt lat="49.675608" lon="16.021023"><ele>766</ele></trkpt>
<trkpt lat="49.675641" lon="16.020696"><ele>764</ele></trkpt>
<trkpt lat="49.675689" lon="16.020476"><ele>762</ele></trkpt>
<trkpt lat="49.675922" lon="16.019983"><ele>760</ele></trkpt>
<trkpt lat="49.676009" lon="16.019872"><ele>759</ele></trkpt>
<trkpt lat="49.676193" lon="16.019724"><ele>757</ele></trkpt>
<trkpt lat="49.676436" lon="16.019512"><ele>754</ele></trkpt>
<trkpt lat="49.676696" lon="16.019259"><ele>751</ele></trkpt>
<trkpt lat="49.677155" lon="16.018677"><ele>743</ele></trkpt>
<trkpt lat="49.677818" lon="16.017572"><ele>729</ele></trkpt>
<trkpt lat="49.678486" lon="16.017001"><ele>719</ele></trkpt>
<trkpt lat="49.678537" lon="16.016979"><ele>718</ele></trkpt>
<trkpt lat="49.678588" lon="16.016940"><ele>718</ele></trkpt>
<trkpt lat="49.678720" lon="16.016820"><ele>717</ele></trkpt>
<trkpt lat="49.678833" lon="16.016705"><ele>716</ele></trkpt>
<trkpt lat="49.678935" lon="16.016553"><ele>714</ele></trkpt>
<trkpt lat="49.679115" lon="16.016244"><ele>712</ele></trkpt>
<trkpt lat="49.679296" lon="16.015896"><ele>709</ele></trkpt>
<trkpt lat="49.679379" lon="16.015711"><ele>708</ele></trkpt>
<trkpt lat="49.679688" lon="16.014938"><ele>704</ele></trkpt>
<trkpt lat="49.679871" lon="16.014427"><ele>702</ele></trkpt>
<trkpt lat="49.679962" lon="16.014086"><ele>700</ele></trkpt>
<trkpt lat="49.679969" lon="16.014029"><ele>700</ele></trkpt>
<trkpt lat="49.679964" lon="16.013948"><ele>699</ele></trkpt>
<trkpt lat="49.679900" lon="16.013932"><ele>699</ele></trkpt>
<trkpt lat="49.679732" lon="16.013932"><ele>699</ele></trkpt>
<trkpt lat="49.679419" lon="16.013871"><ele>699</ele></trkpt>
<trkpt lat="49.678092" lon="16.013496"><ele>700</ele></trkpt>
<trkpt lat="49.677950" lon="16.013411"><ele>700</ele></trkpt>
<trkpt lat="49.677746" lon="16.013248"><ele>700</ele></trkpt>
<trkpt lat="49.677463" lon="16.012940"><ele>701</ele></trkpt>
<trkpt lat="49.677289" lon="16.012738"><ele>701</ele></trkpt>
<trkpt lat="49.676922" lon="16.012312"><ele>701</ele></trkpt>
<trkpt lat="49.676575" lon="16.011839"><ele>700</ele></trkpt>
<trkpt lat="49.676410" lon="16.011568"><ele>700</ele></trkpt>
<trkpt lat="49.676085" lon="16.010924"><ele>700</ele></trkpt>
<trkpt lat="49.675965" lon="16.010751"><ele>700</ele></trkpt>
<trkpt lat="49.675812" lon="16.010568"><ele>700</ele></trkpt>
<trkpt lat="49.675696" lon="16.010446"><ele>700</ele></trkpt>
<trkpt lat="49.675480" lon="16.010311"><ele>701</ele></trkpt>
<trkpt lat="49.675216" lon="16.010195"><ele>701</ele></trkpt>
<trkpt lat="49.674975" lon="16.010154"><ele>701</ele></trkpt>
<trkpt lat="49.673351" lon="16.009858"><ele>695</ele></trkpt>
<trkpt lat="49.673397" lon="16.009491"><ele>692</ele></trkpt>
<trkpt lat="49.673441" lon="16.009272"><ele>691</ele></trkpt>
<trkpt lat="49.673477" lon="16.009176"><ele>690</ele></trkpt>
<trkpt lat="49.673642" lon="16.008873"><ele>688</ele></trkpt>
<trkpt lat="49.673764" lon="16.008500"><ele>685</ele></trkpt>
<trkpt lat="49.674025" lon="16.008189"><ele>683</ele></trkpt>
<trkpt lat="49.674137" lon="16.008026"><ele>681</ele></trkpt>
<trkpt lat="49.674025" lon="16.008189"><ele>683</ele></trkpt>
<trkpt lat="49.673764" lon="16.008500"><ele>685</ele></trkpt>
<trkpt lat="49.673642" lon="16.008873"><ele>688</ele></trkpt>
<trkpt lat="49.673477" lon="16.009176"><ele>690</ele></trkpt>
<trkpt lat="49.673441" lon="16.009272"><ele>691</ele></trkpt>
<trkpt lat="49.673397" lon="16.009491"><ele>692</ele></trkpt>
<trkpt lat="49.673351" lon="16.009858"><ele>695</ele></trkpt>
<trkpt lat="49.672768" lon="16.009774"><ele>694</ele></trkpt>
<trkpt lat="49.672605" lon="16.009734"><ele>694</ele></trkpt>
<trkpt lat="49.672224" lon="16.009647"><ele>694</ele></trkpt>
<trkpt lat="49.672046" lon="16.009549"><ele>694</ele></trkpt>
<trkpt lat="49.671868" lon="16.009386"><ele>694</ele></trkpt>
<trkpt lat="49.671784" lon="16.009259"><ele>694</ele></trkpt>
<trkpt lat="49.671726" lon="16.009091"><ele>695</ele></trkpt>
<trkpt lat="49.671695" lon="16.008827"><ele>696</ele></trkpt>
<trkpt lat="49.671718" lon="16.008594"><ele>695</ele></trkpt>
<trkpt lat="49.671945" lon="16.007935"><ele>696</ele></trkpt>
<trkpt lat="49.672240" lon="16.007332"><ele>696</ele></trkpt>
<trkpt lat="49.672579" lon="16.006698"><ele>697</ele></trkpt>
<trkpt lat="49.672724" lon="16.006372"><ele>697</ele></trkpt>
<trkpt lat="49.672854" lon="16.006047"><ele>696</ele></trkpt>
<trkpt lat="49.672999" lon="16.005585"><ele>698</ele></trkpt>
<trkpt lat="49.673120" lon="16.005089"><ele>696</ele></trkpt>
<trkpt lat="49.673000" lon="16.004648"><ele>695</ele></trkpt>
<trkpt lat="49.672929" lon="16.004406"><ele>694</ele></trkpt>
<trkpt lat="49.671727" lon="16.004488"><ele>695</ele></trkpt>
<trkpt lat="49.671586" lon="16.004543"><ele>696</ele></trkpt>
<trkpt lat="49.671504" lon="16.004576"><ele>696</ele></trkpt>
<trkpt lat="49.671341" lon="16.004661"><ele>696</ele></trkpt>
<trkpt lat="49.670650" lon="16.005220"><ele>703</ele></trkpt>
<trkpt lat="49.670540" lon="16.005276"><ele>704</ele></trkpt>
<trkpt lat="49.669960" lon="16.005443"><ele>707</ele></trkpt>
<trkpt lat="49.669498" lon="16.005590"><ele>709</ele></trkpt>
<trkpt lat="49.669254" lon="16.005639"><ele>710</ele></trkpt>
<trkpt lat="49.668895" lon="16.005727"><ele>712</ele></trkpt>
<trkpt lat="49.668747" lon="16.005782"><ele>714</ele></trkpt>
<trkpt lat="49.668611" lon="16.005863"><ele>715</ele></trkpt>
<trkpt lat="49.668484" lon="16.005981"><ele>716</ele></trkpt>
<trkpt lat="49.668383" lon="16.006082"><ele>717</ele></trkpt>
<trkpt lat="49.668276" lon="16.006220"><ele>718</ele></trkpt>
<trkpt lat="49.668155" lon="16.006416"><ele>719</ele></trkpt>
<trkpt lat="49.668050" lon="16.006628"><ele>720</ele></trkpt>
<trkpt lat="49.667493" lon="16.007888"><ele>722</ele></trkpt>
<trkpt lat="49.667318" lon="16.008241"><ele>722</ele></trkpt>
<trkpt lat="49.667199" lon="16.008439"><ele>722</ele></trkpt>
<trkpt lat="49.667049" lon="16.008654"><ele>721</ele></trkpt>
<trkpt lat="49.666291" lon="16.009589"><ele>719</ele></trkpt>
<trkpt lat="49.665986" lon="16.009933"><ele>718</ele></trkpt>
<trkpt lat="49.665838" lon="16.010041"><ele>717</ele></trkpt>
<trkpt lat="49.665711" lon="16.010099"><ele>716</ele></trkpt>
<trkpt lat="49.665548" lon="16.010133"><ele>715</ele></trkpt>
<trkpt lat="49.665221" lon="16.010134"><ele>713</ele></trkpt>
<trkpt lat="49.664331" lon="16.010153"><ele>708</ele></trkpt>
<trkpt lat="49.664133" lon="16.010178"><ele>708</ele></trkpt>
<trkpt lat="49.663972" lon="16.010228"><ele>707</ele></trkpt>
<trkpt lat="49.662963" lon="16.011217"><ele>701</ele></trkpt>
<trkpt lat="49.662463" lon="16.011886"><ele>700</ele></trkpt>
<trkpt lat="49.662329" lon="16.012073"><ele>699</ele></trkpt>
<trkpt lat="49.662013" lon="16.012267"><ele>696</ele></trkpt>
<trkpt lat="49.661716" lon="16.012555"><ele>694</ele></trkpt>
<trkpt lat="49.661600" lon="16.012704"><ele>695</ele></trkpt>
<trkpt lat="49.661457" lon="16.012963"><ele>696</ele></trkpt>
<trkpt lat="49.661173" lon="16.013398"><ele>698</ele></trkpt>
<trkpt lat="49.661098" lon="16.013533"><ele>698</ele></trkpt>
<trkpt lat="49.660859" lon="16.013277"><ele>698</ele></trkpt>
<trkpt lat="49.660758" lon="16.013146"><ele>698</ele></trkpt>
<trkpt lat="49.660602" lon="16.013020"><ele>698</ele></trkpt>
<trkpt lat="49.660557" lon="16.012940"><ele>699</ele></trkpt>
<trkpt lat="49.660570" lon="16.012615"><ele>700</ele></trkpt>
<trkpt lat="49.660570" lon="16.012407"><ele>701</ele></trkpt>
<trkpt lat="49.660531" lon="16.012166"><ele>704</ele></trkpt>
<trkpt lat="49.660497" lon="16.011835"><ele>706</ele></trkpt>
<trkpt lat="49.660448" lon="16.011618"><ele>708</ele></trkpt>
<trkpt lat="49.660426" lon="16.011561"><ele>708</ele></trkpt>
<trkpt lat="49.660226" lon="16.011250"><ele>712</ele></trkpt>
<trkpt lat="49.660171" lon="16.011123"><ele>713</ele></trkpt>
<trkpt lat="49.660125" lon="16.010918"><ele>714</ele></trkpt>
<trkpt lat="49.660138" lon="16.010205"><ele>715</ele></trkpt>
<trkpt lat="49.660122" lon="16.010028"><ele>716</ele></trkpt>
<trkpt lat="49.659920" lon="16.009429"><ele>718</ele></trkpt>
<trkpt lat="49.659848" lon="16.009253"><ele>720</ele></trkpt>
<trkpt lat="49.659808" lon="16.009018"><ele>720</ele></trkpt>
<trkpt lat="49.659808" lon="16.008896"><ele>720</ele></trkpt>
<trkpt lat="49.659967" lon="16.007966"><ele>721</ele></trkpt>
<trkpt lat="49.660111" lon="16.007496"><ele>720</ele></trkpt>
<trkpt lat="49.660068" lon="16.007130"><ele>721</ele></trkpt>
<trkpt lat="49.659996" lon="16.006910"><ele>723</ele></trkpt>
<trkpt lat="49.659907" lon="16.006770"><ele>724</ele></trkpt>
<trkpt lat="49.659598" lon="16.006389"><ele>730</ele></trkpt>
<trkpt lat="49.659553" lon="16.006291"><ele>731</ele></trkpt>
<trkpt lat="49.659514" lon="16.006193"><ele>732</ele></trkpt>
<trkpt lat="49.659281" lon="16.004874"><ele>735</ele></trkpt>
<trkpt lat="49.659131" lon="16.003974"><ele>732</ele></trkpt>
<trkpt lat="49.659086" lon="16.003601"><ele>732</ele></trkpt>
<trkpt lat="49.659007" lon="16.003292"><ele>731</ele></trkpt>
<trkpt lat="49.658996" lon="16.003235"><ele>730</ele></trkpt>
<trkpt lat="49.658986" lon="16.003180"><ele>730</ele></trkpt>
<trkpt lat="49.658971" lon="16.003106"><ele>730</ele></trkpt>
<trkpt lat="49.658856" lon="16.002323"><ele>728</ele></trkpt>
<trkpt lat="49.658848" lon="16.002261"><ele>728</ele></trkpt>
<trkpt lat="49.658827" lon="16.002063"><ele>728</ele></trkpt>
<trkpt lat="49.658819" lon="16.001946"><ele>728</ele></trkpt>
<trkpt lat="49.658095" lon="15.997840"><ele>754</ele></trkpt>
<trkpt lat="49.657993" lon="15.997033"><ele>763</ele></trkpt>
<trkpt lat="49.657885" lon="15.996485"><ele>770</ele></trkpt>
<trkpt lat="49.657869" lon="15.996360"><ele>772</ele></trkpt>
<trkpt lat="49.657885" lon="15.996485"><ele>770</ele></trkpt>
<trkpt lat="49.657677" lon="15.996577"><ele>770</ele></trkpt>
<trkpt lat="49.657398" lon="15.996577"><ele>772</ele></trkpt>
<trkpt lat="49.657278" lon="15.996704"><ele>771</ele></trkpt>
<trkpt lat="49.657040" lon="15.996695"><ele>772</ele></trkpt>
<trkpt lat="49.656902" lon="15.996767"><ele>772</ele></trkpt>
<trkpt lat="49.656694" lon="15.996846"><ele>773</ele></trkpt>
<trkpt lat="49.656009" lon="15.997053"><ele>776</ele></trkpt>
<trkpt lat="49.655911" lon="15.997160"><ele>776</ele></trkpt>
<trkpt lat="49.655512" lon="15.997718"><ele>776</ele></trkpt>
<trkpt lat="49.655352" lon="15.997887"><ele>778</ele></trkpt>
<trkpt lat="49.655182" lon="15.998223"><ele>777</ele></trkpt>
<trkpt lat="49.654652" lon="15.998592"><ele>777</ele></trkpt>
<trkpt lat="49.654417" lon="15.998647"><ele>778</ele></trkpt>
<trkpt lat="49.654032" lon="15.998800"><ele>781</ele></trkpt>
<trkpt lat="49.653800" lon="15.998855"><ele>781</ele></trkpt>
<trkpt lat="49.653615" lon="15.998881"><ele>781</ele></trkpt>
<trkpt lat="49.653522" lon="15.998876"><ele>781</ele></trkpt>
<trkpt lat="49.653367" lon="15.998761"><ele>781</ele></trkpt>
<trkpt lat="49.653089" lon="15.998525"><ele>778</ele></trkpt>
<trkpt lat="49.652684" lon="15.998109"><ele>776</ele></trkpt>
<trkpt lat="49.652583" lon="15.997812"><ele>776</ele></trkpt>
<trkpt lat="49.652165" lon="15.996581"><ele>772</ele></trkpt>
<trkpt lat="49.652136" lon="15.996295"><ele>772</ele></trkpt>
<trkpt lat="49.652091" lon="15.995552"><ele>771</ele></trkpt>
<trkpt lat="49.652033" lon="15.994499"><ele>768</ele></trkpt>
<trkpt lat="49.652024" lon="15.994228"><ele>766</ele></trkpt>
<trkpt lat="49.652332" lon="15.993199"><ele>762</ele></trkpt>
<trkpt lat="49.653431" lon="15.990429"><ele>750</ele></trkpt>
<trkpt lat="49.653520" lon="15.990256"><ele>750</ele></trkpt>
<trkpt lat="49.654131" lon="15.988984"><ele>746</ele></trkpt>
<trkpt lat="49.655284" lon="15.986761"><ele>738</ele></trkpt>
<trkpt lat="49.655796" lon="15.985706"><ele>734</ele></trkpt>
<trkpt lat="49.656009" lon="15.985199"><ele>731</ele></trkpt>
<trkpt lat="49.657363" lon="15.981914"><ele>715</ele></trkpt>
<trkpt lat="49.658725" lon="15.978611"><ele>700</ele></trkpt>
<trkpt lat="49.659419" lon="15.976923"><ele>694</ele></trkpt>
<trkpt lat="49.659468" lon="15.976809"><ele>693</ele></trkpt>
<trkpt lat="49.660476" lon="15.974427"><ele>686</ele></trkpt>
<trkpt lat="49.660575" lon="15.974162"><ele>685</ele></trkpt>
<trkpt lat="49.660525" lon="15.973759"><ele>683</ele></trkpt>
<trkpt lat="49.660402" lon="15.973502"><ele>682</ele></trkpt>
<trkpt lat="49.660230" lon="15.973243"><ele>681</ele></trkpt>
<trkpt lat="49.660060" lon="15.973199"><ele>680</ele></trkpt>
<trkpt lat="49.659925" lon="15.973106"><ele>680</ele></trkpt>
<trkpt lat="49.657852" lon="15.971265"><ele>676</ele></trkpt>
<trkpt lat="49.657773" lon="15.971192"><ele>676</ele></trkpt>
<trkpt lat="49.656440" lon="15.970006"><ele>686</ele></trkpt>
<trkpt lat="49.654384" lon="15.968234"><ele>694</ele></trkpt>
<trkpt lat="49.654165" lon="15.968093"><ele>695</ele></trkpt>
<trkpt lat="49.653791" lon="15.969278"><ele>693</ele></trkpt>
<trkpt lat="49.654165" lon="15.968093"><ele>695</ele></trkpt>
<trkpt lat="49.653844" lon="15.967886"><ele>697</ele></trkpt>
<trkpt lat="49.653360" lon="15.967715"><ele>701</ele></trkpt>
<trkpt lat="49.652846" lon="15.967664"><ele>704</ele></trkpt>
<trkpt lat="49.652871" lon="15.967052"><ele>706</ele></trkpt>
<trkpt lat="49.653121" lon="15.964019"><ele>702</ele></trkpt>
<trkpt lat="49.652379" lon="15.964581"><ele>702</ele></trkpt>
<trkpt lat="49.652139" lon="15.964738"><ele>702</ele></trkpt>
<trkpt lat="49.651672" lon="15.964918"><ele>700</ele></trkpt>
<trkpt lat="49.651335" lon="15.964998"><ele>700</ele></trkpt>
<trkpt lat="49.651132" lon="15.965019"><ele>699</ele></trkpt>
<trkpt lat="49.650758" lon="15.965084"><ele>696</ele></trkpt>
<trkpt lat="49.650569" lon="15.965143"><ele>694</ele></trkpt>
<trkpt lat="49.650505" lon="15.965173"><ele>694</ele></trkpt>
<trkpt lat="49.650381" lon="15.965276"><ele>694</ele></trkpt>
<trkpt lat="49.650379" lon="15.965277"><ele>692</ele></trkpt>
<trkpt lat="49.650090" lon="15.965550"><ele>692</ele></trkpt>
<trkpt lat="49.649867" lon="15.965737"><ele>692</ele></trkpt>
<trkpt lat="49.649651" lon="15.965931"><ele>691</ele></trkpt>
<trkpt lat="49.649474" lon="15.966134"><ele>690</ele></trkpt>
<trkpt lat="49.649310" lon="15.966377"><ele>690</ele></trkpt>
<trkpt lat="49.649151" lon="15.966628"><ele>690</ele></trkpt>
<trkpt lat="49.648884" lon="15.966973"><ele>688</ele></trkpt>
<trkpt lat="49.648604" lon="15.967200"><ele>687</ele></trkpt>
<trkpt lat="49.648227" lon="15.967406"><ele>684</ele></trkpt>
<trkpt lat="49.647682" lon="15.967544"><ele>680</ele></trkpt>
<trkpt lat="49.647544" lon="15.967540"><ele>679</ele></trkpt>
<trkpt lat="49.647387" lon="15.967492"><ele>678</ele></trkpt>
<trkpt lat="49.647283" lon="15.967442"><ele>677</ele></trkpt>
<trkpt lat="49.647162" lon="15.967350"><ele>676</ele></trkpt>
<trkpt lat="49.646874" lon="15.967086"><ele>674</ele></trkpt>
<trkpt lat="49.646761" lon="15.966923"><ele>674</ele></trkpt>
<trkpt lat="49.646581" lon="15.966496"><ele>672</ele></trkpt>
<trkpt lat="49.646551" lon="15.966427"><ele>672</ele></trkpt>
<trkpt lat="49.646440" lon="15.966247"><ele>671</ele></trkpt>
<trkpt lat="49.646312" lon="15.966111"><ele>670</ele></trkpt>
<trkpt lat="49.646208" lon="15.966034"><ele>670</ele></trkpt>
<trkpt lat="49.646122" lon="15.965939"><ele>669</ele></trkpt>
<trkpt lat="49.646053" lon="15.965847"><ele>669</ele></trkpt>
<trkpt lat="49.645969" lon="15.965782"><ele>668</ele></trkpt>
<trkpt lat="49.645890" lon="15.965759"><ele>668</ele></trkpt>
<trkpt lat="49.645796" lon="15.965773"><ele>667</ele></trkpt>
<trkpt lat="49.645676" lon="15.965869"><ele>667</ele></trkpt>
<trkpt lat="49.645584" lon="15.966142"><ele>667</ele></trkpt>
<trkpt lat="49.645529" lon="15.966303"><ele>667</ele></trkpt>
<trkpt lat="49.645041" lon="15.967409"><ele>667</ele></trkpt>
<trkpt lat="49.644443" lon="15.966914"><ele>662</ele></trkpt>
<trkpt lat="49.644313" lon="15.966793"><ele>660</ele></trkpt>
<trkpt lat="49.644152" lon="15.967435"><ele>660</ele></trkpt>
<trkpt lat="49.643916" lon="15.968121"><ele>658</ele></trkpt>
</trkseg></trk>
</gpx>
