<?xml version="1.0" encoding="UTF-8"?>
<gpx version="1.1" creator="Vysočina 2026 – Mlýn Vikinek" xmlns="http://www.topografix.com/GPX/1/1">
<metadata><name>Na Medlov za lanovým parkem</name><desc>Přes pramen Svratky a Fryšavu k lanovému parku a pohádkové stezce na Medlově, zpět přes Tři Studně.</desc></metadata>
<wpt lat="49.643880" lon="15.999420"><name>Pramen Svratky</name><desc>Tady se rodí Svratka. Její voda doteče přes Brno a Dunaj až do Černého moře.</desc></wpt>
<wpt lat="49.616040" lon="16.054490"><name>Medlov: lanový park a pohádkové stezky</name><desc>Volně přístupný lanový park v lese, prolézačky u rybníka a pohádkové stezky se skřítčí vesničkou.</desc></wpt>
<wpt lat="49.624780" lon="16.010330"><name>Brožova a Hudecká skalka</name><desc>Tři skály až 20 m vysoké v lese nad Třemi Studněmi, bez davů.</desc></wpt>
<wpt lat="49.629660" lon="16.040590"><name>Stanice lyžařů Fryšava</name><desc>Nejoblíbenější podnik Žďárska podle čtenářů Deníku: poctivá česká kuchyně pod Žákovou horou.</desc></wpt>
<trk><name>Na Medlov za lanovým parkem</name><trkseg>
<trkpt lat="49.643916" lon="15.968121"><ele>658</ele></trkpt>
<trkpt lat="49.644152" lon="15.967435"><ele>660</ele></trkpt>
<trkpt lat="49.644313" lon="15.966793"><ele>660</ele></trkpt>
<trkpt lat="49.643848" lon="15.966364"><ele>656</ele></trkpt>
<trkpt lat="49.642601" lon="15.965254"><ele>658</ele></trkpt>
<trkpt lat="49.642290" lon="15.964978"><ele>661</ele></trkpt>
<trkpt lat="49.642130" lon="15.965125"><ele>663</ele></trkpt>
<trkpt lat="49.642068" lon="15.965235"><ele>664</ele></trkpt>
<trkpt lat="49.642097" lon="15.965323"><ele>663</ele></trkpt>
<trkpt lat="49.642305" lon="15.969681"><ele>668</ele></trkpt>
<trkpt lat="49.642262" lon="15.970633"><ele>672</ele></trkpt>
<trkpt lat="49.641938" lon="15.971912"><ele>678</ele></trkpt>
<trkpt lat="49.641563" lon="15.972927"><ele>683</ele></trkpt>
<trkpt lat="49.641291" lon="15.973698"><ele>687</ele></trkpt>
<trkpt lat="49.641226" lon="15.974199"><ele>688</ele></trkpt>
<trkpt lat="49.641247" lon="15.974980"><ele>689</ele></trkpt>
<trkpt lat="49.641535" lon="15.979124"><ele>694</ele></trkpt>
<trkpt lat="49.641851" lon="15.980501"><ele>695</ele></trkpt>
<trkpt lat="49.641898" lon="15.981073"><ele>696</ele></trkpt>
<trkpt lat="49.641916" lon="15.981445"><ele>696</ele></trkpt>
<trkpt lat="49.641926" lon="15.981665"><ele>696</ele></trkpt>
<trkpt lat="49.641937" lon="15.981919"><ele>697</ele></trkpt>
<trkpt lat="49.641971" lon="15.982239"><ele>697</ele></trkpt>
<trkpt lat="49.642029" lon="15.982429"><ele>697</ele></trkpt>
<trkpt lat="49.642070" lon="15.982523"><ele>697</ele></trkpt>
<trkpt lat="49.642149" lon="15.982654"><ele>697</ele></trkpt>
<trkpt lat="49.643098" lon="15.983713"><ele>705</ele></trkpt>
<trkpt lat="49.643342" lon="15.983989"><ele>707</ele></trkpt>
<trkpt lat="49.644220" lon="15.985111"><ele>714</ele></trkpt>
<trkpt lat="49.644840" lon="15.985965"><ele>718</ele></trkpt>
<trkpt lat="49.645084" lon="15.986363"><ele>721</ele></trkpt>
<trkpt lat="49.645476" lon="15.987065"><ele>721</ele></trkpt>
<trkpt lat="49.645664" lon="15.987563"><ele>720</ele></trkpt>
<trkpt lat="49.645814" lon="15.988082"><ele>722</ele></trkpt>
<trkpt lat="49.645863" lon="15.988382"><ele>722</ele></trkpt>
<trkpt lat="49.645872" lon="15.988606"><ele>724</ele></trkpt>
<trkpt lat="49.645835" lon="15.988960"><ele>725</ele></trkpt>
<trkpt lat="49.645820" lon="15.989049"><ele>726</ele></trkpt>
<trkpt lat="49.645748" lon="15.989297"><ele>727</ele></trkpt>
<trkpt lat="49.645664" lon="15.989529"><ele>728</ele></trkpt>
<trkpt lat="49.645119" lon="15.990748"><ele>736</ele></trkpt>
<trkpt lat="49.645037" lon="15.991128"><ele>738</ele></trkpt>
<trkpt lat="49.644844" lon="15.992346"><ele>744</ele></trkpt>
<trkpt lat="49.644464" lon="15.993616"><ele>752</ele></trkpt>
<trkpt lat="49.643586" lon="15.996094"><ele>768</ele></trkpt>
<trkpt lat="49.643546" lon="15.996225"><ele>769</ele></trkpt>
<trkpt lat="49.643500" lon="15.996404"><ele>770</ele></trkpt>
<trkpt lat="49.643469" lon="15.996558"><ele>771</ele></trkpt>
<trkpt lat="49.643454" lon="15.996660"><ele>772</ele></trkpt>
<trkpt lat="49.643438" lon="15.996917"><ele>773</ele></trkpt>
<trkpt lat="49.643443" lon="15.997118"><ele>775</ele></trkpt>
<trkpt lat="49.643462" lon="15.997386"><ele>776</ele></trkpt>
<trkpt lat="49.643490" lon="15.997654"><ele>777</ele></trkpt>
<trkpt lat="49.643498" lon="15.997822"><ele>778</ele></trkpt>
<trkpt lat="49.643481" lon="15.998195"><ele>779</ele></trkpt>
<trkpt lat="49.643458" lon="15.998349"><ele>780</ele></trkpt>
<trkpt lat="49.643382" lon="15.998657"><ele>781</ele></trkpt>
<trkpt lat="49.643230" lon="15.999081"><ele>782</ele></trkpt>
<trkpt lat="49.643449" lon="15.999285"><ele>781</ele></trkpt>
<trkpt lat="49.643642" lon="15.999344"><ele>779</ele></trkpt>
<trkpt lat="49.643698" lon="15.999384"><ele>778</ele></trkpt>
<trkpt lat="49.643864" lon="15.999447"><ele>778</ele></trkpt>
<trkpt lat="49.643698" lon="15.999384"><ele>778</ele></trkpt>
<trkpt lat="49.643642" lon="15.999344"><ele>779</ele></trkpt>
<trkpt lat="49.643449" lon="15.999285"><ele>781</ele></trkpt>
<trkpt lat="49.643230" lon="15.999081"><ele>782</ele></trkpt>
<trkpt lat="49.642829" lon="16.000121"><ele>784</ele></trkpt>
<trkpt lat="49.641398" lon="16.003790"><ele>788</ele></trkpt>
<trkpt lat="49.641307" lon="16.003736"><ele>788</ele></trkpt>
<trkpt lat="49.641398" lon="16.003790"><ele>788</ele></trkpt>
<trkpt lat="49.640611" lon="16.005339"><ele>785</ele></trkpt>
<trkpt lat="49.640305" lon="16.006010"><ele>783</ele></trkpt>
<trkpt lat="49.640067" lon="16.006689"><ele>779</ele></trkpt>
<trkpt lat="49.639710" lon="16.007771"><ele>774</ele></trkpt>
<trkpt lat="49.639661" lon="16.007926"><ele>773</ele></trkpt>
<trkpt lat="49.639604" lon="16.008096"><ele>772</ele></trkpt>
<trkpt lat="49.639566" lon="16.008374"><ele>770</ele></trkpt>
<trkpt lat="49.639555" lon="16.008619"><ele>770</ele></trkpt>
<trkpt lat="49.639571" lon="16.008925"><ele>769</ele></trkpt>
<trkpt lat="49.639658" lon="16.009267"><ele>768</ele></trkpt>
<trkpt lat="49.639753" lon="16.009486"><ele>768</ele></trkpt>
<trkpt lat="49.640102" lon="16.010285"><ele>772</ele></trkpt>
<trkpt lat="49.640230" lon="16.010700"><ele>773</ele></trkpt>
<trkpt lat="49.640641" lon="16.013991"><ele>784</ele></trkpt>
<trkpt lat="49.640830" lon="16.015608"><ele>788</ele></trkpt>
<trkpt lat="49.640791" lon="16.016000"><ele>787</ele></trkpt>
<trkpt lat="49.640633" lon="16.016622"><ele>786</ele></trkpt>
<trkpt lat="49.639867" lon="16.017690"><ele>779</ele></trkpt>
<trkpt lat="49.639464" lon="16.018383"><ele>776</ele></trkpt>
<trkpt lat="49.639219" lon="16.018962"><ele>774</ele></trkpt>
<trkpt lat="49.639017" lon="16.019712"><ele>771</ele></trkpt>
<trkpt lat="49.638891" lon="16.020249"><ele>770</ele></trkpt>
<trkpt lat="49.638833" lon="16.020498"><ele>769</ele></trkpt>
<trkpt lat="49.638082" lon="16.022803"><ele>761</ele></trkpt>
<trkpt lat="49.637563" lon="16.024393"><ele>755</ele></trkpt>
<trkpt lat="49.637294" lon="16.025204"><ele>754</ele></trkpt>
<trkpt lat="49.637237" lon="16.025361"><ele>754</ele></trkpt>
<trkpt lat="49.637051" lon="16.025737"><ele>753</ele></trkpt>
<trkpt lat="49.635946" lon="16.027771"><ele>747</ele></trkpt>
<trkpt lat="49.635818" lon="16.028092"><ele>746</ele></trkpt>
<trkpt lat="49.635769" lon="16.028278"><ele>746</ele></trkpt>
<trkpt lat="49.635739" lon="16.028435"><ele>746</ele></trkpt>
<trkpt lat="49.635681" lon="16.029045"><ele>745</ele></trkpt>
<trkpt lat="49.635605" lon="16.030286"><ele>743</ele></trkpt>
<trkpt lat="49.635604" lon="16.030314"><ele>743</ele></trkpt>
<trkpt lat="49.635273" lon="16.030943"><ele>741</ele></trkpt>
<trkpt lat="49.634765" lon="16.031804"><ele>737</ele></trkpt>
<trkpt lat="49.634587" lon="16.032059"><ele>736</ele></trkpt>
<trkpt lat="49.634454" lon="16.032182"><ele>735</ele></trkpt>
<trkpt lat="49.634430" lon="16.032204"><ele>735</ele></trkpt>
<trkpt lat="49.634046" lon="16.032361"><ele>734</ele></trkpt>
<trkpt lat="49.633704" lon="16.032441"><ele>733</ele></trkpt>
<trkpt lat="49.633480" lon="16.032566"><ele>732</ele></trkpt>
<trkpt lat="49.633295" lon="16.032756"><ele>732</ele></trkpt>
<trkpt lat="49.633210" lon="16.032883"><ele>732</ele></trkpt>
<trkpt lat="49.633099" lon="16.033263"><ele>732</ele></trkpt>
<trkpt lat="49.632903" lon="16.034292"><ele>732</ele></trkpt>
<trkpt lat="49.632833" lon="16.034543"><ele>732</ele></trkpt>
<trkpt lat="49.632175" lon="16.036311"><ele>726</ele></trkpt>
<trkpt lat="49.632023" lon="16.036841"><ele>725</ele></trkpt>
<trkpt lat="49.631386" lon="16.038916"><ele>717</ele></trkpt>
<trkpt lat="49.631133" lon="16.039559"><ele>714</ele></trkpt>
<trkpt lat="49.630998" lon="16.039656"><ele>712</ele></trkpt>
<trkpt lat="49.630740" lon="16.039883"><ele>710</ele></trkpt>
<trkpt lat="49.630428" lon="16.040106"><ele>709</ele></trkpt>
<trkpt lat="49.630122" lon="16.040114"><ele>707</ele></trkpt>
<trkpt lat="49.629920" lon="16.040228"><ele>707</ele></trkpt>
<trkpt lat="49.629862" lon="16.040255"><ele>707</ele></trkpt>
<trkpt lat="49.629507" lon="16.040450"><ele>708</ele></trkpt>
<trkpt lat="49.629369" lon="16.040601"><ele>708</ele></trkpt>
<trkpt lat="49.629569" lon="16.040948"><ele>708</ele></trkpt>
<trkpt lat="49.629655" lon="16.041101"><ele>708</ele></trkpt>
<trkpt lat="49.629767" lon="16.041297"><ele>708</ele></trkpt>
<trkpt lat="49.630059" lon="16.041840"><ele>706</ele></trkpt>
<trkpt lat="49.630172" lon="16.042127"><ele>706</ele></trkpt>
<trkpt lat="49.630198" lon="16.042219"><ele>706</ele></trkpt>
<trkpt lat="49.630221" lon="16.042303"><ele>706</ele></trkpt>
<trkpt lat="49.630243" lon="16.042431"><ele>706</ele></trkpt>
<trkpt lat="49.630282" lon="16.042772"><ele>707</ele></trkpt>
<trkpt lat="49.630042" lon="16.043017"><ele>708</ele></trkpt>
<trkpt lat="49.629850" lon="16.043245"><ele>711</ele></trkpt>
<trkpt lat="49.629710" lon="16.043463"><ele>712</ele></trkpt>
<trkpt lat="49.629546" lon="16.043835"><ele>715</ele></trkpt>
<trkpt lat="49.629460" lon="16.044002"><ele>716</ele></trkpt>
<trkpt lat="49.629377" lon="16.044138"><ele>717</ele></trkpt>
<trkpt lat="49.629066" lon="16.044502"><ele>721</ele></trkpt>
<trkpt lat="49.628881" lon="16.044694"><ele>724</ele></trkpt>
<trkpt lat="49.628723" lon="16.044801"><ele>726</ele></trkpt>
<trkpt lat="49.628306" lon="16.044977"><ele>731</ele></trkpt>
<trkpt lat="49.628041" lon="16.045066"><ele>733</ele></trkpt>
<trkpt lat="49.627827" lon="16.045153"><ele>735</ele></trkpt>
<trkpt lat="49.627663" lon="16.045247"><ele>736</ele></trkpt>
<trkpt lat="49.627473" lon="16.045410"><ele>737</ele></trkpt>
<trkpt lat="49.627300" lon="16.045617"><ele>738</ele></trkpt>
<trkpt lat="49.627209" lon="16.045699"><ele>738</ele></trkpt>
<trkpt lat="49.627049" lon="16.045798"><ele>740</ele></trkpt>
<trkpt lat="49.626622" lon="16.046021"><ele>743</ele></trkpt>
<trkpt lat="49.625958" lon="16.046396"><ele>750</ele></trkpt>
<trkpt lat="49.625819" lon="16.046450"><ele>751</ele></trkpt>
<trkpt lat="49.625269" lon="16.046557"><ele>756</ele></trkpt>
<trkpt lat="49.624899" lon="16.046670"><ele>758</ele></trkpt>
<trkpt lat="49.624031" lon="16.047082"><ele>757</ele></trkpt>
<trkpt lat="49.623690" lon="16.047280"><ele>755</ele></trkpt>
<trkpt lat="49.623027" lon="16.047728"><ele>750</ele></trkpt>
<trkpt lat="49.622904" lon="16.047822"><ele>749</ele></trkpt>
<trkpt lat="49.622735" lon="16.047980"><ele>748</ele></trkpt>
<trkpt lat="49.622591" lon="16.048134"><ele>746</ele></trkpt>
<trkpt lat="49.622428" lon="16.048340"><ele>745</ele></trkpt>
<trkpt lat="49.622090" lon="16.048794"><ele>740</ele></trkpt>
<trkpt lat="49.621953" lon="16.048935"><ele>739</ele></trkpt>
<trkpt lat="49.621527" lon="16.049264"><ele>734</ele></trkpt>
<trkpt lat="49.621015" lon="16.049719"><ele>728</ele></trkpt>
<trkpt lat="49.620857" lon="16.049830"><ele>726</ele></trkpt>
<trkpt lat="49.620485" lon="16.050048"><ele>724</ele></trkpt>
<trkpt lat="49.620248" lon="16.050207"><ele>722</ele></trkpt>
<trkpt lat="49.619746" lon="16.050610"><ele>719</ele></trkpt>
<trkpt lat="49.619488" lon="16.050798"><ele>719</ele></trkpt>
<trkpt lat="49.619307" lon="16.050914"><ele>718</ele></trkpt>
<trkpt lat="49.619185" lon="16.050975"><ele>718</ele></trkpt>
<trkpt lat="49.618707" lon="16.051116"><ele>716</ele></trkpt>
<trkpt lat="49.618637" lon="16.051110"><ele>716</ele></trkpt>
<trkpt lat="49.618361" lon="16.051119"><ele>714</ele></trkpt>
<trkpt lat="49.618239" lon="16.051140"><ele>714</ele></trkpt>
<trkpt lat="49.618073" lon="16.051233"><ele>713</ele></trkpt>
<trkpt lat="49.617979" lon="16.051327"><ele>712</ele></trkpt>
<trkpt lat="49.617851" lon="16.051499"><ele>712</ele></trkpt>
<trkpt lat="49.617826" lon="16.051546"><ele>712</ele></trkpt>
<trkpt lat="49.617768" lon="16.051635"><ele>713</ele></trkpt>
<trkpt lat="49.617723" lon="16.051705"><ele>712</ele></trkpt>
<trkpt lat="49.617527" lon="16.052104"><ele>712</ele></trkpt>
<trkpt lat="49.617218" lon="16.052600"><ele>712</ele></trkpt>
<trkpt lat="49.616941" lon="16.053063"><ele>712</ele></trkpt>
<trkpt lat="49.616735" lon="16.053371"><ele>712</ele></trkpt>
<trkpt lat="49.616672" lon="16.053463"><ele>713</ele></trkpt>
<trkpt lat="49.616618" lon="16.053542"><ele>713</ele></trkpt>
<trkpt lat="49.616559" lon="16.053641"><ele>714</ele></trkpt>
<trkpt lat="49.616488" lon="16.053828"><ele>714</ele></trkpt>
<trkpt lat="49.616446" lon="16.053994"><ele>716</ele></trkpt>
<trkpt lat="49.616420" lon="16.054152"><ele>717</ele></trkpt>
<trkpt lat="49.616405" lon="16.054622"><ele>720</ele></trkpt>
<trkpt lat="49.616416" lon="16.055042"><ele>722</ele></trkpt>
<trkpt lat="49.616416" lon="16.055340"><ele>723</ele></trkpt>
<trkpt lat="49.616398" lon="16.055523"><ele>723</ele></trkpt>
<trkpt lat="49.616338" lon="16.055761"><ele>724</ele></trkpt>
<trkpt lat="49.616250" lon="16.056003"><ele>724</ele></trkpt>
<trkpt lat="49.616115" lon="16.056316"><ele>724</ele></trkpt>
<trkpt lat="49.616250" lon="16.056003"><ele>724</ele></trkpt>
<trkpt lat="49.616338" lon="16.055761"><ele>724</ele></trkpt>
<trkpt lat="49.616398" lon="16.055523"><ele>723</ele></trkpt>
<trkpt lat="49.616416" lon="16.055340"><ele>723</ele></trkpt>
<trkpt lat="49.616416" lon="16.055042"><ele>722</ele></trkpt>
<trkpt lat="49.616405" lon="16.054622"><ele>720</ele></trkpt>
<trkpt lat="49.616420" lon="16.054152"><ele>717</ele></trkpt>
<trkpt lat="49.616446" lon="16.053994"><ele>716</ele></trkpt>
<trkpt lat="49.616488" lon="16.053828"><ele>714</ele></trkpt>
<trkpt lat="49.616559" lon="16.053641"><ele>714</ele></trkpt>
<trkpt lat="49.616618" lon="16.053542"><ele>713</ele></trkpt>
<trkpt lat="49.616672" lon="16.053463"><ele>713</ele></trkpt>
<trkpt lat="49.616735" lon="16.053371"><ele>712</ele></trkpt>
<trkpt lat="49.616941" lon="16.053063"><ele>712</ele></trkpt>
<trkpt lat="49.617218" lon="16.052600"><ele>712</ele></trkpt>
<trkpt lat="49.617527" lon="16.052104"><ele>712</ele></trkpt>
<trkpt lat="49.617723" lon="16.051705"><ele>712</ele></trkpt>
<trkpt lat="49.617768" lon="16.051635"><ele>713</ele></trkpt>
<trkpt lat="49.617826" lon="16.051546"><ele>712</ele></trkpt>
<trkpt lat="49.617851" lon="16.051499"><ele>712</ele></trkpt>
<trkpt lat="49.617979" lon="16.051327"><ele>712</ele></trkpt>
<trkpt lat="49.618073" lon="16.051233"><ele>713</ele></trkpt>
<trkpt lat="49.618239" lon="16.051140"><ele>714</ele></trkpt>
<trkpt lat="49.618361" lon="16.051119"><ele>714</ele></trkpt>
<trkpt lat="49.618637" lon="16.051110"><ele>716</ele></trkpt>
<trkpt lat="49.618611" lon="16.050782"><ele>716</ele></trkpt>
<trkpt lat="49.618560" lon="16.050450"><ele>714</ele></trkpt>
<trkpt lat="49.618474" lon="16.050000"><ele>714</ele></trkpt>
<trkpt lat="49.618400" lon="16.049664"><ele>712</ele></trkpt>
<trkpt lat="49.618378" lon="16.049503"><ele>713</ele></trkpt>
<trkpt lat="49.618192" lon="16.049051"><ele>713</ele></trkpt>
<trkpt lat="49.618063" lon="16.048810"><ele>713</ele></trkpt>
<trkpt lat="49.617839" lon="16.048673"><ele>713</ele></trkpt>
<trkpt lat="49.617531" lon="16.048394"><ele>716</ele></trkpt>
<trkpt lat="49.617444" lon="16.048248"><ele>716</ele></trkpt>
<trkpt lat="49.617271" lon="16.047858"><ele>719</ele></trkpt>
<trkpt lat="49.617333" lon="16.047738"><ele>718</ele></trkpt>
<trkpt lat="49.617405" lon="16.047486"><ele>719</ele></trkpt>
<trkpt lat="49.617569" lon="16.047077"><ele>720</ele></trkpt>
<trkpt lat="49.617712" lon="16.046660"><ele>721</ele></trkpt>
<trkpt lat="49.617806" lon="16.046320"><ele>721</ele></trkpt>
<trkpt lat="49.617831" lon="16.046044"><ele>723</ele></trkpt>
<trkpt lat="49.617820" lon="16.045514"><ele>724</ele></trkpt>
<trkpt lat="49.617790" lon="16.045256"><ele>725</ele></trkpt>
<trkpt lat="49.617723" lon="16.045120"><ele>725</ele></trkpt>
<trkpt lat="49.617646" lon="16.044890"><ele>724</ele></trkpt>
<trkpt lat="49.617508" lon="16.044327"><ele>724</ele></trkpt>
<trkpt lat="49.617121" lon="16.043283"><ele>726</ele></trkpt>
<trkpt lat="49.616996" lon="16.043100"><ele>726</ele></trkpt>
<trkpt lat="49.616885" lon="16.043017"><ele>727</ele></trkpt>
<trkpt lat="49.616658" lon="16.042885"><ele>728</ele></trkpt>
<trkpt lat="49.616417" lon="16.042813"><ele>729</ele></trkpt>
<trkpt lat="49.615114" lon="16.042692"><ele>726</ele></trkpt>
<trkpt lat="49.614647" lon="16.042606"><ele>724</ele></trkpt>
<trkpt lat="49.614265" lon="16.042436"><ele>722</ele></trkpt>
<trkpt lat="49.613867" lon="16.042036"><ele>718</ele></trkpt>
<trkpt lat="49.613681" lon="16.041878"><ele>717</ele></trkpt>
<trkpt lat="49.613590" lon="16.041674"><ele>717</ele></trkpt>
<trkpt lat="49.613368" lon="16.041324"><ele>717</ele></trkpt>
<trkpt lat="49.613242" lon="16.041078"><ele>717</ele></trkpt>
<trkpt lat="49.612956" lon="16.040636"><ele>719</ele></trkpt>
<trkpt lat="49.612753" lon="16.040473"><ele>720</ele></trkpt>
<trkpt lat="49.612618" lon="16.040400"><ele>722</ele></trkpt>
<trkpt lat="49.612302" lon="16.040314"><ele>723</ele></trkpt>
<trkpt lat="49.612026" lon="16.040194"><ele>722</ele></trkpt>
<trkpt lat="49.611672" lon="16.039847"><ele>723</ele></trkpt>
<trkpt lat="49.611454" lon="16.039541"><ele>724</ele></trkpt>
<trkpt lat="49.611364" lon="16.039415"><ele>724</ele></trkpt>
<trkpt lat="49.611249" lon="16.039332"><ele>725</ele></trkpt>
<trkpt lat="49.611137" lon="16.039308"><ele>725</ele></trkpt>
<trkpt lat="49.611310" lon="16.039105"><ele>726</ele></trkpt>
<trkpt lat="49.611476" lon="16.038950"><ele>727</ele></trkpt>
<trkpt lat="49.612194" lon="16.038311"><ele>731</ele></trkpt>
<trkpt lat="49.612223" lon="16.038212"><ele>732</ele></trkpt>
<trkpt lat="49.612303" lon="16.037997"><ele>733</ele></trkpt>
<trkpt lat="49.612319" lon="16.037888"><ele>734</ele></trkpt>
<trkpt lat="49.612320" lon="16.037626"><ele>735</ele></trkpt>
<trkpt lat="49.612264" lon="16.037391"><ele>735</ele></trkpt>
<trkpt lat="49.612242" lon="16.037316"><ele>735</ele></trkpt>
<trkpt lat="49.612277" lon="16.037208"><ele>735</ele></trkpt>
<trkpt lat="49.612430" lon="16.036998"><ele>736</ele></trkpt>
<trkpt lat="49.612499" lon="16.036940"><ele>736</ele></trkpt>
<trkpt lat="49.612566" lon="16.036924"><ele>736</ele></trkpt>
<trkpt lat="49.612627" lon="16.036878"><ele>735</ele></trkpt>
<trkpt lat="49.612689" lon="16.036806"><ele>735</ele></trkpt>
<trkpt lat="49.612720" lon="16.036696"><ele>735</ele></trkpt>
<trkpt lat="49.612749" lon="16.036495"><ele>735</ele></trkpt>
<trkpt lat="49.612662" lon="16.036398"><ele>735</ele></trkpt>
<trkpt lat="49.612608" lon="16.036361"><ele>735</ele></trkpt>
<trkpt lat="49.612554" lon="16.036302"><ele>734</ele></trkpt>
<trkpt lat="49.612488" lon="16.036171"><ele>734</ele></trkpt>
<trkpt lat="49.612370" lon="16.035949"><ele>734</ele></trkpt>
<trkpt lat="49.612264" lon="16.035797"><ele>734</ele></trkpt>
<trkpt lat="49.612149" lon="16.035684"><ele>734</ele></trkpt>
<trkpt lat="49.611564" lon="16.035187"><ele>733</ele></trkpt>
<trkpt lat="49.611150" lon="16.034852"><ele>733</ele></trkpt>
<trkpt lat="49.611086" lon="16.034776"><ele>734</ele></trkpt>
<trkpt lat="49.610848" lon="16.034456"><ele>734</ele></trkpt>
<trkpt lat="49.610408" lon="16.033940"><ele>733</ele></trkpt>
<trkpt lat="49.610116" lon="16.033731"><ele>731</ele></trkpt>
<trkpt lat="49.609878" lon="16.033596"><ele>729</ele></trkpt>
<trkpt lat="49.609822" lon="16.033536"><ele>728</ele></trkpt>
<trkpt lat="49.609541" lon="16.033264"><ele>726</ele></trkpt>
<trkpt lat="49.609351" lon="16.033148"><ele>725</ele></trkpt>
<trkpt lat="49.609204" lon="16.033104"><ele>724</ele></trkpt>
<trkpt lat="49.608986" lon="16.033086"><ele>723</ele></trkpt>
<trkpt lat="49.608959" lon="16.033073"><ele>723</ele></trkpt>
<trkpt lat="49.608898" lon="16.033043"><ele>723</ele></trkpt>
<trkpt lat="49.608881" lon="16.032896"><ele>723</ele></trkpt>
<trkpt lat="49.608898" lon="16.033043"><ele>723</ele></trkpt>
<trkpt lat="49.608959" lon="16.033073"><ele>723</ele></trkpt>
<trkpt lat="49.608986" lon="16.033086"><ele>723</ele></trkpt>
<trkpt lat="49.609204" lon="16.033104"><ele>724</ele></trkpt>
<trkpt lat="49.609351" lon="16.033148"><ele>725</ele></trkpt>
<trkpt lat="49.609541" lon="16.033264"><ele>726</ele></trkpt>
<trkpt lat="49.609822" lon="16.033536"><ele>728</ele></trkpt>
<trkpt lat="49.609878" lon="16.033596"><ele>729</ele></trkpt>
<trkpt lat="49.610116" lon="16.033731"><ele>731</ele></trkpt>
<trkpt lat="49.610408" lon="16.033940"><ele>733</ele></trkpt>
<trkpt lat="49.610848" lon="16.034456"><ele>734</ele></trkpt>
<trkpt lat="49.611086" lon="16.034776"><ele>734</ele></trkpt>
<trkpt lat="49.611150" lon="16.034852"><ele>733</ele></trkpt>
<trkpt lat="49.611564" lon="16.035187"><ele>733</ele></trkpt>
<trkpt lat="49.612149" lon="16.035684"><ele>734</ele></trkpt>
<trkpt lat="49.612264" lon="16.035797"><ele>734</ele></trkpt>
<trkpt lat="49.612370" lon="16.035949"><ele>734</ele></trkpt>
<trkpt lat="49.612488" lon="16.036171"><ele>734</ele></trkpt>
<trkpt lat="49.612554" lon="16.036302"><ele>734</ele></trkpt>
<trkpt lat="49.612608" lon="16.036361"><ele>735</ele></trkpt>
<trkpt lat="49.612662" lon="16.036398"><ele>735</ele></trkpt>
<trkpt lat="49.612749" lon="16.036495"><ele>735</ele></trkpt>
<trkpt lat="49.612889" lon="16.036461"><ele>734</ele></trkpt>
<trkpt lat="49.612934" lon="16.036468"><ele>734</ele></trkpt>
<trkpt lat="49.613061" lon="16.036568"><ele>732</ele></trkpt>
<trkpt lat="49.613105" lon="16.036564"><ele>732</ele></trkpt>
<trkpt lat="49.613305" lon="16.036328"><ele>730</ele></trkpt>
<trkpt lat="49.613396" lon="16.036281"><ele>730</ele></trkpt>
<trkpt lat="49.613431" lon="16.036191"><ele>729</ele></trkpt>
<trkpt lat="49.613396" lon="16.036281"><ele>730</ele></trkpt>
<trkpt lat="49.613442" lon="16.036257"><ele>729</ele></trkpt>
<trkpt lat="49.613567" lon="16.035966"><ele>729</ele></trkpt>
<trkpt lat="49.613666" lon="16.035783"><ele>729</ele></trkpt>
<trkpt lat="49.614273" lon="16.035144"><ele>729</ele></trkpt>
<trkpt lat="49.614316" lon="16.035113"><ele>729</ele></trkpt>
<trkpt lat="49.614431" lon="16.035047"><ele>728</ele></trkpt>
<trkpt lat="49.614552" lon="16.034998"><ele>728</ele></trkpt>
<trkpt lat="49.614680" lon="16.034985"><ele>728</ele></trkpt>
<trkpt lat="49.614888" lon="16.035007"><ele>728</ele></trkpt>
<trkpt lat="49.615132" lon="16.035051"><ele>728</ele></trkpt>
<trkpt lat="49.615276" lon="16.035035"><ele>729</ele></trkpt>
<trkpt lat="49.615436" lon="16.034994"><ele>730</ele></trkpt>
<trkpt lat="49.615587" lon="16.034940"><ele>730</ele></trkpt>
<trkpt lat="49.615704" lon="16.034848"><ele>731</ele></trkpt>
<trkpt lat="49.615802" lon="16.034719"><ele>732</ele></trkpt>
<trkpt lat="49.615852" lon="16.034608"><ele>732</ele></trkpt>
<trkpt lat="49.615910" lon="16.034462"><ele>733</ele></trkpt>
<trkpt lat="49.616027" lon="16.034055"><ele>736</ele></trkpt>
<trkpt lat="49.616096" lon="16.033883"><ele>737</ele></trkpt>
<trkpt lat="49.616200" lon="16.033723"><ele>738</ele></trkpt>
<trkpt lat="49.616252" lon="16.033673"><ele>739</ele></trkpt>
<trkpt lat="49.616329" lon="16.033641"><ele>740</ele></trkpt>
<trkpt lat="49.616576" lon="16.033595"><ele>742</ele></trkpt>
<trkpt lat="49.616827" lon="16.033543"><ele>744</ele></trkpt>
<trkpt lat="49.616920" lon="16.033527"><ele>744</ele></trkpt>
<trkpt lat="49.617045" lon="16.033504"><ele>744</ele></trkpt>
<trkpt lat="49.617362" lon="16.033477"><ele>745</ele></trkpt>
<trkpt lat="49.617516" lon="16.033516"><ele>745</ele></trkpt>
<trkpt lat="49.617654" lon="16.033581"><ele>746</ele></trkpt>
<trkpt lat="49.617781" lon="16.033669"><ele>746</ele></trkpt>
<trkpt lat="49.617870" lon="16.033760"><ele>745</ele></trkpt>
<trkpt lat="49.618160" lon="16.034147"><ele>746</ele></trkpt>
<trkpt lat="49.618258" lon="16.033982"><ele>746</ele></trkpt>
<trkpt lat="49.618394" lon="16.033698"><ele>747</ele></trkpt>
<trkpt lat="49.618805" lon="16.032043"><ele>749</ele></trkpt>
<trkpt lat="49.619604" lon="16.029046"><ele>748</ele></trkpt>
<trkpt lat="49.620638" lon="16.025122"><ele>752</ele></trkpt>
<trkpt lat="49.620762" lon="16.024804"><ele>752</ele></trkpt>
<trkpt lat="49.620843" lon="16.024197"><ele>754</ele></trkpt>
<trkpt lat="49.620609" lon="16.023674"><ele>759</ele></trkpt>
<trkpt lat="49.620599" lon="16.023334"><ele>761</ele></trkpt>
<trkpt lat="49.620538" lon="16.022977"><ele>763</ele></trkpt>
<trkpt lat="49.620349" lon="16.022312"><ele>765</ele></trkpt>
<trkpt lat="49.620218" lon="16.021886"><ele>765</ele></trkpt>
<trkpt lat="49.620233" lon="16.021579"><ele>764</ele></trkpt>
<trkpt lat="49.620183" lon="16.021072"><ele>763</ele></trkpt>
<trkpt lat="49.620152" lon="16.020454"><ele>761</ele></trkpt>
<trkpt lat="49.620176" lon="16.020221"><ele>760</ele></trkpt>
<trkpt lat="49.620240" lon="16.019905"><ele>760</ele></trkpt>
<trkpt lat="49.620464" lon="16.018636"><ele>758</ele></trkpt>
<trkpt lat="49.620505" lon="16.018504"><ele>758</ele></trkpt>
<trkpt lat="49.620553" lon="16.018380"><ele>758</ele></trkpt>
<trkpt lat="49.620659" lon="16.018154"><ele>758</ele></trkpt>
<trkpt lat="49.620806" lon="16.017912"><ele>759</ele></trkpt>
<trkpt lat="49.620898" lon="16.017779"><ele>759</ele></trkpt>
<trkpt lat="49.621004" lon="16.017674"><ele>759</ele></trkpt>
<trkpt lat="49.621081" lon="16.017630"><ele>759</ele></trkpt>
<trkpt lat="49.621205" lon="16.017576"><ele>760</ele></trkpt>
<trkpt lat="49.621520" lon="16.017506"><ele>762</ele></trkpt>
<trkpt lat="49.621712" lon="16.017499"><ele>763</ele></trkpt>
<trkpt lat="49.621781" lon="16.017484"><ele>764</ele></trkpt>
<trkpt lat="49.621865" lon="16.017425"><ele>765</ele></trkpt>
<trkpt lat="49.622016" lon="16.017270"><ele>768</ele></trkpt>
<trkpt lat="49.622136" lon="16.017095"><ele>769</ele></trkpt>
<trkpt lat="49.622213" lon="16.016893"><ele>770</ele></trkpt>
<trkpt lat="49.622303" lon="16.016624"><ele>773</ele></trkpt>
<trkpt lat="49.622588" lon="16.015726"><ele>776</ele></trkpt>
<trkpt lat="49.622699" lon="16.015362"><ele>778</ele></trkpt>
<trkpt lat="49.622771" lon="16.015251"><ele>779</ele></trkpt>
<trkpt lat="49.622907" lon="16.015101"><ele>780</ele></trkpt>
<trkpt lat="49.623329" lon="16.014550"><ele>784</ele></trkpt>
<trkpt lat="49.623434" lon="16.014371"><ele>784</ele></trkpt>
<trkpt lat="49.623714" lon="16.013768"><ele>786</ele></trkpt>
<trkpt lat="49.624148" lon="16.013135"><ele>786</ele></trkpt>
<trkpt lat="49.624186" lon="16.013035"><ele>786</ele></trkpt>
<trkpt lat="49.624195" lon="16.013002"><ele>786</ele></trkpt>
<trkpt lat="49.624243" lon="16.012842"><ele>786</ele></trkpt>
<trkpt lat="49.624287" lon="16.012750"><ele>786</ele></trkpt>
<trkpt lat="49.624417" lon="16.012531"><ele>786</ele></trkpt>
<trkpt lat="49.624486" lon="16.012431"><ele>786</ele></trkpt>
<trkpt lat="49.624857" lon="16.011980"><ele>782</ele></trkpt>
<trkpt lat="49.625018" lon="16.011731"><ele>780</ele></trkpt>
<trkpt lat="49.625328" lon="16.011072"><ele>778</ele></trkpt>
<trkpt lat="49.625480" lon="16.010627"><ele>777</ele></trkpt>
<trkpt lat="49.625569" lon="16.010316"><ele>776</ele></trkpt>
<trkpt lat="49.625677" lon="16.009996"><ele>775</ele></trkpt>
<trkpt lat="49.625775" lon="16.009748"><ele>774</ele></trkpt>
<trkpt lat="49.626296" lon="16.008702"><ele>772</ele></trkpt>
<trkpt lat="49.626423" lon="16.008400"><ele>772</ele></trkpt>
<trkpt lat="49.626529" lon="16.007970"><ele>770</ele></trkpt>
<trkpt lat="49.626626" lon="16.007661"><ele>767</ele></trkpt>
<trkpt lat="49.626849" lon="16.007289"><ele>765</ele></trkpt>
<trkpt lat="49.627029" lon="16.007060"><ele>765</ele></trkpt>
<trkpt lat="49.627446" lon="16.006318"><ele>769</ele></trkpt>
<trkpt lat="49.627737" lon="16.005872"><ele>772</ele></trkpt>
<trkpt lat="49.628138" lon="16.005464"><ele>774</ele></trkpt>
<trkpt lat="49.628541" lon="16.005126"><ele>774</ele></trkpt>
<trkpt lat="49.628662" lon="16.005036"><ele>774</ele></trkpt>
<trkpt lat="49.628750" lon="16.004956"><ele>774</ele></trkpt>
<trkpt lat="49.628864" lon="16.004814"><ele>775</ele></trkpt>
<trkpt lat="49.629071" lon="16.004623"><ele>776</ele></trkpt>
<trkpt lat="49.629260" lon="16.004476"><ele>775</ele></trkpt>
<trkpt lat="49.629498" lon="16.004336"><ele>774</ele></trkpt>
<trkpt lat="49.629723" lon="16.004407"><ele>773</ele></trkpt>
<trkpt lat="49.629846" lon="16.004421"><ele>772</ele></trkpt>
<trkpt lat="49.629977" lon="16.004393"><ele>771</ele></trkpt>
<trkpt lat="49.630128" lon="16.004335"><ele>770</ele></trkpt>
<trkpt lat="49.630348" lon="16.004345"><ele>769</ele></trkpt>
<trkpt lat="49.630477" lon="16.004368"><ele>769</ele></trkpt>
<trkpt lat="49.630685" lon="16.004493"><ele>768</ele></trkpt>
<trkpt lat="49.631116" lon="16.004691"><ele>767</ele></trkpt>
<trkpt lat="49.631163" lon="16.004714"><ele>767</ele></trkpt>
<trkpt lat="49.631249" lon="16.004755"><ele>766</ele></trkpt>
<trkpt lat="49.631476" lon="16.004865"><ele>766</ele></trkpt>
<trkpt lat="49.631723" lon="16.004947"><ele>767</ele></trkpt>
<trkpt lat="49.631881" lon="16.004952"><ele>767</ele></trkpt>
<trkpt lat="49.632457" lon="16.004484"><ele>769</ele></trkpt>
<trkpt lat="49.632521" lon="16.004467"><ele>769</ele></trkpt>
<trkpt lat="49.632673" lon="16.004546"><ele>770</ele></trkpt>
<trkpt lat="49.632786" lon="16.004539"><ele>770</ele></trkpt>
<trkpt lat="49.632962" lon="16.004417"><ele>770</ele></trkpt>
<trkpt lat="49.633661" lon="16.004076"><ele>774</ele></trkpt>
<trkpt lat="49.633918" lon="16.003970"><ele>775</ele></trkpt>
<trkpt lat="49.634071" lon="16.003934"><ele>776</ele></trkpt>
<trkpt lat="49.634646" lon="16.003988"><ele>780</ele></trkpt>
<trkpt lat="49.634968" lon="16.004030"><ele>782</ele></trkpt>
<trkpt lat="49.635128" lon="16.004092"><ele>783</ele></trkpt>
<trkpt lat="49.635300" lon="16.004194"><ele>784</ele></trkpt>
<trkpt lat="49.635388" lon="16.004191"><ele>785</ele></trkpt>
<trkpt lat="49.635744" lon="16.004120"><ele>789</ele></trkpt>
<trkpt lat="49.635934" lon="16.004158"><ele>791</ele></trkpt>
<trkpt lat="49.636311" lon="16.004335"><ele>793</ele></trkpt>
<trkpt lat="49.636545" lon="16.004430"><ele>794</ele></trkpt>
<trkpt lat="49.636746" lon="16.004190"><ele>796</ele></trkpt>
<trkpt lat="49.636810" lon="16.004113"><ele>796</ele></trkpt>
<trkpt lat="49.636984" lon="16.003851"><ele>798</ele></trkpt>
<trkpt lat="49.637094" lon="16.003701"><ele>799</ele></trkpt>
<trkpt lat="49.637685" lon="16.003422"><ele>801</ele></trkpt>
<trkpt lat="49.637769" lon="16.003342"><ele>801</ele></trkpt>
<trkpt lat="49.637990" lon="16.003071"><ele>801</ele></trkpt>
<trkpt lat="49.638098" lon="16.002885"><ele>801</ele></trkpt>
<trkpt lat="49.638239" lon="16.002595"><ele>802</ele></trkpt>
<trkpt lat="49.638497" lon="16.002215"><ele>801</ele></trkpt>
<trkpt lat="49.638644" lon="16.001933"><ele>801</ele></trkpt>
<trkpt lat="49.638601" lon="16.001936"><ele>802</ele></trkpt>
<trkpt lat="49.638644" lon="16.001933"><ele>801</ele></trkpt>
<trkpt lat="49.639138" lon="16.002022"><ele>799</ele></trkpt>
<trkpt lat="49.639433" lon="16.001919"><ele>797</ele></trkpt>
<trkpt lat="49.639680" lon="16.001772"><ele>795</ele></trkpt>
<trkpt lat="49.639994" lon="16.001875"><ele>792</ele></trkpt>
<trkpt lat="49.640480" lon="16.002297"><ele>790</ele></trkpt>
<trkpt lat="49.640661" lon="16.002690"><ele>788</ele></trkpt>
<trkpt lat="49.640760" lon="16.003302"><ele>787</ele></trkpt>
<trkpt lat="49.641022" lon="16.003565"><ele>788</ele></trkpt>
<trkpt lat="49.641307" lon="16.003736"><ele>788</ele></trkpt>
<trkpt lat="49.641398" lon="16.003790"><ele>788</ele></trkpt>
<trkpt lat="49.642829" lon="16.000121"><ele>784</ele></trkpt>
<trkpt lat="49.643230" lon="15.999081"><ele>782</ele></trkpt>
<trkpt lat="49.643382" lon="15.998657"><ele>781</ele></trkpt>
<trkpt lat="49.643458" lon="15.998349"><ele>780</ele></trkpt>
<trkpt lat="49.643481" lon="15.998195"><ele>779</ele></trkpt>
<trkpt lat="49.643498" lon="15.997822"><ele>778</ele></trkpt>
<trkpt lat="49.643490" lon="15.997654"><ele>777</ele></trkpt>
<trkpt lat="49.643462" lon="15.997386"><ele>776</ele></trkpt>
<trkpt lat="49.643443" lon="15.997118"><ele>775</ele></trkpt>
<trkpt lat="49.643438" lon="15.996917"><ele>773</ele></trkpt>
<trkpt lat="49.643454" lon="15.996660"><ele>772</ele></trkpt>
<trkpt lat="49.643469" lon="15.996558"><ele>771</ele></trkpt>
<trkpt lat="49.643500" lon="15.996404"><ele>770</ele></trkpt>
<trkpt lat="49.643546" lon="15.996225"><ele>769</ele></trkpt>
<trkpt lat="49.643586" lon="15.996094"><ele>768</ele></trkpt>
<trkpt lat="49.644464" lon="15.993616"><ele>752</ele></trkpt>
<trkpt lat="49.644844" lon="15.992346"><ele>744</ele></trkpt>
<trkpt lat="49.645037" lon="15.991128"><ele>738</ele></trkpt>
<trkpt lat="49.645119" lon="15.990748"><ele>736</ele></trkpt>
<trkpt lat="49.645664" lon="15.989529"><ele>728</ele></trkpt>
<trkpt lat="49.645748" lon="15.989297"><ele>727</ele></trkpt>
<trkpt lat="49.645820" lon="15.989049"><ele>726</ele></trkpt>
<trkpt lat="49.645835" lon="15.988960"><ele>725</ele></trkpt>
<trkpt lat="49.645872" lon="15.988606"><ele>724</ele></trkpt>
<trkpt lat="49.645863" lon="15.988382"><ele>722</ele></trkpt>
<trkpt lat="49.645814" lon="15.988082"><ele>722</ele></trkpt>
<trkpt lat="49.645664" lon="15.987563"><ele>720</ele></trkpt>
<trkpt lat="49.645476" lon="15.987065"><ele>721</ele></trkpt>
<trkpt lat="49.645084" lon="15.986363"><ele>721</ele></trkpt>
<trkpt lat="49.644840" lon="15.985965"><ele>718</ele></trkpt>
<trkpt lat="49.644220" lon="15.985111"><ele>714</ele></trkpt>
<trkpt lat="49.643342" lon="15.983989"><ele>707</ele></trkpt>
<trkpt lat="49.643098" lon="15.983713"><ele>705</ele></trkpt>
<trkpt lat="49.642149" lon="15.982654"><ele>697</ele></trkpt>
<trkpt lat="49.642070" lon="15.982523"><ele>697</ele></trkpt>
<trkpt lat="49.642029" lon="15.982429"><ele>697</ele></trkpt>
<trkpt lat="49.641971" lon="15.982239"><ele>697</ele></trkpt>
<trkpt lat="49.641937" lon="15.981919"><ele>697</ele></trkpt>
<trkpt lat="49.641926" lon="15.981665"><ele>696</ele></trkpt>
<trkpt lat="49.641916" lon="15.981445"><ele>696</ele></trkpt>
<trkpt lat="49.641898" lon="15.981073"><ele>696</ele></trkpt>
<trkpt lat="49.641851" lon="15.980501"><ele>695</ele></trkpt>
<trkpt lat="49.641535" lon="15.979124"><ele>694</ele></trkpt>
<trkpt lat="49.641247" lon="15.974980"><ele>689</ele></trkpt>
<trkpt lat="49.641226" lon="15.974199"><ele>688</ele></trkpt>
<trkpt lat="49.641291" lon="15.973698"><ele>687</ele></trkpt>
<trkpt lat="49.641563" lon="15.972927"><ele>683</ele></trkpt>
<trkpt lat="49.641938" lon="15.971912"><ele>678</ele></trkpt>
<trkpt lat="49.642262" lon="15.970633"><ele>672</ele></trkpt>
<trkpt lat="49.642305" lon="15.969681"><ele>668</ele></trkpt>
<trkpt lat="49.642097" lon="15.965323"><ele>663</ele></trkpt>
<trkpt lat="49.642068" lon="15.965235"><ele>664</ele></trkpt>
<trkpt lat="49.642130" lon="15.965125"><ele>663</ele></trkpt>
<trkpt lat="49.642290" lon="15.964978"><ele>661</ele></trkpt>
<trkpt lat="49.642601" lon="15.965254"><ele>658</ele></trkpt>
<trkpt lat="49.643848" lon="15.966364"><ele>656</ele></trkpt>
<trkpt lat="49.644313" lon="15.966793"><ele>660</ele></trkpt>
<trkpt lat="49.644152" lon="15.967435"><ele>660</ele></trkpt>
<trkpt lat="49.643916" lon="15.968121"><ele>658</ele></trkpt>
</trkseg></trk>
</gpx>
