<?xml version="1.0" encoding="UTF-8"?>
<gpx version="1.1" creator="Vysočina 2026 – Mlýn Vikinek" xmlns="http://www.topografix.com/GPX/1/1">
<metadata><name>Dva prameny, dvě moře</name><desc>K pramenu Svratky (Černé moře) i Sázavy (Severní moře), lesními cestami kolem Žákovy hory.</desc></metadata>
<wpt lat="49.643880" lon="15.999420"><name>Pramen Svratky</name><desc>Tady se rodí Svratka. Její voda doteče přes Brno a Dunaj až do Černého moře.</desc></wpt>
<wpt lat="49.656990" lon="15.991830"><name>Žákova hora (810 m): prales</name><desc>Národní přírodní rezervace se starým jedlo-bukovým lesem a naučnou stezkou.</desc></wpt>
<wpt lat="49.671560" lon="15.937860"><name>Pramen Sázavy</name><desc>Pramen řeky, která teče do Vltavy, Labe a Severního moře.</desc></wpt>
<wpt lat="49.651780" lon="15.949450"><name>Tisůvka (804 m)</name><desc>Nejbližší skály: 58 m dlouhá rulová hradba, až 15 m vysoká, skoro za humny.</desc></wpt>
<trk><name>Dva prameny, dvě moře</name><trkseg>
<trkpt lat="49.643916" lon="15.968121"><ele>658</ele></trkpt>
<trkpt lat="49.644152" lon="15.967435"><ele>660</ele></trkpt>
<trkpt lat="49.644313" lon="15.966793"><ele>660</ele></trkpt>
<trkpt lat="49.643848" lon="15.966364"><ele>656</ele></trkpt>
<trkpt lat="49.642601" lon="15.965254"><ele>658</ele></trkpt>
<trkpt lat="49.642290" lon="15.964978"><ele>661</ele></trkpt>
<trkpt lat="49.642130" lon="15.965125"><ele>663</ele></trkpt>
<trkpt lat="49.642068" lon="15.965235"><ele>664</ele></trkpt>
<trkpt lat="49.642097" lon="15.965323"><ele>663</ele></trkpt>
<trkpt lat="49.642305" lon="15.969681"><ele>668</ele></trkpt>
<trkpt lat="49.642262" lon="15.970633"><ele>672</ele></trkpt>
<trkpt lat="49.641938" lon="15.971912"><ele>678</ele></trkpt>
<trkpt lat="49.641563" lon="15.972927"><ele>683</ele></trkpt>
<trkpt lat="49.641291" lon="15.973698"><ele>687</ele></trkpt>
<trkpt lat="49.641226" lon="15.974199"><ele>688</ele></trkpt>
<trkpt lat="49.641247" lon="15.974980"><ele>689</ele></trkpt>
<trkpt lat="49.641535" lon="15.979124"><ele>694</ele></trkpt>
<trkpt lat="49.641851" lon="15.980501"><ele>695</ele></trkpt>
<trkpt lat="49.641898" lon="15.981073"><ele>696</ele></trkpt>
<trkpt lat="49.641916" lon="15.981445"><ele>696</ele></trkpt>
<trkpt lat="49.641926" lon="15.981665"><ele>696</ele></trkpt>
<trkpt lat="49.641937" lon="15.981919"><ele>697</ele></trkpt>
<trkpt lat="49.641971" lon="15.982239"><ele>697</ele></trkpt>
<trkpt lat="49.642029" lon="15.982429"><ele>697</ele></trkpt>
<trkpt lat="49.642070" lon="15.982523"><ele>697</ele></trkpt>
<trkpt lat="49.642149" lon="15.982654"><ele>697</ele></trkpt>
<trkpt lat="49.643098" lon="15.983713"><ele>705</ele></trkpt>
<trkpt lat="49.643342" lon="15.983989"><ele>707</ele></trkpt>
<trkpt lat="49.644220" lon="15.985111"><ele>714</ele></trkpt>
<trkpt lat="49.644840" lon="15.985965"><ele>718</ele></trkpt>
<trkpt lat="49.645084" lon="15.986363"><ele>721</ele></trkpt>
<trkpt lat="49.645476" lon="15.987065"><ele>721</ele></trkpt>
<trkpt lat="49.645664" lon="15.987563"><ele>720</ele></trkpt>
<trkpt lat="49.645814" lon="15.988082"><ele>722</ele></trkpt>
<trkpt lat="49.645863" lon="15.988382"><ele>722</ele></trkpt>
<trkpt lat="49.645872" lon="15.988606"><ele>724</ele></trkpt>
<trkpt lat="49.645835" lon="15.988960"><ele>725</ele></trkpt>
<trkpt lat="49.645820" lon="15.989049"><ele>726</ele></trkpt>
<trkpt lat="49.645748" lon="15.989297"><ele>727</ele></trkpt>
<trkpt lat="49.645664" lon="15.989529"><ele>728</ele></trkpt>
<trkpt lat="49.645119" lon="15.990748"><ele>736</ele></trkpt>
<trkpt lat="49.645037" lon="15.991128"><ele>738</ele></trkpt>
<trkpt lat="49.644844" lon="15.992346"><ele>744</ele></trkpt>
<trkpt lat="49.644464" lon="15.993616"><ele>752</ele></trkpt>
<trkpt lat="49.643586" lon="15.996094"><ele>768</ele></trkpt>
<trkpt lat="49.643546" lon="15.996225"><ele>769</ele></trkpt>
<trkpt lat="49.643500" lon="15.996404"><ele>770</ele></trkpt>
<trkpt lat="49.643469" lon="15.996558"><ele>771</ele></trkpt>
<trkpt lat="49.643454" lon="15.996660"><ele>772</ele></trkpt>
<trkpt lat="49.643438" lon="15.996917"><ele>773</ele></trkpt>
<trkpt lat="49.643443" lon="15.997118"><ele>775</ele></trkpt>
<trkpt lat="49.643462" lon="15.997386"><ele>776</ele></trkpt>
<trkpt lat="49.643490" lon="15.997654"><ele>777</ele></trkpt>
<trkpt lat="49.643498" lon="15.997822"><ele>778</ele></trkpt>
<trkpt lat="49.643481" lon="15.998195"><ele>779</ele></trkpt>
<trkpt lat="49.643458" lon="15.998349"><ele>780</ele></trkpt>
<trkpt lat="49.643382" lon="15.998657"><ele>781</ele></trkpt>
<trkpt lat="49.643230" lon="15.999081"><ele>782</ele></trkpt>
<trkpt lat="49.643449" lon="15.999285"><ele>781</ele></trkpt>
<trkpt lat="49.643642" lon="15.999344"><ele>779</ele></trkpt>
<trkpt lat="49.643698" lon="15.999384"><ele>778</ele></trkpt>
<trkpt lat="49.643864" lon="15.999447"><ele>778</ele></trkpt>
<trkpt lat="49.643698" lon="15.999384"><ele>778</ele></trkpt>
<trkpt lat="49.643642" lon="15.999344"><ele>779</ele></trkpt>
<trkpt lat="49.643449" lon="15.999285"><ele>781</ele></trkpt>
<trkpt lat="49.643230" lon="15.999081"><ele>782</ele></trkpt>
<trkpt lat="49.642829" lon="16.000121"><ele>784</ele></trkpt>
<trkpt lat="49.641398" lon="16.003790"><ele>788</ele></trkpt>
<trkpt lat="49.643017" lon="16.003797"><ele>786</ele></trkpt>
<trkpt lat="49.643424" lon="16.003845"><ele>784</ele></trkpt>
<trkpt lat="49.643812" lon="16.003890"><ele>784</ele></trkpt>
<trkpt lat="49.646013" lon="16.004614"><ele>780</ele></trkpt>
<trkpt lat="49.646271" lon="16.004675"><ele>779</ele></trkpt>
<trkpt lat="49.646536" lon="16.004650"><ele>779</ele></trkpt>
<trkpt lat="49.646852" lon="16.004449"><ele>778</ele></trkpt>
<trkpt lat="49.647013" lon="16.004319"><ele>778</ele></trkpt>
<trkpt lat="49.647147" lon="16.004142"><ele>778</ele></trkpt>
<trkpt lat="49.647279" lon="16.003946"><ele>777</ele></trkpt>
<trkpt lat="49.647386" lon="16.003705"><ele>776</ele></trkpt>
<trkpt lat="49.647485" lon="16.003443"><ele>775</ele></trkpt>
<trkpt lat="49.647638" lon="16.002947"><ele>774</ele></trkpt>
<trkpt lat="49.647767" lon="16.002475"><ele>774</ele></trkpt>
<trkpt lat="49.648331" lon="16.000470"><ele>772</ele></trkpt>
<trkpt lat="49.648507" lon="15.999812"><ele>772</ele></trkpt>
<trkpt lat="49.648628" lon="15.999423"><ele>772</ele></trkpt>
<trkpt lat="49.648768" lon="15.999044"><ele>772</ele></trkpt>
<trkpt lat="49.648873" lon="15.998794"><ele>773</ele></trkpt>
<trkpt lat="49.648967" lon="15.998618"><ele>772</ele></trkpt>
<trkpt lat="49.649070" lon="15.998453"><ele>772</ele></trkpt>
<trkpt lat="49.649468" lon="15.997936"><ele>772</ele></trkpt>
<trkpt lat="49.650232" lon="15.997054"><ele>769</ele></trkpt>
<trkpt lat="49.651497" lon="15.995660"><ele>768</ele></trkpt>
<trkpt lat="49.651731" lon="15.995775"><ele>769</ele></trkpt>
<trkpt lat="49.651889" lon="15.995989"><ele>770</ele></trkpt>
<trkpt lat="49.651976" lon="15.996140"><ele>771</ele></trkpt>
<trkpt lat="49.652068" lon="15.996324"><ele>772</ele></trkpt>
<trkpt lat="49.652165" lon="15.996581"><ele>772</ele></trkpt>
<trkpt lat="49.652583" lon="15.997812"><ele>776</ele></trkpt>
<trkpt lat="49.652684" lon="15.998109"><ele>776</ele></trkpt>
<trkpt lat="49.653089" lon="15.998525"><ele>778</ele></trkpt>
<trkpt lat="49.653367" lon="15.998761"><ele>781</ele></trkpt>
<trkpt lat="49.653522" lon="15.998876"><ele>781</ele></trkpt>
<trkpt lat="49.653615" lon="15.998881"><ele>781</ele></trkpt>
<trkpt lat="49.653800" lon="15.998855"><ele>781</ele></trkpt>
<trkpt lat="49.654032" lon="15.998800"><ele>781</ele></trkpt>
<trkpt lat="49.654417" lon="15.998647"><ele>778</ele></trkpt>
<trkpt lat="49.654424" lon="15.998835"><ele>776</ele></trkpt>
<trkpt lat="49.654403" lon="15.998908"><ele>776</ele></trkpt>
<trkpt lat="49.654424" lon="15.998835"><ele>776</ele></trkpt>
<trkpt lat="49.654417" lon="15.998647"><ele>778</ele></trkpt>
<trkpt lat="49.654652" lon="15.998592"><ele>777</ele></trkpt>
<trkpt lat="49.655182" lon="15.998223"><ele>777</ele></trkpt>
<trkpt lat="49.655352" lon="15.997887"><ele>778</ele></trkpt>
<trkpt lat="49.655512" lon="15.997718"><ele>776</ele></trkpt>
<trkpt lat="49.655911" lon="15.997160"><ele>776</ele></trkpt>
<trkpt lat="49.656009" lon="15.997053"><ele>776</ele></trkpt>
<trkpt lat="49.656694" lon="15.996846"><ele>773</ele></trkpt>
<trkpt lat="49.656902" lon="15.996767"><ele>772</ele></trkpt>
<trkpt lat="49.657040" lon="15.996695"><ele>772</ele></trkpt>
<trkpt lat="49.657278" lon="15.996704"><ele>771</ele></trkpt>
<trkpt lat="49.657398" lon="15.996577"><ele>772</ele></trkpt>
<trkpt lat="49.657677" lon="15.996577"><ele>770</ele></trkpt>
<trkpt lat="49.657885" lon="15.996485"><ele>770</ele></trkpt>
<trkpt lat="49.657869" lon="15.996360"><ele>772</ele></trkpt>
<trkpt lat="49.657885" lon="15.996485"><ele>770</ele></trkpt>
<trkpt lat="49.657677" lon="15.996577"><ele>770</ele></trkpt>
<trkpt lat="49.657398" lon="15.996577"><ele>772</ele></trkpt>
<trkpt lat="49.657278" lon="15.996704"><ele>771</ele></trkpt>
<trkpt lat="49.657040" lon="15.996695"><ele>772</ele></trkpt>
<trkpt lat="49.656902" lon="15.996767"><ele>772</ele></trkpt>
<trkpt lat="49.656694" lon="15.996846"><ele>773</ele></trkpt>
<trkpt lat="49.656009" lon="15.997053"><ele>776</ele></trkpt>
<trkpt lat="49.655911" lon="15.997160"><ele>776</ele></trkpt>
<trkpt lat="49.655512" lon="15.997718"><ele>776</ele></trkpt>
<trkpt lat="49.655352" lon="15.997887"><ele>778</ele></trkpt>
<trkpt lat="49.655182" lon="15.998223"><ele>777</ele></trkpt>
<trkpt lat="49.654652" lon="15.998592"><ele>777</ele></trkpt>
<trkpt lat="49.654417" lon="15.998647"><ele>778</ele></trkpt>
<trkpt lat="49.654032" lon="15.998800"><ele>781</ele></trkpt>
<trkpt lat="49.653800" lon="15.998855"><ele>781</ele></trkpt>
<trkpt lat="49.653615" lon="15.998881"><ele>781</ele></trkpt>
<trkpt lat="49.653522" lon="15.998876"><ele>781</ele></trkpt>
<trkpt lat="49.653367" lon="15.998761"><ele>781</ele></trkpt>
<trkpt lat="49.653089" lon="15.998525"><ele>778</ele></trkpt>
<trkpt lat="49.652684" lon="15.998109"><ele>776</ele></trkpt>
<trkpt lat="49.652583" lon="15.997812"><ele>776</ele></trkpt>
<trkpt lat="49.652165" lon="15.996581"><ele>772</ele></trkpt>
<trkpt lat="49.652136" lon="15.996295"><ele>772</ele></trkpt>
<trkpt lat="49.652091" lon="15.995552"><ele>771</ele></trkpt>
<trkpt lat="49.652033" lon="15.994499"><ele>768</ele></trkpt>
<trkpt lat="49.652024" lon="15.994228"><ele>766</ele></trkpt>
<trkpt lat="49.652332" lon="15.993199"><ele>762</ele></trkpt>
<trkpt lat="49.653431" lon="15.990429"><ele>750</ele></trkpt>
<trkpt lat="49.653520" lon="15.990256"><ele>750</ele></trkpt>
<trkpt lat="49.654131" lon="15.988984"><ele>746</ele></trkpt>
<trkpt lat="49.655284" lon="15.986761"><ele>738</ele></trkpt>
<trkpt lat="49.655796" lon="15.985706"><ele>734</ele></trkpt>
<trkpt lat="49.656009" lon="15.985199"><ele>731</ele></trkpt>
<trkpt lat="49.657363" lon="15.981914"><ele>715</ele></trkpt>
<trkpt lat="49.658725" lon="15.978611"><ele>700</ele></trkpt>
<trkpt lat="49.659419" lon="15.976923"><ele>694</ele></trkpt>
<trkpt lat="49.659468" lon="15.976809"><ele>693</ele></trkpt>
<trkpt lat="49.660476" lon="15.974427"><ele>686</ele></trkpt>
<trkpt lat="49.660575" lon="15.974162"><ele>685</ele></trkpt>
<trkpt lat="49.660525" lon="15.973759"><ele>683</ele></trkpt>
<trkpt lat="49.660402" lon="15.973502"><ele>682</ele></trkpt>
<trkpt lat="49.660230" lon="15.973243"><ele>681</ele></trkpt>
<trkpt lat="49.660060" lon="15.973199"><ele>680</ele></trkpt>
<trkpt lat="49.659925" lon="15.973106"><ele>680</ele></trkpt>
<trkpt lat="49.657852" lon="15.971265"><ele>676</ele></trkpt>
<trkpt lat="49.657773" lon="15.971192"><ele>676</ele></trkpt>
<trkpt lat="49.656440" lon="15.970006"><ele>686</ele></trkpt>
<trkpt lat="49.654384" lon="15.968234"><ele>694</ele></trkpt>
<trkpt lat="49.654165" lon="15.968093"><ele>695</ele></trkpt>
<trkpt lat="49.653791" lon="15.969278"><ele>693</ele></trkpt>
<trkpt lat="49.654165" lon="15.968093"><ele>695</ele></trkpt>
<trkpt lat="49.653844" lon="15.967886"><ele>697</ele></trkpt>
<trkpt lat="49.653360" lon="15.967715"><ele>701</ele></trkpt>
<trkpt lat="49.652846" lon="15.967664"><ele>704</ele></trkpt>
<trkpt lat="49.652871" lon="15.967052"><ele>706</ele></trkpt>
<trkpt lat="49.653121" lon="15.964019"><ele>702</ele></trkpt>
<trkpt lat="49.653280" lon="15.962186"><ele>704</ele></trkpt>
<trkpt lat="49.653274" lon="15.961769"><ele>704</ele></trkpt>
<trkpt lat="49.653441" lon="15.960358"><ele>708</ele></trkpt>
<trkpt lat="49.653617" lon="15.959340"><ele>710</ele></trkpt>
<trkpt lat="49.653744" lon="15.958939"><ele>712</ele></trkpt>
<trkpt lat="49.653817" lon="15.958710"><ele>712</ele></trkpt>
<trkpt lat="49.654005" lon="15.958331"><ele>714</ele></trkpt>
<trkpt lat="49.654499" lon="15.957513"><ele>717</ele></trkpt>
<trkpt lat="49.654749" lon="15.957010"><ele>718</ele></trkpt>
<trkpt lat="49.655023" lon="15.956460"><ele>720</ele></trkpt>
<trkpt lat="49.655239" lon="15.955938"><ele>722</ele></trkpt>
<trkpt lat="49.655816" lon="15.953372"><ele>731</ele></trkpt>
<trkpt lat="49.656062" lon="15.952612"><ele>733</ele></trkpt>
<trkpt lat="49.657338" lon="15.949832"><ele>739</ele></trkpt>
<trkpt lat="49.657663" lon="15.948765"><ele>745</ele></trkpt>
<trkpt lat="49.658257" lon="15.946873"><ele>753</ele></trkpt>
<trkpt lat="49.658391" lon="15.945934"><ele>754</ele></trkpt>
<trkpt lat="49.658465" lon="15.945096"><ele>753</ele></trkpt>
<trkpt lat="49.659082" lon="15.945135"><ele>755</ele></trkpt>
<trkpt lat="49.659506" lon="15.945041"><ele>756</ele></trkpt>
<trkpt lat="49.659707" lon="15.944897"><ele>755</ele></trkpt>
<trkpt lat="49.659952" lon="15.944772"><ele>755</ele></trkpt>
<trkpt lat="49.660156" lon="15.944772"><ele>755</ele></trkpt>
<trkpt lat="49.660452" lon="15.944911"><ele>757</ele></trkpt>
<trkpt lat="49.660946" lon="15.944754"><ele>760</ele></trkpt>
<trkpt lat="49.661236" lon="15.944777"><ele>762</ele></trkpt>
<trkpt lat="49.661635" lon="15.944628"><ele>762</ele></trkpt>
<trkpt lat="49.661859" lon="15.944611"><ele>762</ele></trkpt>
<trkpt lat="49.661980" lon="15.944635"><ele>763</ele></trkpt>
<trkpt lat="49.662108" lon="15.944569"><ele>763</ele></trkpt>
<trkpt lat="49.662285" lon="15.944387"><ele>763</ele></trkpt>
<trkpt lat="49.662379" lon="15.944204"><ele>763</ele></trkpt>
<trkpt lat="49.662655" lon="15.943860"><ele>764</ele></trkpt>
<trkpt lat="49.662852" lon="15.943753"><ele>764</ele></trkpt>
<trkpt lat="49.663167" lon="15.943828"><ele>767</ele></trkpt>
<trkpt lat="49.663403" lon="15.944125"><ele>769</ele></trkpt>
<trkpt lat="49.663530" lon="15.944158"><ele>770</ele></trkpt>
<trkpt lat="49.663753" lon="15.944142"><ele>772</ele></trkpt>
<trkpt lat="49.664152" lon="15.944305"><ele>775</ele></trkpt>
<trkpt lat="49.664448" lon="15.944207"><ele>776</ele></trkpt>
<trkpt lat="49.666127" lon="15.943510"><ele>780</ele></trkpt>
<trkpt lat="49.666588" lon="15.943330"><ele>782</ele></trkpt>
<trkpt lat="49.668241" lon="15.942620"><ele>790</ele></trkpt>
<trkpt lat="49.668468" lon="15.942342"><ele>790</ele></trkpt>
<trkpt lat="49.668562" lon="15.941870"><ele>790</ele></trkpt>
<trkpt lat="49.668563" lon="15.941649"><ele>789</ele></trkpt>
<trkpt lat="49.668693" lon="15.941218"><ele>789</ele></trkpt>
<trkpt lat="49.669291" lon="15.940614"><ele>786</ele></trkpt>
<trkpt lat="49.669634" lon="15.940108"><ele>784</ele></trkpt>
<trkpt lat="49.670081" lon="15.939652"><ele>781</ele></trkpt>
<trkpt lat="49.670384" lon="15.939381"><ele>779</ele></trkpt>
<trkpt lat="49.670600" lon="15.939544"><ele>778</ele></trkpt>
<trkpt lat="49.670699" lon="15.939643"><ele>778</ele></trkpt>
<trkpt lat="49.671140" lon="15.939727"><ele>774</ele></trkpt>
<trkpt lat="49.671198" lon="15.939664"><ele>774</ele></trkpt>
<trkpt lat="49.671434" lon="15.939312"><ele>772</ele></trkpt>
<trkpt lat="49.671597" lon="15.938944"><ele>770</ele></trkpt>
<trkpt lat="49.671815" lon="15.938687"><ele>768</ele></trkpt>
<trkpt lat="49.671734" lon="15.938597"><ele>768</ele></trkpt>
<trkpt lat="49.671681" lon="15.938451"><ele>768</ele></trkpt>
<trkpt lat="49.671596" lon="15.938346"><ele>768</ele></trkpt>
<trkpt lat="49.671542" lon="15.938187"><ele>768</ele></trkpt>
<trkpt lat="49.671542" lon="15.938046"><ele>768</ele></trkpt>
<trkpt lat="49.671569" lon="15.937954"><ele>768</ele></trkpt>
<trkpt lat="49.671587" lon="15.937938"><ele>768</ele></trkpt>
<trkpt lat="49.671569" lon="15.937954"><ele>768</ele></trkpt>
<trkpt lat="49.671542" lon="15.938046"><ele>768</ele></trkpt>
<trkpt lat="49.671542" lon="15.938187"><ele>768</ele></trkpt>
<trkpt lat="49.671596" lon="15.938346"><ele>768</ele></trkpt>
<trkpt lat="49.671681" lon="15.938451"><ele>768</ele></trkpt>
<trkpt lat="49.671734" lon="15.938597"><ele>768</ele></trkpt>
<trkpt lat="49.671815" lon="15.938687"><ele>768</ele></trkpt>
<trkpt lat="49.671597" lon="15.938944"><ele>770</ele></trkpt>
<trkpt lat="49.671434" lon="15.939312"><ele>772</ele></trkpt>
<trkpt lat="49.671198" lon="15.939664"><ele>774</ele></trkpt>
<trkpt lat="49.671140" lon="15.939727"><ele>774</ele></trkpt>
<trkpt lat="49.670699" lon="15.939643"><ele>778</ele></trkpt>
<trkpt lat="49.670600" lon="15.939544"><ele>778</ele></trkpt>
<trkpt lat="49.670384" lon="15.939381"><ele>779</ele></trkpt>
<trkpt lat="49.670081" lon="15.939652"><ele>781</ele></trkpt>
<trkpt lat="49.669634" lon="15.940108"><ele>784</ele></trkpt>
<trkpt lat="49.669291" lon="15.940614"><ele>786</ele></trkpt>
<trkpt lat="49.668693" lon="15.941218"><ele>789</ele></trkpt>
<trkpt lat="49.668563" lon="15.941649"><ele>789</ele></trkpt>
<trkpt lat="49.668562" lon="15.941870"><ele>790</ele></trkpt>
<trkpt lat="49.668468" lon="15.942342"><ele>790</ele></trkpt>
<trkpt lat="49.668241" lon="15.942620"><ele>790</ele></trkpt>
<trkpt lat="49.666588" lon="15.943330"><ele>782</ele></trkpt>
<trkpt lat="49.666127" lon="15.943510"><ele>780</ele></trkpt>
<trkpt lat="49.664448" lon="15.944207"><ele>776</ele></trkpt>
<trkpt lat="49.664152" lon="15.944305"><ele>775</ele></trkpt>
<trkpt lat="49.663753" lon="15.944142"><ele>772</ele></trkpt>
<trkpt lat="49.663530" lon="15.944158"><ele>770</ele></trkpt>
<trkpt lat="49.663403" lon="15.944125"><ele>769</ele></trkpt>
<trkpt lat="49.663167" lon="15.943828"><ele>767</ele></trkpt>
<trkpt lat="49.662852" lon="15.943753"><ele>764</ele></trkpt>
<trkpt lat="49.662655" lon="15.943860"><ele>764</ele></trkpt>
<trkpt lat="49.662379" lon="15.944204"><ele>763</ele></trkpt>
<trkpt lat="49.662285" lon="15.944387"><ele>763</ele></trkpt>
<trkpt lat="49.662108" lon="15.944569"><ele>763</ele></trkpt>
<trkpt lat="49.661980" lon="15.944635"><ele>763</ele></trkpt>
<trkpt lat="49.661859" lon="15.944611"><ele>762</ele></trkpt>
<trkpt lat="49.661635" lon="15.944628"><ele>762</ele></trkpt>
<trkpt lat="49.661236" lon="15.944777"><ele>762</ele></trkpt>
<trkpt lat="49.660946" lon="15.944754"><ele>760</ele></trkpt>
<trkpt lat="49.660452" lon="15.944911"><ele>757</ele></trkpt>
<trkpt lat="49.660156" lon="15.944772"><ele>755</ele></trkpt>
<trkpt lat="49.659952" lon="15.944772"><ele>755</ele></trkpt>
<trkpt lat="49.659707" lon="15.944897"><ele>755</ele></trkpt>
<trkpt lat="49.659506" lon="15.945041"><ele>756</ele></trkpt>
<trkpt lat="49.659082" lon="15.945135"><ele>755</ele></trkpt>
<trkpt lat="49.658465" lon="15.945096"><ele>753</ele></trkpt>
<trkpt lat="49.658429" lon="15.944465"><ele>753</ele></trkpt>
<trkpt lat="49.658303" lon="15.944342"><ele>753</ele></trkpt>
<trkpt lat="49.658023" lon="15.944037"><ele>753</ele></trkpt>
<trkpt lat="49.657425" lon="15.943572"><ele>754</ele></trkpt>
<trkpt lat="49.657119" lon="15.943432"><ele>753</ele></trkpt>
<trkpt lat="49.656666" lon="15.944441"><ele>757</ele></trkpt>
<trkpt lat="49.655870" lon="15.946480"><ele>760</ele></trkpt>
<trkpt lat="49.655099" lon="15.948332"><ele>759</ele></trkpt>
<trkpt lat="49.654761" lon="15.948026"><ele>763</ele></trkpt>
<trkpt lat="49.654275" lon="15.947997"><ele>766</ele></trkpt>
<trkpt lat="49.653870" lon="15.948172"><ele>768</ele></trkpt>
<trkpt lat="49.653553" lon="15.948189"><ele>772</ele></trkpt>
<trkpt lat="49.652646" lon="15.948701"><ele>780</ele></trkpt>
<trkpt lat="49.651974" lon="15.949285"><ele>788</ele></trkpt>
<trkpt lat="49.651970" lon="15.949438"><ele>788</ele></trkpt>
<trkpt lat="49.651928" lon="15.949657"><ele>789</ele></trkpt>
<trkpt lat="49.651978" lon="15.949886"><ele>788</ele></trkpt>
<trkpt lat="49.652089" lon="15.949998"><ele>787</ele></trkpt>
<trkpt lat="49.652253" lon="15.950299"><ele>783</ele></trkpt>
<trkpt lat="49.652287" lon="15.950546"><ele>781</ele></trkpt>
<trkpt lat="49.652409" lon="15.950806"><ele>778</ele></trkpt>
<trkpt lat="49.652877" lon="15.951593"><ele>768</ele></trkpt>
<trkpt lat="49.653349" lon="15.952553"><ele>752</ele></trkpt>
<trkpt lat="49.653620" lon="15.952833"><ele>748</ele></trkpt>
<trkpt lat="49.653796" lon="15.953329"><ele>742</ele></trkpt>
<trkpt lat="49.653942" lon="15.954067"><ele>738</ele></trkpt>
<trkpt lat="49.654022" lon="15.954253"><ele>737</ele></trkpt>
<trkpt lat="49.654294" lon="15.954447"><ele>734</ele></trkpt>
<trkpt lat="49.654711" lon="15.955068"><ele>729</ele></trkpt>
<trkpt lat="49.655239" lon="15.955938"><ele>722</ele></trkpt>
<trkpt lat="49.655023" lon="15.956460"><ele>720</ele></trkpt>
<trkpt lat="49.654749" lon="15.957010"><ele>718</ele></trkpt>
<trkpt lat="49.654499" lon="15.957513"><ele>717</ele></trkpt>
<trkpt lat="49.654005" lon="15.958331"><ele>714</ele></trkpt>
<trkpt lat="49.653817" lon="15.958710"><ele>712</ele></trkpt>
<trkpt lat="49.653744" lon="15.958939"><ele>712</ele></trkpt>
<trkpt lat="49.653617" lon="15.959340"><ele>710</ele></trkpt>
<trkpt lat="49.653441" lon="15.960358"><ele>708</ele></trkpt>
<trkpt lat="49.653274" lon="15.961769"><ele>704</ele></trkpt>
<trkpt lat="49.653280" lon="15.962186"><ele>704</ele></trkpt>
<trkpt lat="49.653121" lon="15.964019"><ele>702</ele></trkpt>
<trkpt lat="49.652871" lon="15.967052"><ele>706</ele></trkpt>
<trkpt lat="49.652846" lon="15.967664"><ele>704</ele></trkpt>
<trkpt lat="49.652504" lon="15.967713"><ele>705</ele></trkpt>
<trkpt lat="49.649557" lon="15.968814"><ele>700</ele></trkpt>
<trkpt lat="49.647923" lon="15.969163"><ele>686</ele></trkpt>
<trkpt lat="49.647465" lon="15.969031"><ele>682</ele></trkpt>
<trkpt lat="49.646446" lon="15.968590"><ele>673</ele></trkpt>
<trkpt lat="49.646193" lon="15.968458"><ele>671</ele></trkpt>
<trkpt lat="49.645609" lon="15.967880"><ele>670</ele></trkpt>
<trkpt lat="49.645302" lon="15.967593"><ele>669</ele></trkpt>
<trkpt lat="49.645041" lon="15.967409"><ele>667</ele></trkpt>
<trkpt lat="49.645077" lon="15.967326"><ele>667</ele></trkpt>
<trkpt lat="49.645041" lon="15.967409"><ele>667</ele></trkpt>
<trkpt lat="49.644443" lon="15.966914"><ele>662</ele></trkpt>
<trkpt lat="49.644313" lon="15.966793"><ele>660</ele></trkpt>
<trkpt lat="49.644152" lon="15.967435"><ele>660</ele></trkpt>
<trkpt lat="49.643916" lon="15.968121"><ele>658</ele></trkpt>
</trkseg></trk>
</gpx>
