<?xml version="1.0" encoding="UTF-8"?>
<gpx version="1.1" creator="Vysočina 2026 – Mlýn Vikinek" xmlns="http://www.topografix.com/GPX/1/1">
<metadata><name>Cyklostezka Sázava – Přibyslav (pro nejmenší)</name><desc>Asfaltová stezka bez aut podél Sázavy. Kola se vezou autem.</desc></metadata>
<trk><name>Cyklostezka Sázava – Přibyslav (pro nejmenší)</name><trkseg>
<trkpt lat="49.552838" lon="15.848594"><ele>510</ele></trkpt>
<trkpt lat="49.552740" lon="15.848426"><ele>507</ele></trkpt>
<trkpt lat="49.552587" lon="15.848017"><ele>504</ele></trkpt>
<trkpt lat="49.552550" lon="15.847906"><ele>506</ele></trkpt>
<trkpt lat="49.552488" lon="15.847657"><ele>509</ele></trkpt>
<trkpt lat="49.552434" lon="15.847408"><ele>508</ele></trkpt>
<trkpt lat="49.552389" lon="15.847058"><ele>508</ele></trkpt>
<trkpt lat="49.552375" lon="15.846723"><ele>510</ele></trkpt>
<trkpt lat="49.552403" lon="15.846349"><ele>511</ele></trkpt>
<trkpt lat="49.552460" lon="15.846012"><ele>511</ele></trkpt>
<trkpt lat="49.552517" lon="15.845736"><ele>510</ele></trkpt>
<trkpt lat="49.552599" lon="15.845468"><ele>511</ele></trkpt>
<trkpt lat="49.552706" lon="15.845196"><ele>510</ele></trkpt>
<trkpt lat="49.552805" lon="15.844984"><ele>508</ele></trkpt>
<trkpt lat="49.553046" lon="15.844618"><ele>509</ele></trkpt>
<trkpt lat="49.553624" lon="15.843893"><ele>504</ele></trkpt>
<trkpt lat="49.553669" lon="15.843835"><ele>504</ele></trkpt>
<trkpt lat="49.553840" lon="15.843641"><ele>504</ele></trkpt>
<trkpt lat="49.553972" lon="15.843427"><ele>503</ele></trkpt>
<trkpt lat="49.554090" lon="15.843203"><ele>504</ele></trkpt>
<trkpt lat="49.554209" lon="15.842932"><ele>503</ele></trkpt>
<trkpt lat="49.554276" lon="15.842751"><ele>503</ele></trkpt>
<trkpt lat="49.554358" lon="15.842446"><ele>506</ele></trkpt>
<trkpt lat="49.554431" lon="15.841984"><ele>506</ele></trkpt>
<trkpt lat="49.554447" lon="15.841655"><ele>507</ele></trkpt>
<trkpt lat="49.554433" lon="15.841331"><ele>507</ele></trkpt>
<trkpt lat="49.554403" lon="15.840994"><ele>506</ele></trkpt>
<trkpt lat="49.554356" lon="15.840618"><ele>511</ele></trkpt>
<trkpt lat="49.554269" lon="15.840286"><ele>510</ele></trkpt>
<trkpt lat="49.554103" lon="15.839924"><ele>504</ele></trkpt>
<trkpt lat="49.553892" lon="15.839580"><ele>501</ele></trkpt>
<trkpt lat="49.553598" lon="15.839192"><ele>502</ele></trkpt>
<trkpt lat="49.553453" lon="15.838962"><ele>502</ele></trkpt>
<trkpt lat="49.553174" lon="15.838363"><ele>502</ele></trkpt>
<trkpt lat="49.553076" lon="15.838106"><ele>501</ele></trkpt>
<trkpt lat="49.553025" lon="15.837905"><ele>500</ele></trkpt>
<trkpt lat="49.552991" lon="15.837741"><ele>500</ele></trkpt>
<trkpt lat="49.552951" lon="15.837503"><ele>501</ele></trkpt>
<trkpt lat="49.552914" lon="15.837100"><ele>500</ele></trkpt>
<trkpt lat="49.552833" lon="15.835931"><ele>502</ele></trkpt>
<trkpt lat="49.552778" lon="15.835282"><ele>497</ele></trkpt>
<trkpt lat="49.552715" lon="15.834752"><ele>497</ele></trkpt>
<trkpt lat="49.552646" lon="15.834456"><ele>497</ele></trkpt>
<trkpt lat="49.552544" lon="15.834143"><ele>496</ele></trkpt>
<trkpt lat="49.552449" lon="15.833912"><ele>494</ele></trkpt>
<trkpt lat="49.552339" lon="15.833695"><ele>494</ele></trkpt>
<trkpt lat="49.552189" lon="15.833459"><ele>496</ele></trkpt>
<trkpt lat="49.552056" lon="15.833293"><ele>495</ele></trkpt>
<trkpt lat="49.551976" lon="15.833205"><ele>495</ele></trkpt>
<trkpt lat="49.551836" lon="15.833081"><ele>495</ele></trkpt>
<trkpt lat="49.551563" lon="15.832903"><ele>494</ele></trkpt>
<trkpt lat="49.551038" lon="15.832596"><ele>491</ele></trkpt>
<trkpt lat="49.550722" lon="15.832351"><ele>493</ele></trkpt>
<trkpt lat="49.550559" lon="15.832148"><ele>494</ele></trkpt>
<trkpt lat="49.549372" lon="15.830166"><ele>492</ele></trkpt>
<trkpt lat="49.549176" lon="15.829829"><ele>492</ele></trkpt>
<trkpt lat="49.548989" lon="15.829470"><ele>491</ele></trkpt>
<trkpt lat="49.548882" lon="15.829212"><ele>491</ele></trkpt>
<trkpt lat="49.548814" lon="15.828939"><ele>491</ele></trkpt>
<trkpt lat="49.548765" lon="15.828613"><ele>490</ele></trkpt>
<trkpt lat="49.548724" lon="15.828266"><ele>491</ele></trkpt>
<trkpt lat="49.548689" lon="15.827556"><ele>490</ele></trkpt>
<trkpt lat="49.548687" lon="15.827199"><ele>489</ele></trkpt>
<trkpt lat="49.548699" lon="15.826980"><ele>488</ele></trkpt>
<trkpt lat="49.548740" lon="15.826689"><ele>488</ele></trkpt>
<trkpt lat="49.548889" lon="15.826113"><ele>491</ele></trkpt>
<trkpt lat="49.548998" lon="15.825812"><ele>491</ele></trkpt>
<trkpt lat="49.549965" lon="15.823876"><ele>490</ele></trkpt>
<trkpt lat="49.550697" lon="15.822441"><ele>488</ele></trkpt>
<trkpt lat="49.550829" lon="15.822129"><ele>487</ele></trkpt>
<trkpt lat="49.551013" lon="15.821584"><ele>487</ele></trkpt>
<trkpt lat="49.551097" lon="15.821238"><ele>486</ele></trkpt>
<trkpt lat="49.551146" lon="15.820953"><ele>486</ele></trkpt>
<trkpt lat="49.551189" lon="15.820620"><ele>485</ele></trkpt>
<trkpt lat="49.551207" lon="15.820223"><ele>482</ele></trkpt>
<trkpt lat="49.551203" lon="15.819830"><ele>480</ele></trkpt>
<trkpt lat="49.551190" lon="15.819514"><ele>484</ele></trkpt>
<trkpt lat="49.551112" lon="15.818755"><ele>484</ele></trkpt>
<trkpt lat="49.551078" lon="15.818180"><ele>484</ele></trkpt>
<trkpt lat="49.551080" lon="15.817826"><ele>484</ele></trkpt>
<trkpt lat="49.551090" lon="15.817474"><ele>483</ele></trkpt>
<trkpt lat="49.551137" lon="15.817116"><ele>484</ele></trkpt>
<trkpt lat="49.551190" lon="15.816820"><ele>484</ele></trkpt>
<trkpt lat="49.551273" lon="15.816518"><ele>482</ele></trkpt>
<trkpt lat="49.551514" lon="15.815988"><ele>480</ele></trkpt>
<trkpt lat="49.551719" lon="15.815643"><ele>479</ele></trkpt>
<trkpt lat="49.551902" lon="15.815374"><ele>478</ele></trkpt>
<trkpt lat="49.552296" lon="15.814757"><ele>478</ele></trkpt>
<trkpt lat="49.552408" lon="15.814576"><ele>478</ele></trkpt>
<trkpt lat="49.552659" lon="15.814143"><ele>484</ele></trkpt>
<trkpt lat="49.552792" lon="15.813898"><ele>484</ele></trkpt>
<trkpt lat="49.552942" lon="15.813580"><ele>486</ele></trkpt>
<trkpt lat="49.553096" lon="15.813214"><ele>485</ele></trkpt>
<trkpt lat="49.553223" lon="15.812876"><ele>485</ele></trkpt>
<trkpt lat="49.553395" lon="15.812345"><ele>483</ele></trkpt>
<trkpt lat="49.553503" lon="15.811945"><ele>482</ele></trkpt>
<trkpt lat="49.553589" lon="15.811595"><ele>482</ele></trkpt>
<trkpt lat="49.553791" lon="15.810628"><ele>480</ele></trkpt>
<trkpt lat="49.553840" lon="15.810264"><ele>480</ele></trkpt>
<trkpt lat="49.553870" lon="15.809943"><ele>480</ele></trkpt>
<trkpt lat="49.553942" lon="15.808595"><ele>479</ele></trkpt>
<trkpt lat="49.554001" lon="15.808128"><ele>480</ele></trkpt>
<trkpt lat="49.554058" lon="15.807790"><ele>480</ele></trkpt>
<trkpt lat="49.554139" lon="15.807530"><ele>481</ele></trkpt>
<trkpt lat="49.554246" lon="15.807267"><ele>482</ele></trkpt>
<trkpt lat="49.554388" lon="15.806974"><ele>482</ele></trkpt>
<trkpt lat="49.554503" lon="15.806786"><ele>481</ele></trkpt>
<trkpt lat="49.554629" lon="15.806625"><ele>480</ele></trkpt>
<trkpt lat="49.554940" lon="15.806327"><ele>480</ele></trkpt>
<trkpt lat="49.555317" lon="15.806093"><ele>479</ele></trkpt>
<trkpt lat="49.556575" lon="15.805394"><ele>478</ele></trkpt>
<trkpt lat="49.556789" lon="15.805263"><ele>478</ele></trkpt>
<trkpt lat="49.556943" lon="15.805144"><ele>478</ele></trkpt>
<trkpt lat="49.557098" lon="15.804991"><ele>477</ele></trkpt>
<trkpt lat="49.557204" lon="15.804855"><ele>476</ele></trkpt>
<trkpt lat="49.557311" lon="15.804702"><ele>475</ele></trkpt>
<trkpt lat="49.557432" lon="15.804508"><ele>475</ele></trkpt>
<trkpt lat="49.557552" lon="15.804248"><ele>476</ele></trkpt>
<trkpt lat="49.557639" lon="15.804010"><ele>478</ele></trkpt>
<trkpt lat="49.557705" lon="15.803764"><ele>478</ele></trkpt>
<trkpt lat="49.557778" lon="15.803446"><ele>478</ele></trkpt>
<trkpt lat="49.557832" lon="15.803108"><ele>480</ele></trkpt>
<trkpt lat="49.557849" lon="15.802650"><ele>479</ele></trkpt>
<trkpt lat="49.557824" lon="15.802305"><ele>478</ele></trkpt>
<trkpt lat="49.557784" lon="15.802026"><ele>477</ele></trkpt>
<trkpt lat="49.557690" lon="15.801516"><ele>478</ele></trkpt>
<trkpt lat="49.557649" lon="15.801161"><ele>480</ele></trkpt>
<trkpt lat="49.557643" lon="15.800807"><ele>480</ele></trkpt>
<trkpt lat="49.557650" lon="15.800528"><ele>481</ele></trkpt>
<trkpt lat="49.557707" lon="15.800176"><ele>481</ele></trkpt>
<trkpt lat="49.557781" lon="15.799794"><ele>479</ele></trkpt>
<trkpt lat="49.557886" lon="15.799452"><ele>484</ele></trkpt>
<trkpt lat="49.557993" lon="15.799196"><ele>478</ele></trkpt>
<trkpt lat="49.558105" lon="15.799001"><ele>479</ele></trkpt>
<trkpt lat="49.558269" lon="15.798756"><ele>477</ele></trkpt>
<trkpt lat="49.558411" lon="15.798576"><ele>473</ele></trkpt>
<trkpt lat="49.558571" lon="15.798420"><ele>472</ele></trkpt>
<trkpt lat="49.558725" lon="15.798295"><ele>471</ele></trkpt>
<trkpt lat="49.558902" lon="15.798203"><ele>470</ele></trkpt>
<trkpt lat="49.559108" lon="15.798130"><ele>469</ele></trkpt>
<trkpt lat="49.559315" lon="15.798095"><ele>469</ele></trkpt>
<trkpt lat="49.559523" lon="15.798090"><ele>470</ele></trkpt>
<trkpt lat="49.560172" lon="15.798144"><ele>468</ele></trkpt>
<trkpt lat="49.560475" lon="15.798145"><ele>467</ele></trkpt>
<trkpt lat="49.560682" lon="15.798107"><ele>468</ele></trkpt>
<trkpt lat="49.560926" lon="15.798021"><ele>470</ele></trkpt>
<trkpt lat="49.561097" lon="15.797934"><ele>469</ele></trkpt>
<trkpt lat="49.561311" lon="15.797744"><ele>470</ele></trkpt>
<trkpt lat="49.561455" lon="15.797581"><ele>470</ele></trkpt>
<trkpt lat="49.561652" lon="15.797323"><ele>471</ele></trkpt>
<trkpt lat="49.562171" lon="15.796487"><ele>471</ele></trkpt>
<trkpt lat="49.562307" lon="15.796203"><ele>472</ele></trkpt>
<trkpt lat="49.562403" lon="15.795928"><ele>471</ele></trkpt>
<trkpt lat="49.562503" lon="15.795576"><ele>470</ele></trkpt>
<trkpt lat="49.562544" lon="15.795383"><ele>471</ele></trkpt>
<trkpt lat="49.562579" lon="15.795105"><ele>472</ele></trkpt>
<trkpt lat="49.562595" lon="15.794800"><ele>472</ele></trkpt>
<trkpt lat="49.562593" lon="15.794508"><ele>471</ele></trkpt>
<trkpt lat="49.562562" lon="15.794153"><ele>471</ele></trkpt>
<trkpt lat="49.562499" lon="15.793806"><ele>471</ele></trkpt>
<trkpt lat="49.562369" lon="15.793326"><ele>472</ele></trkpt>
<trkpt lat="49.562070" lon="15.792277"><ele>474</ele></trkpt>
<trkpt lat="49.561661" lon="15.790911"><ele>470</ele></trkpt>
<trkpt lat="49.561588" lon="15.790527"><ele>472</ele></trkpt>
<trkpt lat="49.561561" lon="15.790153"><ele>473</ele></trkpt>
<trkpt lat="49.561546" lon="15.789775"><ele>472</ele></trkpt>
<trkpt lat="49.561572" lon="15.789457"><ele>471</ele></trkpt>
<trkpt lat="49.561631" lon="15.789105"><ele>470</ele></trkpt>
<trkpt lat="49.561700" lon="15.788793"><ele>470</ele></trkpt>
<trkpt lat="49.561797" lon="15.788478"><ele>470</ele></trkpt>
<trkpt lat="49.561926" lon="15.788191"><ele>469</ele></trkpt>
<trkpt lat="49.562084" lon="15.787941"><ele>469</ele></trkpt>
<trkpt lat="49.562288" lon="15.787655"><ele>468</ele></trkpt>
<trkpt lat="49.563243" lon="15.786724"><ele>470</ele></trkpt>
<trkpt lat="49.563383" lon="15.786545"><ele>470</ele></trkpt>
<trkpt lat="49.563534" lon="15.786276"><ele>469</ele></trkpt>
<trkpt lat="49.563674" lon="15.785998"><ele>468</ele></trkpt>
<trkpt lat="49.563806" lon="15.785659"><ele>466</ele></trkpt>
<trkpt lat="49.563870" lon="15.785381"><ele>466</ele></trkpt>
<trkpt lat="49.563920" lon="15.785082"><ele>466</ele></trkpt>
<trkpt lat="49.563930" lon="15.784792"><ele>465</ele></trkpt>
<trkpt lat="49.563946" lon="15.784545"><ele>464</ele></trkpt>
<trkpt lat="49.563932" lon="15.784161"><ele>464</ele></trkpt>
<trkpt lat="49.563913" lon="15.783912"><ele>466</ele></trkpt>
<trkpt lat="49.563877" lon="15.783626"><ele>465</ele></trkpt>
<trkpt lat="49.563842" lon="15.783421"><ele>465</ele></trkpt>
<trkpt lat="49.563777" lon="15.783231"><ele>466</ele></trkpt>
<trkpt lat="49.563646" lon="15.782918"><ele>467</ele></trkpt>
<trkpt lat="49.563273" lon="15.782069"><ele>468</ele></trkpt>
<trkpt lat="49.563170" lon="15.781710"><ele>468</ele></trkpt>
<trkpt lat="49.563107" lon="15.781383"><ele>462</ele></trkpt>
<trkpt lat="49.563061" lon="15.780994"><ele>464</ele></trkpt>
<trkpt lat="49.563062" lon="15.780674"><ele>471</ele></trkpt>
<trkpt lat="49.563075" lon="15.780446"><ele>474</ele></trkpt>
<trkpt lat="49.563118" lon="15.780146"><ele>474</ele></trkpt>
<trkpt lat="49.563155" lon="15.779936"><ele>474</ele></trkpt>
<trkpt lat="49.563242" lon="15.779632"><ele>470</ele></trkpt>
<trkpt lat="49.563359" lon="15.779333"><ele>466</ele></trkpt>
<trkpt lat="49.563491" lon="15.779063"><ele>466</ele></trkpt>
<trkpt lat="49.563613" lon="15.778870"><ele>466</ele></trkpt>
<trkpt lat="49.563756" lon="15.778662"><ele>465</ele></trkpt>
<trkpt lat="49.563963" lon="15.778441"><ele>464</ele></trkpt>
<trkpt lat="49.564402" lon="15.777946"><ele>464</ele></trkpt>
<trkpt lat="49.564566" lon="15.777701"><ele>465</ele></trkpt>
<trkpt lat="49.564689" lon="15.777543"><ele>464</ele></trkpt>
<trkpt lat="49.564814" lon="15.777303"><ele>463</ele></trkpt>
<trkpt lat="49.565336" lon="15.776206"><ele>463</ele></trkpt>
<trkpt lat="49.565848" lon="15.774866"><ele>463</ele></trkpt>
<trkpt lat="49.565955" lon="15.774516"><ele>463</ele></trkpt>
<trkpt lat="49.566009" lon="15.774191"><ele>464</ele></trkpt>
<trkpt lat="49.566044" lon="15.773779"><ele>464</ele></trkpt>
<trkpt lat="49.566057" lon="15.773403"><ele>464</ele></trkpt>
<trkpt lat="49.566064" lon="15.772609"><ele>462</ele></trkpt>
<trkpt lat="49.566124" lon="15.772277"><ele>463</ele></trkpt>
<trkpt lat="49.566186" lon="15.772030"><ele>466</ele></trkpt>
<trkpt lat="49.566277" lon="15.771764"><ele>466</ele></trkpt>
<trkpt lat="49.566406" lon="15.771485"><ele>465</ele></trkpt>
<trkpt lat="49.566568" lon="15.771208"><ele>464</ele></trkpt>
<trkpt lat="49.566739" lon="15.770959"><ele>464</ele></trkpt>
<trkpt lat="49.566900" lon="15.770762"><ele>462</ele></trkpt>
<trkpt lat="49.567112" lon="15.770541"><ele>462</ele></trkpt>
<trkpt lat="49.567212" lon="15.770455"><ele>461</ele></trkpt>
<trkpt lat="49.567526" lon="15.770231"><ele>461</ele></trkpt>
<trkpt lat="49.568044" lon="15.769857"><ele>463</ele></trkpt>
<trkpt lat="49.568068" lon="15.769840"><ele>463</ele></trkpt>
<trkpt lat="49.568174" lon="15.769756"><ele>462</ele></trkpt>
<trkpt lat="49.568732" lon="15.769340"><ele>458</ele></trkpt>
<trkpt lat="49.568953" lon="15.769126"><ele>456</ele></trkpt>
<trkpt lat="49.569112" lon="15.768920"><ele>458</ele></trkpt>
<trkpt lat="49.569256" lon="15.768695"><ele>457</ele></trkpt>
<trkpt lat="49.569392" lon="15.768398"><ele>460</ele></trkpt>
<trkpt lat="49.569525" lon="15.768052"><ele>460</ele></trkpt>
<trkpt lat="49.569606" lon="15.767688"><ele>460</ele></trkpt>
<trkpt lat="49.569670" lon="15.767285"><ele>460</ele></trkpt>
<trkpt lat="49.569688" lon="15.767033"><ele>460</ele></trkpt>
<trkpt lat="49.569745" lon="15.765469"><ele>458</ele></trkpt>
<trkpt lat="49.569770" lon="15.765068"><ele>459</ele></trkpt>
<trkpt lat="49.569986" lon="15.762587"><ele>460</ele></trkpt>
<trkpt lat="49.570075" lon="15.761820"><ele>462</ele></trkpt>
<trkpt lat="49.570112" lon="15.761182"><ele>460</ele></trkpt>
<trkpt lat="49.570108" lon="15.760714"><ele>459</ele></trkpt>
<trkpt lat="49.570074" lon="15.760279"><ele>459</ele></trkpt>
<trkpt lat="49.570040" lon="15.759934"><ele>459</ele></trkpt>
<trkpt lat="49.569924" lon="15.759322"><ele>460</ele></trkpt>
<trkpt lat="49.569676" lon="15.758622"><ele>460</ele></trkpt>
<trkpt lat="49.568872" lon="15.757005"><ele>458</ele></trkpt>
<trkpt lat="49.568679" lon="15.756484"><ele>457</ele></trkpt>
<trkpt lat="49.568620" lon="15.756231"><ele>457</ele></trkpt>
<trkpt lat="49.568594" lon="15.756096"><ele>456</ele></trkpt>
<trkpt lat="49.568567" lon="15.755882"><ele>457</ele></trkpt>
<trkpt lat="49.568548" lon="15.755602"><ele>456</ele></trkpt>
<trkpt lat="49.568542" lon="15.755343"><ele>456</ele></trkpt>
<trkpt lat="49.568567" lon="15.755010"><ele>456</ele></trkpt>
<trkpt lat="49.568600" lon="15.754749"><ele>456</ele></trkpt>
<trkpt lat="49.568741" lon="15.754149"><ele>453</ele></trkpt>
<trkpt lat="49.568819" lon="15.753851"><ele>453</ele></trkpt>
<trkpt lat="49.568978" lon="15.753249"><ele>454</ele></trkpt>
<trkpt lat="49.569129" lon="15.752517"><ele>456</ele></trkpt>
<trkpt lat="49.569271" lon="15.751785"><ele>456</ele></trkpt>
<trkpt lat="49.569332" lon="15.751399"><ele>456</ele></trkpt>
<trkpt lat="49.569407" lon="15.750658"><ele>455</ele></trkpt>
<trkpt lat="49.569451" lon="15.750147"><ele>455</ele></trkpt>
<trkpt lat="49.569482" lon="15.749533"><ele>454</ele></trkpt>
<trkpt lat="49.569497" lon="15.749134"><ele>454</ele></trkpt>
<trkpt lat="49.569451" lon="15.749021"><ele>454</ele></trkpt>
<trkpt lat="49.569423" lon="15.748967"><ele>454</ele></trkpt>
<trkpt lat="49.569412" lon="15.748781"><ele>454</ele></trkpt>
<trkpt lat="49.569442" lon="15.748209"><ele>454</ele></trkpt>
<trkpt lat="49.569449" lon="15.747889"><ele>454</ele></trkpt>
</trkseg></trk>
</gpx>
