<?xml version="1.0" encoding="UTF-8"?>
<gpx version="1.1" creator="Vysočina 2026 – Mlýn Vikinek" xmlns="http://www.topografix.com/GPX/1/1">
<metadata><name>Naučná stezka Dářská rašeliniště</name><desc>Po povalových chodnících přes rašeliniště, z hráze Velkého Dářka do Radostína.</desc></metadata>
<wpt lat="49.631770" lon="15.909620"><name>Velké Dářko</name><desc>Moře Vysočiny: největší rybník Českomoravské vrchoviny (206 ha).</desc></wpt>
<wpt lat="49.637880" lon="15.882830"><name>NS Dářská rašeliniště</name><desc>3 km dlouhá stezka po povalových chodnících přes rašeliniště, se dvěma vyhlídkami.</desc></wpt>
<trk><name>Naučná stezka Dářská rašeliniště</name><trkseg>
<trkpt lat="49.631802" lon="15.908552"><ele>617</ele></trkpt>
<trkpt lat="49.631842" lon="15.908227"><ele>617</ele></trkpt>
<trkpt lat="49.631948" lon="15.907668"><ele>616</ele></trkpt>
<trkpt lat="49.631969" lon="15.907463"><ele>616</ele></trkpt>
<trkpt lat="49.632013" lon="15.907047"><ele>616</ele></trkpt>
<trkpt lat="49.632076" lon="15.906226"><ele>615</ele></trkpt>
<trkpt lat="49.632090" lon="15.905383"><ele>614</ele></trkpt>
<trkpt lat="49.632031" lon="15.904304"><ele>616</ele></trkpt>
<trkpt lat="49.631990" lon="15.903540"><ele>617</ele></trkpt>
<trkpt lat="49.631897" lon="15.901852"><ele>616</ele></trkpt>
<trkpt lat="49.631846" lon="15.901677"><ele>616</ele></trkpt>
<trkpt lat="49.631812" lon="15.901623"><ele>616</ele></trkpt>
<trkpt lat="49.631769" lon="15.901556"><ele>616</ele></trkpt>
<trkpt lat="49.631647" lon="15.900791"><ele>618</ele></trkpt>
<trkpt lat="49.631450" lon="15.898904"><ele>618</ele></trkpt>
<trkpt lat="49.631302" lon="15.898240"><ele>617</ele></trkpt>
<trkpt lat="49.631174" lon="15.897737"><ele>617</ele></trkpt>
<trkpt lat="49.631029" lon="15.896379"><ele>619</ele></trkpt>
<trkpt lat="49.630972" lon="15.895211"><ele>620</ele></trkpt>
<trkpt lat="49.630911" lon="15.894147"><ele>622</ele></trkpt>
<trkpt lat="49.631005" lon="15.893538"><ele>621</ele></trkpt>
<trkpt lat="49.631136" lon="15.892929"><ele>622</ele></trkpt>
<trkpt lat="49.631141" lon="15.890229"><ele>621</ele></trkpt>
<trkpt lat="49.631361" lon="15.889942"><ele>620</ele></trkpt>
<trkpt lat="49.631714" lon="15.889037"><ele>618</ele></trkpt>
<trkpt lat="49.631798" lon="15.888819"><ele>617</ele></trkpt>
<trkpt lat="49.631743" lon="15.888772"><ele>618</ele></trkpt>
<trkpt lat="49.631798" lon="15.888819"><ele>617</ele></trkpt>
<trkpt lat="49.631978" lon="15.888059"><ele>617</ele></trkpt>
<trkpt lat="49.632450" lon="15.886961"><ele>617</ele></trkpt>
<trkpt lat="49.632694" lon="15.885990"><ele>618</ele></trkpt>
<trkpt lat="49.632897" lon="15.885810"><ele>618</ele></trkpt>
<trkpt lat="49.633670" lon="15.885542"><ele>617</ele></trkpt>
<trkpt lat="49.634601" lon="15.885481"><ele>618</ele></trkpt>
<trkpt lat="49.635227" lon="15.885135"><ele>618</ele></trkpt>
<trkpt lat="49.637537" lon="15.883080"><ele>616</ele></trkpt>
<trkpt lat="49.637876" lon="15.882830"><ele>617</ele></trkpt>
<trkpt lat="49.637879" lon="15.882827"><ele>618</ele></trkpt>
<trkpt lat="49.638923" lon="15.882060"><ele>618</ele></trkpt>
<trkpt lat="49.640192" lon="15.881125"><ele>618</ele></trkpt>
<trkpt lat="49.640122" lon="15.880827"><ele>619</ele></trkpt>
<trkpt lat="49.640275" lon="15.880717"><ele>619</ele></trkpt>
<trkpt lat="49.640354" lon="15.881008"><ele>618</ele></trkpt>
<trkpt lat="49.640936" lon="15.880578"><ele>619</ele></trkpt>
<trkpt lat="49.641781" lon="15.879956"><ele>619</ele></trkpt>
<trkpt lat="49.642292" lon="15.879704"><ele>619</ele></trkpt>
<trkpt lat="49.642557" lon="15.880014"><ele>620</ele></trkpt>
<trkpt lat="49.643817" lon="15.881856"><ele>618</ele></trkpt>
<trkpt lat="49.643982" lon="15.882106"><ele>618</ele></trkpt>
<trkpt lat="49.644912" lon="15.883439"><ele>620</ele></trkpt>
<trkpt lat="49.646471" lon="15.883340"><ele>618</ele></trkpt>
<trkpt lat="49.646669" lon="15.883239"><ele>618</ele></trkpt>
<trkpt lat="49.646953" lon="15.883042"><ele>618</ele></trkpt>
<trkpt lat="49.647152" lon="15.882994"><ele>619</ele></trkpt>
<trkpt lat="49.647398" lon="15.883017"><ele>618</ele></trkpt>
<trkpt lat="49.647753" lon="15.883195"><ele>619</ele></trkpt>
<trkpt lat="49.648056" lon="15.883441"><ele>620</ele></trkpt>
<trkpt lat="49.648382" lon="15.883765"><ele>619</ele></trkpt>
<trkpt lat="49.648968" lon="15.884491"><ele>619</ele></trkpt>
<trkpt lat="49.649416" lon="15.885028"><ele>618</ele></trkpt>
<trkpt lat="49.649612" lon="15.885184"><ele>618</ele></trkpt>
<trkpt lat="49.649800" lon="15.885262"><ele>618</ele></trkpt>
<trkpt lat="49.649995" lon="15.885229"><ele>618</ele></trkpt>
<trkpt lat="49.650226" lon="15.885061"><ele>619</ele></trkpt>
<trkpt lat="49.650983" lon="15.884146"><ele>620</ele></trkpt>
<trkpt lat="49.650930" lon="15.885212"><ele>618</ele></trkpt>
<trkpt lat="49.650536" lon="15.887236"><ele>616</ele></trkpt>
<trkpt lat="49.650536" lon="15.887394"><ele>616</ele></trkpt>
<trkpt lat="49.650521" lon="15.887628"><ele>616</ele></trkpt>
<trkpt lat="49.650676" lon="15.887622"><ele>616</ele></trkpt>
<trkpt lat="49.650802" lon="15.887582"><ele>616</ele></trkpt>
<trkpt lat="49.650954" lon="15.887521"><ele>616</ele></trkpt>
<trkpt lat="49.651087" lon="15.887589"><ele>616</ele></trkpt>
<trkpt lat="49.651425" lon="15.887571"><ele>616</ele></trkpt>
<trkpt lat="49.651690" lon="15.887308"><ele>616</ele></trkpt>
<trkpt lat="49.651884" lon="15.887199"><ele>617</ele></trkpt>
<trkpt lat="49.652073" lon="15.887136"><ele>618</ele></trkpt>
<trkpt lat="49.652468" lon="15.887131"><ele>618</ele></trkpt>
<trkpt lat="49.652677" lon="15.887192"><ele>619</ele></trkpt>
<trkpt lat="49.653043" lon="15.887538"><ele>619</ele></trkpt>
<trkpt lat="49.653584" lon="15.888118"><ele>619</ele></trkpt>
<trkpt lat="49.653844" lon="15.888441"><ele>619</ele></trkpt>
<trkpt lat="49.654093" lon="15.888498"><ele>619</ele></trkpt>
<trkpt lat="49.654275" lon="15.888627"><ele>619</ele></trkpt>
<trkpt lat="49.654434" lon="15.888654"><ele>619</ele></trkpt>
<trkpt lat="49.654584" lon="15.888603"><ele>619</ele></trkpt>
<trkpt lat="49.654866" lon="15.888656"><ele>619</ele></trkpt>
<trkpt lat="49.654924" lon="15.888542"><ele>619</ele></trkpt>
<trkpt lat="49.655018" lon="15.888505"><ele>618</ele></trkpt>
<trkpt lat="49.655214" lon="15.888678"><ele>619</ele></trkpt>
<trkpt lat="49.655423" lon="15.888632"><ele>619</ele></trkpt>
<trkpt lat="49.655629" lon="15.888715"><ele>619</ele></trkpt>
<trkpt lat="49.655803" lon="15.888559"><ele>619</ele></trkpt>
<trkpt lat="49.656038" lon="15.888518"><ele>619</ele></trkpt>
<trkpt lat="49.656181" lon="15.888533"><ele>619</ele></trkpt>
<trkpt lat="49.656265" lon="15.888444"><ele>620</ele></trkpt>
<trkpt lat="49.656263" lon="15.888436"><ele>619</ele></trkpt>
<trkpt lat="49.656265" lon="15.888444"><ele>620</ele></trkpt>
<trkpt lat="49.656181" lon="15.888533"><ele>619</ele></trkpt>
<trkpt lat="49.656038" lon="15.888518"><ele>619</ele></trkpt>
<trkpt lat="49.655803" lon="15.888559"><ele>619</ele></trkpt>
<trkpt lat="49.655629" lon="15.888715"><ele>619</ele></trkpt>
<trkpt lat="49.655423" lon="15.888632"><ele>619</ele></trkpt>
<trkpt lat="49.655214" lon="15.888678"><ele>619</ele></trkpt>
<trkpt lat="49.655018" lon="15.888505"><ele>618</ele></trkpt>
<trkpt lat="49.654924" lon="15.888542"><ele>619</ele></trkpt>
<trkpt lat="49.654866" lon="15.888656"><ele>619</ele></trkpt>
<trkpt lat="49.654584" lon="15.888603"><ele>619</ele></trkpt>
<trkpt lat="49.654434" lon="15.888654"><ele>619</ele></trkpt>
<trkpt lat="49.654275" lon="15.888627"><ele>619</ele></trkpt>
<trkpt lat="49.654093" lon="15.888498"><ele>619</ele></trkpt>
<trkpt lat="49.653844" lon="15.888441"><ele>619</ele></trkpt>
<trkpt lat="49.653584" lon="15.888118"><ele>619</ele></trkpt>
<trkpt lat="49.653043" lon="15.887538"><ele>619</ele></trkpt>
<trkpt lat="49.652677" lon="15.887192"><ele>619</ele></trkpt>
<trkpt lat="49.652468" lon="15.887131"><ele>618</ele></trkpt>
<trkpt lat="49.652073" lon="15.887136"><ele>618</ele></trkpt>
<trkpt lat="49.651884" lon="15.887199"><ele>617</ele></trkpt>
<trkpt lat="49.651690" lon="15.887308"><ele>616</ele></trkpt>
<trkpt lat="49.651425" lon="15.887571"><ele>616</ele></trkpt>
<trkpt lat="49.651087" lon="15.887589"><ele>616</ele></trkpt>
<trkpt lat="49.650954" lon="15.887521"><ele>616</ele></trkpt>
<trkpt lat="49.650802" lon="15.887582"><ele>616</ele></trkpt>
<trkpt lat="49.650676" lon="15.887622"><ele>616</ele></trkpt>
<trkpt lat="49.650521" lon="15.887628"><ele>616</ele></trkpt>
<trkpt lat="49.650536" lon="15.887394"><ele>616</ele></trkpt>
<trkpt lat="49.650536" lon="15.887236"><ele>616</ele></trkpt>
<trkpt lat="49.650930" lon="15.885212"><ele>618</ele></trkpt>
<trkpt lat="49.650983" lon="15.884146"><ele>620</ele></trkpt>
<trkpt lat="49.651362" lon="15.883642"><ele>620</ele></trkpt>
<trkpt lat="49.651536" lon="15.883330"><ele>620</ele></trkpt>
<trkpt lat="49.651651" lon="15.882927"><ele>620</ele></trkpt>
<trkpt lat="49.651732" lon="15.882458"><ele>621</ele></trkpt>
<trkpt lat="49.651787" lon="15.882191"><ele>621</ele></trkpt>
<trkpt lat="49.652080" lon="15.880306"><ele>621</ele></trkpt>
<trkpt lat="49.652133" lon="15.879714"><ele>622</ele></trkpt>
<trkpt lat="49.652086" lon="15.879487"><ele>622</ele></trkpt>
<trkpt lat="49.651993" lon="15.879349"><ele>623</ele></trkpt>
<trkpt lat="49.651989" lon="15.879162"><ele>624</ele></trkpt>
<trkpt lat="49.652020" lon="15.878931"><ele>623</ele></trkpt>
<trkpt lat="49.652189" lon="15.878203"><ele>622</ele></trkpt>
<trkpt lat="49.652264" lon="15.877875"><ele>622</ele></trkpt>
<trkpt lat="49.652377" lon="15.877075"><ele>623</ele></trkpt>
<trkpt lat="49.652501" lon="15.876460"><ele>624</ele></trkpt>
<trkpt lat="49.652771" lon="15.875405"><ele>625</ele></trkpt>
<trkpt lat="49.652821" lon="15.875451"><ele>625</ele></trkpt>
</trkseg></trk>
</gpx>
