<?xml version="1.0" encoding="UTF-8"?>
<gpx version="1.1" creator="Vysočina 2026 – Mlýn Vikinek" xmlns="http://www.topografix.com/GPX/1/1">
<metadata><name>Údolím Doubravy k Čertovu stolku</name><desc>Divoký kaňon, obří hrnce, jeskyně a vyhlídka Čertův stolek. Start v Bílku.</desc></metadata>
<wpt lat="49.714030" lon="15.712380"><name>Údolí Doubravy – Čertův stolek</name><desc>Divoký kaňon s peřejemi a obřími hrnci, skalní vyhlídka Čertův stolek a jeskyně pod ní.</desc></wpt>
<trk><name>Údolím Doubravy k Čertovu stolku</name><trkseg>
<trkpt lat="49.703246" lon="15.729687"><ele>530</ele></trkpt>
<trkpt lat="49.703316" lon="15.729806"><ele>530</ele></trkpt>
<trkpt lat="49.703470" lon="15.730049"><ele>530</ele></trkpt>
<trkpt lat="49.703664" lon="15.730333"><ele>528</ele></trkpt>
<trkpt lat="49.703627" lon="15.730415"><ele>528</ele></trkpt>
<trkpt lat="49.703628" lon="15.730485"><ele>528</ele></trkpt>
<trkpt lat="49.703659" lon="15.730669"><ele>528</ele></trkpt>
<trkpt lat="49.703852" lon="15.730976"><ele>526</ele></trkpt>
<trkpt lat="49.703932" lon="15.731102"><ele>526</ele></trkpt>
<trkpt lat="49.704014" lon="15.731180"><ele>526</ele></trkpt>
<trkpt lat="49.704077" lon="15.731268"><ele>526</ele></trkpt>
<trkpt lat="49.704133" lon="15.731404"><ele>527</ele></trkpt>
<trkpt lat="49.704158" lon="15.731525"><ele>527</ele></trkpt>
<trkpt lat="49.703943" lon="15.731643"><ele>526</ele></trkpt>
<trkpt lat="49.703904" lon="15.731763"><ele>526</ele></trkpt>
<trkpt lat="49.703933" lon="15.732050"><ele>528</ele></trkpt>
<trkpt lat="49.703883" lon="15.732091"><ele>527</ele></trkpt>
<trkpt lat="49.703853" lon="15.732163"><ele>528</ele></trkpt>
<trkpt lat="49.703838" lon="15.732255"><ele>528</ele></trkpt>
<trkpt lat="49.703834" lon="15.732369"><ele>528</ele></trkpt>
<trkpt lat="49.703849" lon="15.732525"><ele>530</ele></trkpt>
<trkpt lat="49.703893" lon="15.732709"><ele>532</ele></trkpt>
<trkpt lat="49.703939" lon="15.732789"><ele>532</ele></trkpt>
<trkpt lat="49.703967" lon="15.732863"><ele>533</ele></trkpt>
<trkpt lat="49.704048" lon="15.733167"><ele>532</ele></trkpt>
<trkpt lat="49.704069" lon="15.733196"><ele>531</ele></trkpt>
<trkpt lat="49.704107" lon="15.733207"><ele>531</ele></trkpt>
<trkpt lat="49.704182" lon="15.733205"><ele>530</ele></trkpt>
<trkpt lat="49.704265" lon="15.733232"><ele>530</ele></trkpt>
<trkpt lat="49.704490" lon="15.733070"><ele>530</ele></trkpt>
<trkpt lat="49.704700" lon="15.732800"><ele>532</ele></trkpt>
<trkpt lat="49.705301" lon="15.732505"><ele>533</ele></trkpt>
<trkpt lat="49.705337" lon="15.732477"><ele>533</ele></trkpt>
<trkpt lat="49.705409" lon="15.732386"><ele>534</ele></trkpt>
<trkpt lat="49.705525" lon="15.732501"><ele>535</ele></trkpt>
<trkpt lat="49.705578" lon="15.732552"><ele>534</ele></trkpt>
<trkpt lat="49.705696" lon="15.732634"><ele>534</ele></trkpt>
<trkpt lat="49.705740" lon="15.732664"><ele>534</ele></trkpt>
<trkpt lat="49.705845" lon="15.732756"><ele>535</ele></trkpt>
<trkpt lat="49.705907" lon="15.732540"><ele>535</ele></trkpt>
<trkpt lat="49.705911" lon="15.732406"><ele>536</ele></trkpt>
<trkpt lat="49.705853" lon="15.732107"><ele>536</ele></trkpt>
<trkpt lat="49.705832" lon="15.731887"><ele>536</ele></trkpt>
<trkpt lat="49.705865" lon="15.731676"><ele>537</ele></trkpt>
<trkpt lat="49.705964" lon="15.731397"><ele>537</ele></trkpt>
<trkpt lat="49.706020" lon="15.731096"><ele>536</ele></trkpt>
<trkpt lat="49.706010" lon="15.730575"><ele>536</ele></trkpt>
<trkpt lat="49.705995" lon="15.730141"><ele>536</ele></trkpt>
<trkpt lat="49.706065" lon="15.729715"><ele>536</ele></trkpt>
<trkpt lat="49.706181" lon="15.729181"><ele>536</ele></trkpt>
<trkpt lat="49.706254" lon="15.728997"><ele>537</ele></trkpt>
<trkpt lat="49.706358" lon="15.728837"><ele>537</ele></trkpt>
<trkpt lat="49.706846" lon="15.728426"><ele>537</ele></trkpt>
<trkpt lat="49.707000" lon="15.728240"><ele>537</ele></trkpt>
<trkpt lat="49.707257" lon="15.727677"><ele>536</ele></trkpt>
<trkpt lat="49.707573" lon="15.727165"><ele>536</ele></trkpt>
<trkpt lat="49.708216" lon="15.726511"><ele>534</ele></trkpt>
<trkpt lat="49.708634" lon="15.724773"><ele>530</ele></trkpt>
<trkpt lat="49.708848" lon="15.723779"><ele>532</ele></trkpt>
<trkpt lat="49.708847" lon="15.723346"><ele>533</ele></trkpt>
<trkpt lat="49.708867" lon="15.722808"><ele>536</ele></trkpt>
<trkpt lat="49.708948" lon="15.722520"><ele>536</ele></trkpt>
<trkpt lat="49.709066" lon="15.722238"><ele>536</ele></trkpt>
<trkpt lat="49.709109" lon="15.721840"><ele>536</ele></trkpt>
<trkpt lat="49.709396" lon="15.720995"><ele>536</ele></trkpt>
<trkpt lat="49.709521" lon="15.720764"><ele>536</ele></trkpt>
<trkpt lat="49.710470" lon="15.719501"><ele>532</ele></trkpt>
<trkpt lat="49.710748" lon="15.718729"><ele>534</ele></trkpt>
<trkpt lat="49.710874" lon="15.717803"><ele>530</ele></trkpt>
<trkpt lat="49.710973" lon="15.717596"><ele>530</ele></trkpt>
<trkpt lat="49.711178" lon="15.717260"><ele>530</ele></trkpt>
<trkpt lat="49.711366" lon="15.717052"><ele>530</ele></trkpt>
<trkpt lat="49.711818" lon="15.716937"><ele>530</ele></trkpt>
<trkpt lat="49.712318" lon="15.716911"><ele>530</ele></trkpt>
<trkpt lat="49.713579" lon="15.716401"><ele>522</ele></trkpt>
<trkpt lat="49.713811" lon="15.716192"><ele>520</ele></trkpt>
<trkpt lat="49.714210" lon="15.715690"><ele>518</ele></trkpt>
<trkpt lat="49.714721" lon="15.715001"><ele>519</ele></trkpt>
<trkpt lat="49.714866" lon="15.714905"><ele>518</ele></trkpt>
<trkpt lat="49.715019" lon="15.714631"><ele>518</ele></trkpt>
<trkpt lat="49.715049" lon="15.714372"><ele>517</ele></trkpt>
<trkpt lat="49.715021" lon="15.714192"><ele>516</ele></trkpt>
<trkpt lat="49.714970" lon="15.713991"><ele>516</ele></trkpt>
<trkpt lat="49.714947" lon="15.713925"><ele>516</ele></trkpt>
<trkpt lat="49.714896" lon="15.713827"><ele>514</ele></trkpt>
<trkpt lat="49.714793" lon="15.713679"><ele>512</ele></trkpt>
<trkpt lat="49.714896" lon="15.713827"><ele>514</ele></trkpt>
<trkpt lat="49.714947" lon="15.713925"><ele>516</ele></trkpt>
<trkpt lat="49.714970" lon="15.713991"><ele>516</ele></trkpt>
<trkpt lat="49.714948" lon="15.714105"><ele>512</ele></trkpt>
<trkpt lat="49.714911" lon="15.714169"><ele>509</ele></trkpt>
<trkpt lat="49.714804" lon="15.714260"><ele>506</ele></trkpt>
<trkpt lat="49.714730" lon="15.714282"><ele>503</ele></trkpt>
<trkpt lat="49.714710" lon="15.714229"><ele>500</ele></trkpt>
<trkpt lat="49.714715" lon="15.714123"><ele>498</ele></trkpt>
<trkpt lat="49.714686" lon="15.714105"><ele>497</ele></trkpt>
<trkpt lat="49.714654" lon="15.714046"><ele>497</ele></trkpt>
<trkpt lat="49.714627" lon="15.713971"><ele>497</ele></trkpt>
<trkpt lat="49.714602" lon="15.713949"><ele>496</ele></trkpt>
<trkpt lat="49.714537" lon="15.713878"><ele>494</ele></trkpt>
<trkpt lat="49.714484" lon="15.713843"><ele>491</ele></trkpt>
<trkpt lat="49.714391" lon="15.713723"><ele>489</ele></trkpt>
<trkpt lat="49.714284" lon="15.713664"><ele>493</ele></trkpt>
<trkpt lat="49.714196" lon="15.713508"><ele>494</ele></trkpt>
<trkpt lat="49.714087" lon="15.713374"><ele>493</ele></trkpt>
<trkpt lat="49.713998" lon="15.713295"><ele>494</ele></trkpt>
<trkpt lat="49.713988" lon="15.713136"><ele>492</ele></trkpt>
<trkpt lat="49.713994" lon="15.712941"><ele>492</ele></trkpt>
<trkpt lat="49.714074" lon="15.712804"><ele>489</ele></trkpt>
<trkpt lat="49.714241" lon="15.712733"><ele>487</ele></trkpt>
<trkpt lat="49.714546" lon="15.712740"><ele>484</ele></trkpt>
<trkpt lat="49.714435" lon="15.712665"><ele>488</ele></trkpt>
<trkpt lat="49.714366" lon="15.712492"><ele>498</ele></trkpt>
<trkpt lat="49.714360" lon="15.712398"><ele>504</ele></trkpt>
<trkpt lat="49.714290" lon="15.712330"><ele>510</ele></trkpt>
<trkpt lat="49.714163" lon="15.712310"><ele>515</ele></trkpt>
<trkpt lat="49.714096" lon="15.712280"><ele>518</ele></trkpt>
<trkpt lat="49.714034" lon="15.712382"><ele>514</ele></trkpt>
<trkpt lat="49.714096" lon="15.712280"><ele>518</ele></trkpt>
<trkpt lat="49.714163" lon="15.712310"><ele>515</ele></trkpt>
<trkpt lat="49.714290" lon="15.712330"><ele>510</ele></trkpt>
<trkpt lat="49.714360" lon="15.712398"><ele>504</ele></trkpt>
<trkpt lat="49.714366" lon="15.712492"><ele>498</ele></trkpt>
<trkpt lat="49.714435" lon="15.712665"><ele>488</ele></trkpt>
<trkpt lat="49.714546" lon="15.712740"><ele>484</ele></trkpt>
<trkpt lat="49.714241" lon="15.712733"><ele>487</ele></trkpt>
<trkpt lat="49.714074" lon="15.712804"><ele>489</ele></trkpt>
<trkpt lat="49.713994" lon="15.712941"><ele>492</ele></trkpt>
<trkpt lat="49.713988" lon="15.713136"><ele>492</ele></trkpt>
<trkpt lat="49.713998" lon="15.713295"><ele>494</ele></trkpt>
<trkpt lat="49.714087" lon="15.713374"><ele>493</ele></trkpt>
<trkpt lat="49.714196" lon="15.713508"><ele>494</ele></trkpt>
<trkpt lat="49.714284" lon="15.713664"><ele>493</ele></trkpt>
<trkpt lat="49.714391" lon="15.713723"><ele>489</ele></trkpt>
<trkpt lat="49.714484" lon="15.713843"><ele>491</ele></trkpt>
<trkpt lat="49.714537" lon="15.713878"><ele>494</ele></trkpt>
<trkpt lat="49.714602" lon="15.713949"><ele>496</ele></trkpt>
<trkpt lat="49.714627" lon="15.713971"><ele>497</ele></trkpt>
<trkpt lat="49.714654" lon="15.714046"><ele>497</ele></trkpt>
<trkpt lat="49.714686" lon="15.714105"><ele>497</ele></trkpt>
<trkpt lat="49.714715" lon="15.714123"><ele>498</ele></trkpt>
<trkpt lat="49.714710" lon="15.714229"><ele>500</ele></trkpt>
<trkpt lat="49.714730" lon="15.714282"><ele>503</ele></trkpt>
<trkpt lat="49.714804" lon="15.714260"><ele>506</ele></trkpt>
<trkpt lat="49.714911" lon="15.714169"><ele>509</ele></trkpt>
<trkpt lat="49.714948" lon="15.714105"><ele>512</ele></trkpt>
<trkpt lat="49.714970" lon="15.713991"><ele>516</ele></trkpt>
<trkpt lat="49.715021" lon="15.714192"><ele>516</ele></trkpt>
<trkpt lat="49.715049" lon="15.714372"><ele>517</ele></trkpt>
<trkpt lat="49.715019" lon="15.714631"><ele>518</ele></trkpt>
<trkpt lat="49.715168" lon="15.714805"><ele>518</ele></trkpt>
<trkpt lat="49.715616" lon="15.714565"><ele>518</ele></trkpt>
<trkpt lat="49.715885" lon="15.714664"><ele>517</ele></trkpt>
<trkpt lat="49.716158" lon="15.714840"><ele>516</ele></trkpt>
<trkpt lat="49.716307" lon="15.715063"><ele>516</ele></trkpt>
<trkpt lat="49.716482" lon="15.715200"><ele>514</ele></trkpt>
<trkpt lat="49.716656" lon="15.715194"><ele>514</ele></trkpt>
<trkpt lat="49.717536" lon="15.714821"><ele>510</ele></trkpt>
<trkpt lat="49.718579" lon="15.714097"><ele>504</ele></trkpt>
<trkpt lat="49.718751" lon="15.713728"><ele>503</ele></trkpt>
<trkpt lat="49.719219" lon="15.712282"><ele>498</ele></trkpt>
<trkpt lat="49.719371" lon="15.711986"><ele>498</ele></trkpt>
<trkpt lat="49.719945" lon="15.711489"><ele>498</ele></trkpt>
<trkpt lat="49.720338" lon="15.711190"><ele>496</ele></trkpt>
<trkpt lat="49.720565" lon="15.711077"><ele>496</ele></trkpt>
<trkpt lat="49.720884" lon="15.711056"><ele>494</ele></trkpt>
<trkpt lat="49.721186" lon="15.711054"><ele>493</ele></trkpt>
<trkpt lat="49.723800" lon="15.713363"><ele>482</ele></trkpt>
<trkpt lat="49.724770" lon="15.714246"><ele>474</ele></trkpt>
<trkpt lat="49.725058" lon="15.714412"><ele>472</ele></trkpt>
<trkpt lat="49.725292" lon="15.714480"><ele>470</ele></trkpt>
<trkpt lat="49.725457" lon="15.714618"><ele>468</ele></trkpt>
<trkpt lat="49.725800" lon="15.714877"><ele>466</ele></trkpt>
<trkpt lat="49.726470" lon="15.715406"><ele>461</ele></trkpt>
<trkpt lat="49.726643" lon="15.715542"><ele>461</ele></trkpt>
<trkpt lat="49.726552" lon="15.715779"><ele>460</ele></trkpt>
<trkpt lat="49.726530" lon="15.715932"><ele>460</ele></trkpt>
<trkpt lat="49.726383" lon="15.716275"><ele>463</ele></trkpt>
<trkpt lat="49.726270" lon="15.716578"><ele>465</ele></trkpt>
<trkpt lat="49.726185" lon="15.716752"><ele>466</ele></trkpt>
<trkpt lat="49.726016" lon="15.716920"><ele>468</ele></trkpt>
<trkpt lat="49.725729" lon="15.717098"><ele>470</ele></trkpt>
<trkpt lat="49.723626" lon="15.718223"><ele>489</ele></trkpt>
<trkpt lat="49.723450" lon="15.718319"><ele>491</ele></trkpt>
<trkpt lat="49.723232" lon="15.718441"><ele>493</ele></trkpt>
<trkpt lat="49.722685" lon="15.718782"><ele>497</ele></trkpt>
<trkpt lat="49.721642" lon="15.719434"><ele>500</ele></trkpt>
<trkpt lat="49.721014" lon="15.719876"><ele>500</ele></trkpt>
<trkpt lat="49.718486" lon="15.721531"><ele>508</ele></trkpt>
<trkpt lat="49.716688" lon="15.722745"><ele>512</ele></trkpt>
<trkpt lat="49.714512" lon="15.724193"><ele>517</ele></trkpt>
<trkpt lat="49.714312" lon="15.724397"><ele>515</ele></trkpt>
<trkpt lat="49.714045" lon="15.724772"><ele>517</ele></trkpt>
<trkpt lat="49.713776" lon="15.725094"><ele>518</ele></trkpt>
<trkpt lat="49.713133" lon="15.725714"><ele>518</ele></trkpt>
<trkpt lat="49.712028" lon="15.726585"><ele>520</ele></trkpt>
<trkpt lat="49.711307" lon="15.727247"><ele>525</ele></trkpt>
<trkpt lat="49.710484" lon="15.727883"><ele>527</ele></trkpt>
<trkpt lat="49.710060" lon="15.728082"><ele>528</ele></trkpt>
<trkpt lat="49.709571" lon="15.728222"><ele>529</ele></trkpt>
<trkpt lat="49.709451" lon="15.728188"><ele>529</ele></trkpt>
<trkpt lat="49.709259" lon="15.728006"><ele>529</ele></trkpt>
<trkpt lat="49.708890" lon="15.727566"><ele>531</ele></trkpt>
<trkpt lat="49.708354" lon="15.726622"><ele>534</ele></trkpt>
<trkpt lat="49.708216" lon="15.726511"><ele>534</ele></trkpt>
<trkpt lat="49.707573" lon="15.727165"><ele>536</ele></trkpt>
<trkpt lat="49.707257" lon="15.727677"><ele>536</ele></trkpt>
<trkpt lat="49.707000" lon="15.728240"><ele>537</ele></trkpt>
<trkpt lat="49.706846" lon="15.728426"><ele>537</ele></trkpt>
<trkpt lat="49.706358" lon="15.728837"><ele>537</ele></trkpt>
<trkpt lat="49.706254" lon="15.728997"><ele>537</ele></trkpt>
<trkpt lat="49.706181" lon="15.729181"><ele>536</ele></trkpt>
<trkpt lat="49.706065" lon="15.729715"><ele>536</ele></trkpt>
<trkpt lat="49.705995" lon="15.730141"><ele>536</ele></trkpt>
<trkpt lat="49.706010" lon="15.730575"><ele>536</ele></trkpt>
<trkpt lat="49.706020" lon="15.731096"><ele>536</ele></trkpt>
<trkpt lat="49.705964" lon="15.731397"><ele>537</ele></trkpt>
<trkpt lat="49.705865" lon="15.731676"><ele>537</ele></trkpt>
<trkpt lat="49.705832" lon="15.731887"><ele>536</ele></trkpt>
<trkpt lat="49.705853" lon="15.732107"><ele>536</ele></trkpt>
<trkpt lat="49.705911" lon="15.732406"><ele>536</ele></trkpt>
<trkpt lat="49.705907" lon="15.732540"><ele>535</ele></trkpt>
<trkpt lat="49.705845" lon="15.732756"><ele>535</ele></trkpt>
<trkpt lat="49.705740" lon="15.732664"><ele>534</ele></trkpt>
<trkpt lat="49.705696" lon="15.732634"><ele>534</ele></trkpt>
<trkpt lat="49.705578" lon="15.732552"><ele>534</ele></trkpt>
<trkpt lat="49.705525" lon="15.732501"><ele>535</ele></trkpt>
<trkpt lat="49.705409" lon="15.732386"><ele>534</ele></trkpt>
<trkpt lat="49.705337" lon="15.732477"><ele>533</ele></trkpt>
<trkpt lat="49.705301" lon="15.732505"><ele>533</ele></trkpt>
<trkpt lat="49.704700" lon="15.732800"><ele>532</ele></trkpt>
<trkpt lat="49.704490" lon="15.733070"><ele>530</ele></trkpt>
<trkpt lat="49.704265" lon="15.733232"><ele>530</ele></trkpt>
<trkpt lat="49.704182" lon="15.733205"><ele>530</ele></trkpt>
<trkpt lat="49.704107" lon="15.733207"><ele>531</ele></trkpt>
<trkpt lat="49.704069" lon="15.733196"><ele>531</ele></trkpt>
<trkpt lat="49.704048" lon="15.733167"><ele>532</ele></trkpt>
<trkpt lat="49.703967" lon="15.732863"><ele>533</ele></trkpt>
<trkpt lat="49.703939" lon="15.732789"><ele>532</ele></trkpt>
<trkpt lat="49.703893" lon="15.732709"><ele>532</ele></trkpt>
<trkpt lat="49.703849" lon="15.732525"><ele>530</ele></trkpt>
<trkpt lat="49.703834" lon="15.732369"><ele>528</ele></trkpt>
<trkpt lat="49.703838" lon="15.732255"><ele>528</ele></trkpt>
<trkpt lat="49.703853" lon="15.732163"><ele>528</ele></trkpt>
<trkpt lat="49.703883" lon="15.732091"><ele>527</ele></trkpt>
<trkpt lat="49.703933" lon="15.732050"><ele>528</ele></trkpt>
<trkpt lat="49.703904" lon="15.731763"><ele>526</ele></trkpt>
<trkpt lat="49.703943" lon="15.731643"><ele>526</ele></trkpt>
<trkpt lat="49.704158" lon="15.731525"><ele>527</ele></trkpt>
<trkpt lat="49.704133" lon="15.731404"><ele>527</ele></trkpt>
<trkpt lat="49.704077" lon="15.731268"><ele>526</ele></trkpt>
<trkpt lat="49.704014" lon="15.731180"><ele>526</ele></trkpt>
<trkpt lat="49.703932" lon="15.731102"><ele>526</ele></trkpt>
<trkpt lat="49.703852" lon="15.730976"><ele>526</ele></trkpt>
<trkpt lat="49.703659" lon="15.730669"><ele>528</ele></trkpt>
<trkpt lat="49.703628" lon="15.730485"><ele>528</ele></trkpt>
<trkpt lat="49.703627" lon="15.730415"><ele>528</ele></trkpt>
<trkpt lat="49.703664" lon="15.730333"><ele>528</ele></trkpt>
<trkpt lat="49.703470" lon="15.730049"><ele>530</ele></trkpt>
<trkpt lat="49.703316" lon="15.729806"><ele>530</ele></trkpt>
<trkpt lat="49.703246" lon="15.729687"><ele>530</ele></trkpt>
</trkseg></trk>
</gpx>
