<?xml version="1.0" encoding="UTF-8"?>
<gpx version="1.1" creator="Vysočina 2026 – Mlýn Vikinek" xmlns="http://www.topografix.com/GPX/1/1">
<metadata><name>Toulovcovy maštale: skalní městečko</name><desc>Pískovcové rokle, chodby a jeskyňky; z parkoviště Vranice a zpět přes rozhlednu.</desc></metadata>
<wpt lat="49.818640" lon="16.140890"><name>Toulovcovy maštale</name><desc>Pískovcové skalní městečko s úzkými roklemi, chodbami a jeskyňkami.</desc></wpt>
<trk><name>Toulovcovy maštale: skalní městečko</name><trkseg>
<trkpt lat="49.829193" lon="16.150312"><ele>406</ele></trkpt>
<trkpt lat="49.829168" lon="16.150318"><ele>406</ele></trkpt>
<trkpt lat="49.828974" lon="16.150323"><ele>408</ele></trkpt>
<trkpt lat="49.828815" lon="16.150289"><ele>408</ele></trkpt>
<trkpt lat="49.828621" lon="16.150373"><ele>410</ele></trkpt>
<trkpt lat="49.828377" lon="16.149878"><ele>408</ele></trkpt>
<trkpt lat="49.828140" lon="16.149662"><ele>406</ele></trkpt>
<trkpt lat="49.828029" lon="16.149399"><ele>406</ele></trkpt>
<trkpt lat="49.827998" lon="16.149341"><ele>406</ele></trkpt>
<trkpt lat="49.827934" lon="16.149198"><ele>406</ele></trkpt>
<trkpt lat="49.827889" lon="16.149093"><ele>406</ele></trkpt>
<trkpt lat="49.827856" lon="16.148987"><ele>406</ele></trkpt>
<trkpt lat="49.827832" lon="16.148942"><ele>406</ele></trkpt>
<trkpt lat="49.827772" lon="16.148889"><ele>406</ele></trkpt>
<trkpt lat="49.827735" lon="16.148891"><ele>406</ele></trkpt>
<trkpt lat="49.827700" lon="16.148991"><ele>406</ele></trkpt>
<trkpt lat="49.827503" lon="16.149065"><ele>407</ele></trkpt>
<trkpt lat="49.827376" lon="16.149100"><ele>408</ele></trkpt>
<trkpt lat="49.827230" lon="16.149104"><ele>410</ele></trkpt>
<trkpt lat="49.827098" lon="16.149204"><ele>410</ele></trkpt>
<trkpt lat="49.826950" lon="16.149225"><ele>411</ele></trkpt>
<trkpt lat="49.826793" lon="16.149290"><ele>411</ele></trkpt>
<trkpt lat="49.826757" lon="16.149328"><ele>410</ele></trkpt>
<trkpt lat="49.826729" lon="16.149366"><ele>410</ele></trkpt>
<trkpt lat="49.826654" lon="16.149554"><ele>410</ele></trkpt>
<trkpt lat="49.826592" lon="16.149771"><ele>410</ele></trkpt>
<trkpt lat="49.826485" lon="16.150170"><ele>414</ele></trkpt>
<trkpt lat="49.826294" lon="16.150028"><ele>414</ele></trkpt>
<trkpt lat="49.826138" lon="16.150094"><ele>416</ele></trkpt>
<trkpt lat="49.825936" lon="16.150201"><ele>419</ele></trkpt>
<trkpt lat="49.825873" lon="16.150209"><ele>420</ele></trkpt>
<trkpt lat="49.825790" lon="16.150190"><ele>421</ele></trkpt>
<trkpt lat="49.825419" lon="16.150082"><ele>426</ele></trkpt>
<trkpt lat="49.825326" lon="16.150042"><ele>427</ele></trkpt>
<trkpt lat="49.824693" lon="16.149663"><ele>432</ele></trkpt>
<trkpt lat="49.824250" lon="16.149420"><ele>443</ele></trkpt>
<trkpt lat="49.824053" lon="16.149210"><ele>444</ele></trkpt>
<trkpt lat="49.823629" lon="16.148873"><ele>448</ele></trkpt>
<trkpt lat="49.823470" lon="16.148720"><ele>448</ele></trkpt>
<trkpt lat="49.823320" lon="16.148480"><ele>447</ele></trkpt>
<trkpt lat="49.822780" lon="16.147920"><ele>456</ele></trkpt>
<trkpt lat="49.822530" lon="16.147700"><ele>458</ele></trkpt>
<trkpt lat="49.822350" lon="16.147480"><ele>460</ele></trkpt>
<trkpt lat="49.822170" lon="16.147230"><ele>464</ele></trkpt>
<trkpt lat="49.822010" lon="16.147080"><ele>464</ele></trkpt>
<trkpt lat="49.821650" lon="16.146870"><ele>466</ele></trkpt>
<trkpt lat="49.821270" lon="16.146710"><ele>468</ele></trkpt>
<trkpt lat="49.821250" lon="16.146690"><ele>468</ele></trkpt>
<trkpt lat="49.820970" lon="16.146590"><ele>470</ele></trkpt>
<trkpt lat="49.820605" lon="16.146478"><ele>472</ele></trkpt>
<trkpt lat="49.820339" lon="16.146365"><ele>473</ele></trkpt>
<trkpt lat="49.820129" lon="16.146219"><ele>475</ele></trkpt>
<trkpt lat="49.819979" lon="16.145622"><ele>475</ele></trkpt>
<trkpt lat="49.819936" lon="16.145226"><ele>476</ele></trkpt>
<trkpt lat="49.819715" lon="16.144462"><ele>479</ele></trkpt>
<trkpt lat="49.819691" lon="16.144274"><ele>479</ele></trkpt>
<trkpt lat="49.819738" lon="16.144028"><ele>478</ele></trkpt>
<trkpt lat="49.819779" lon="16.143759"><ele>478</ele></trkpt>
<trkpt lat="49.819770" lon="16.143590"><ele>478</ele></trkpt>
<trkpt lat="49.819670" lon="16.143330"><ele>478</ele></trkpt>
<trkpt lat="49.819580" lon="16.143160"><ele>478</ele></trkpt>
<trkpt lat="49.819360" lon="16.142870"><ele>478</ele></trkpt>
<trkpt lat="49.819220" lon="16.142660"><ele>479</ele></trkpt>
<trkpt lat="49.819070" lon="16.142520"><ele>480</ele></trkpt>
<trkpt lat="49.818850" lon="16.142350"><ele>480</ele></trkpt>
<trkpt lat="49.818720" lon="16.142170"><ele>480</ele></trkpt>
<trkpt lat="49.818600" lon="16.142020"><ele>481</ele></trkpt>
<trkpt lat="49.818464" lon="16.141908"><ele>481</ele></trkpt>
<trkpt lat="49.818280" lon="16.141857"><ele>482</ele></trkpt>
<trkpt lat="49.818428" lon="16.141489"><ele>480</ele></trkpt>
<trkpt lat="49.818434" lon="16.141438"><ele>480</ele></trkpt>
<trkpt lat="49.818440" lon="16.141388"><ele>480</ele></trkpt>
<trkpt lat="49.818442" lon="16.141352"><ele>480</ele></trkpt>
<trkpt lat="49.818464" lon="16.141101"><ele>478</ele></trkpt>
<trkpt lat="49.818487" lon="16.141078"><ele>478</ele></trkpt>
<trkpt lat="49.818599" lon="16.140972"><ele>475</ele></trkpt>
<trkpt lat="49.818649" lon="16.140909"><ele>473</ele></trkpt>
<trkpt lat="49.818599" lon="16.140972"><ele>475</ele></trkpt>
<trkpt lat="49.818580" lon="16.140805"><ele>474</ele></trkpt>
<trkpt lat="49.818498" lon="16.140771"><ele>476</ele></trkpt>
<trkpt lat="49.818451" lon="16.140860"><ele>476</ele></trkpt>
<trkpt lat="49.818371" lon="16.141064"><ele>478</ele></trkpt>
<trkpt lat="49.818369" lon="16.141083"><ele>478</ele></trkpt>
<trkpt lat="49.818297" lon="16.141064"><ele>479</ele></trkpt>
<trkpt lat="49.818094" lon="16.141074"><ele>481</ele></trkpt>
<trkpt lat="49.817772" lon="16.141172"><ele>481</ele></trkpt>
<trkpt lat="49.817657" lon="16.141236"><ele>482</ele></trkpt>
<trkpt lat="49.817560" lon="16.141376"><ele>484</ele></trkpt>
<trkpt lat="49.817500" lon="16.141427"><ele>484</ele></trkpt>
<trkpt lat="49.817157" lon="16.141586"><ele>486</ele></trkpt>
<trkpt lat="49.817004" lon="16.141731"><ele>488</ele></trkpt>
<trkpt lat="49.816964" lon="16.141684"><ele>488</ele></trkpt>
<trkpt lat="49.816942" lon="16.141619"><ele>486</ele></trkpt>
<trkpt lat="49.816920" lon="16.141554"><ele>484</ele></trkpt>
<trkpt lat="49.816889" lon="16.141527"><ele>482</ele></trkpt>
<trkpt lat="49.816836" lon="16.141481"><ele>482</ele></trkpt>
<trkpt lat="49.816788" lon="16.141313"><ele>482</ele></trkpt>
<trkpt lat="49.816595" lon="16.141442"><ele>484</ele></trkpt>
<trkpt lat="49.816045" lon="16.141867"><ele>485</ele></trkpt>
<trkpt lat="49.815860" lon="16.142078"><ele>488</ele></trkpt>
<trkpt lat="49.815557" lon="16.142337"><ele>492</ele></trkpt>
<trkpt lat="49.815198" lon="16.142596"><ele>490</ele></trkpt>
<trkpt lat="49.815095" lon="16.142719"><ele>490</ele></trkpt>
<trkpt lat="49.815039" lon="16.142937"><ele>491</ele></trkpt>
<trkpt lat="49.815032" lon="16.143208"><ele>493</ele></trkpt>
<trkpt lat="49.815070" lon="16.144170"><ele>495</ele></trkpt>
<trkpt lat="49.815078" lon="16.144637"><ele>494</ele></trkpt>
<trkpt lat="49.815032" lon="16.144883"><ele>492</ele></trkpt>
<trkpt lat="49.814931" lon="16.145094"><ele>492</ele></trkpt>
<trkpt lat="49.814798" lon="16.145475"><ele>490</ele></trkpt>
<trkpt lat="49.814702" lon="16.145627"><ele>487</ele></trkpt>
<trkpt lat="49.814584" lon="16.145749"><ele>486</ele></trkpt>
<trkpt lat="49.814375" lon="16.146073"><ele>486</ele></trkpt>
<trkpt lat="49.814344" lon="16.146272"><ele>484</ele></trkpt>
<trkpt lat="49.814388" lon="16.146471"><ele>478</ele></trkpt>
<trkpt lat="49.814518" lon="16.146768"><ele>469</ele></trkpt>
<trkpt lat="49.814707" lon="16.146971"><ele>467</ele></trkpt>
<trkpt lat="49.815619" lon="16.147535"><ele>455</ele></trkpt>
<trkpt lat="49.815594" lon="16.147733"><ele>453</ele></trkpt>
<trkpt lat="49.815591" lon="16.147801"><ele>453</ele></trkpt>
<trkpt lat="49.815592" lon="16.147925"><ele>454</ele></trkpt>
<trkpt lat="49.815329" lon="16.148225"><ele>460</ele></trkpt>
<trkpt lat="49.815120" lon="16.148449"><ele>464</ele></trkpt>
<trkpt lat="49.814921" lon="16.148623"><ele>463</ele></trkpt>
<trkpt lat="49.814705" lon="16.148851"><ele>466</ele></trkpt>
<trkpt lat="49.814383" lon="16.149174"><ele>466</ele></trkpt>
<trkpt lat="49.813958" lon="16.149554"><ele>469</ele></trkpt>
<trkpt lat="49.813844" lon="16.149629"><ele>468</ele></trkpt>
<trkpt lat="49.813727" lon="16.149645"><ele>470</ele></trkpt>
<trkpt lat="49.813643" lon="16.149555"><ele>471</ele></trkpt>
<trkpt lat="49.813727" lon="16.149645"><ele>470</ele></trkpt>
<trkpt lat="49.813844" lon="16.149629"><ele>468</ele></trkpt>
<trkpt lat="49.813958" lon="16.149554"><ele>469</ele></trkpt>
<trkpt lat="49.814383" lon="16.149174"><ele>466</ele></trkpt>
<trkpt lat="49.814705" lon="16.148851"><ele>466</ele></trkpt>
<trkpt lat="49.814921" lon="16.148623"><ele>463</ele></trkpt>
<trkpt lat="49.815120" lon="16.148449"><ele>464</ele></trkpt>
<trkpt lat="49.815329" lon="16.148225"><ele>460</ele></trkpt>
<trkpt lat="49.815592" lon="16.147925"><ele>454</ele></trkpt>
<trkpt lat="49.815840" lon="16.147951"><ele>454</ele></trkpt>
<trkpt lat="49.816244" lon="16.148085"><ele>452</ele></trkpt>
<trkpt lat="49.816675" lon="16.148391"><ele>450</ele></trkpt>
<trkpt lat="49.817574" lon="16.148899"><ele>450</ele></trkpt>
<trkpt lat="49.817799" lon="16.148981"><ele>449</ele></trkpt>
<trkpt lat="49.818132" lon="16.149216"><ele>448</ele></trkpt>
<trkpt lat="49.818385" lon="16.149410"><ele>447</ele></trkpt>
<trkpt lat="49.818665" lon="16.149758"><ele>446</ele></trkpt>
<trkpt lat="49.818944" lon="16.150188"><ele>448</ele></trkpt>
<trkpt lat="49.819418" lon="16.150688"><ele>448</ele></trkpt>
<trkpt lat="49.819971" lon="16.151131"><ele>442</ele></trkpt>
<trkpt lat="49.820446" lon="16.151714"><ele>444</ele></trkpt>
<trkpt lat="49.820941" lon="16.152156"><ele>440</ele></trkpt>
<trkpt lat="49.821243" lon="16.152591"><ele>438</ele></trkpt>
<trkpt lat="49.821212" lon="16.152694"><ele>439</ele></trkpt>
<trkpt lat="49.821090" lon="16.152836"><ele>440</ele></trkpt>
<trkpt lat="49.820626" lon="16.153096"><ele>443</ele></trkpt>
<trkpt lat="49.820357" lon="16.153433"><ele>442</ele></trkpt>
<trkpt lat="49.820105" lon="16.153596"><ele>443</ele></trkpt>
<trkpt lat="49.819687" lon="16.153767"><ele>445</ele></trkpt>
<trkpt lat="49.819151" lon="16.153970"><ele>448</ele></trkpt>
<trkpt lat="49.818616" lon="16.154495"><ele>448</ele></trkpt>
<trkpt lat="49.818187" lon="16.154871"><ele>449</ele></trkpt>
<trkpt lat="49.818268" lon="16.155228"><ele>443</ele></trkpt>
<trkpt lat="49.818289" lon="16.155365"><ele>444</ele></trkpt>
<trkpt lat="49.818339" lon="16.155484"><ele>445</ele></trkpt>
<trkpt lat="49.818383" lon="16.155512"><ele>446</ele></trkpt>
<trkpt lat="49.818472" lon="16.155531"><ele>446</ele></trkpt>
<trkpt lat="49.818659" lon="16.155537"><ele>448</ele></trkpt>
<trkpt lat="49.818885" lon="16.155483"><ele>448</ele></trkpt>
<trkpt lat="49.819116" lon="16.155485"><ele>450</ele></trkpt>
<trkpt lat="49.819245" lon="16.155511"><ele>452</ele></trkpt>
<trkpt lat="49.819327" lon="16.155488"><ele>452</ele></trkpt>
<trkpt lat="49.819529" lon="16.155476"><ele>454</ele></trkpt>
<trkpt lat="49.819842" lon="16.155475"><ele>458</ele></trkpt>
<trkpt lat="49.820091" lon="16.155449"><ele>460</ele></trkpt>
<trkpt lat="49.820461" lon="16.155320"><ele>462</ele></trkpt>
<trkpt lat="49.820561" lon="16.155348"><ele>464</ele></trkpt>
<trkpt lat="49.820582" lon="16.155362"><ele>464</ele></trkpt>
<trkpt lat="49.820609" lon="16.155577"><ele>466</ele></trkpt>
<trkpt lat="49.820566" lon="16.155772"><ele>468</ele></trkpt>
<trkpt lat="49.820483" lon="16.155864"><ele>469</ele></trkpt>
<trkpt lat="49.820304" lon="16.156035"><ele>470</ele></trkpt>
<trkpt lat="49.820101" lon="16.156302"><ele>470</ele></trkpt>
<trkpt lat="49.819917" lon="16.156510"><ele>470</ele></trkpt>
<trkpt lat="49.819561" lon="16.156784"><ele>470</ele></trkpt>
<trkpt lat="49.819460" lon="16.156873"><ele>470</ele></trkpt>
<trkpt lat="49.819293" lon="16.157143"><ele>471</ele></trkpt>
<trkpt lat="49.818809" lon="16.157325"><ele>470</ele></trkpt>
<trkpt lat="49.818421" lon="16.157433"><ele>471</ele></trkpt>
<trkpt lat="49.818063" lon="16.157594"><ele>472</ele></trkpt>
<trkpt lat="49.817592" lon="16.157728"><ele>473</ele></trkpt>
<trkpt lat="49.817331" lon="16.157873"><ele>474</ele></trkpt>
<trkpt lat="49.817145" lon="16.158045"><ele>475</ele></trkpt>
<trkpt lat="49.817045" lon="16.158114"><ele>475</ele></trkpt>
<trkpt lat="49.816975" lon="16.158213"><ele>476</ele></trkpt>
<trkpt lat="49.816986" lon="16.158334"><ele>477</ele></trkpt>
<trkpt lat="49.816994" lon="16.158417"><ele>477</ele></trkpt>
<trkpt lat="49.816949" lon="16.158516"><ele>478</ele></trkpt>
<trkpt lat="49.816311" lon="16.158703"><ele>481</ele></trkpt>
<trkpt lat="49.815187" lon="16.158870"><ele>486</ele></trkpt>
<trkpt lat="49.814391" lon="16.159251"><ele>484</ele></trkpt>
<trkpt lat="49.813891" lon="16.159474"><ele>484</ele></trkpt>
<trkpt lat="49.813551" lon="16.159564"><ele>486</ele></trkpt>
<trkpt lat="49.813801" lon="16.160213"><ele>500</ele></trkpt>
<trkpt lat="49.813914" lon="16.160566"><ele>510</ele></trkpt>
<trkpt lat="49.814209" lon="16.161204"><ele>524</ele></trkpt>
<trkpt lat="49.814248" lon="16.161353"><ele>526</ele></trkpt>
<trkpt lat="49.814476" lon="16.162881"><ele>535</ele></trkpt>
<trkpt lat="49.814463" lon="16.163154"><ele>536</ele></trkpt>
<trkpt lat="49.814461" lon="16.163271"><ele>538</ele></trkpt>
<trkpt lat="49.814484" lon="16.163393"><ele>538</ele></trkpt>
<trkpt lat="49.814461" lon="16.163271"><ele>538</ele></trkpt>
<trkpt lat="49.814463" lon="16.163154"><ele>536</ele></trkpt>
<trkpt lat="49.814476" lon="16.162881"><ele>535</ele></trkpt>
<trkpt lat="49.814248" lon="16.161353"><ele>526</ele></trkpt>
<trkpt lat="49.814209" lon="16.161204"><ele>524</ele></trkpt>
<trkpt lat="49.813914" lon="16.160566"><ele>510</ele></trkpt>
<trkpt lat="49.813801" lon="16.160213"><ele>500</ele></trkpt>
<trkpt lat="49.813551" lon="16.159564"><ele>486</ele></trkpt>
<trkpt lat="49.813891" lon="16.159474"><ele>484</ele></trkpt>
<trkpt lat="49.814391" lon="16.159251"><ele>484</ele></trkpt>
<trkpt lat="49.815187" lon="16.158870"><ele>486</ele></trkpt>
<trkpt lat="49.816311" lon="16.158703"><ele>481</ele></trkpt>
<trkpt lat="49.816949" lon="16.158516"><ele>478</ele></trkpt>
<trkpt lat="49.816994" lon="16.158417"><ele>477</ele></trkpt>
<trkpt lat="49.816986" lon="16.158334"><ele>477</ele></trkpt>
<trkpt lat="49.816975" lon="16.158213"><ele>476</ele></trkpt>
<trkpt lat="49.817045" lon="16.158114"><ele>475</ele></trkpt>
<trkpt lat="49.817145" lon="16.158045"><ele>475</ele></trkpt>
<trkpt lat="49.817331" lon="16.157873"><ele>474</ele></trkpt>
<trkpt lat="49.817592" lon="16.157728"><ele>473</ele></trkpt>
<trkpt lat="49.818063" lon="16.157594"><ele>472</ele></trkpt>
<trkpt lat="49.818421" lon="16.157433"><ele>471</ele></trkpt>
<trkpt lat="49.818809" lon="16.157325"><ele>470</ele></trkpt>
<trkpt lat="49.819293" lon="16.157143"><ele>471</ele></trkpt>
<trkpt lat="49.819460" lon="16.156873"><ele>470</ele></trkpt>
<trkpt lat="49.819561" lon="16.156784"><ele>470</ele></trkpt>
<trkpt lat="49.819917" lon="16.156510"><ele>470</ele></trkpt>
<trkpt lat="49.820101" lon="16.156302"><ele>470</ele></trkpt>
<trkpt lat="49.820304" lon="16.156035"><ele>470</ele></trkpt>
<trkpt lat="49.820483" lon="16.155864"><ele>469</ele></trkpt>
<trkpt lat="49.820566" lon="16.155772"><ele>468</ele></trkpt>
<trkpt lat="49.820609" lon="16.155577"><ele>466</ele></trkpt>
<trkpt lat="49.820582" lon="16.155362"><ele>464</ele></trkpt>
<trkpt lat="49.820561" lon="16.155348"><ele>464</ele></trkpt>
<trkpt lat="49.820461" lon="16.155320"><ele>462</ele></trkpt>
<trkpt lat="49.820091" lon="16.155449"><ele>460</ele></trkpt>
<trkpt lat="49.819842" lon="16.155475"><ele>458</ele></trkpt>
<trkpt lat="49.819529" lon="16.155476"><ele>454</ele></trkpt>
<trkpt lat="49.819327" lon="16.155488"><ele>452</ele></trkpt>
<trkpt lat="49.819245" lon="16.155511"><ele>452</ele></trkpt>
<trkpt lat="49.819116" lon="16.155485"><ele>450</ele></trkpt>
<trkpt lat="49.818885" lon="16.155483"><ele>448</ele></trkpt>
<trkpt lat="49.818659" lon="16.155537"><ele>448</ele></trkpt>
<trkpt lat="49.818472" lon="16.155531"><ele>446</ele></trkpt>
<trkpt lat="49.818383" lon="16.155512"><ele>446</ele></trkpt>
<trkpt lat="49.818339" lon="16.155484"><ele>445</ele></trkpt>
<trkpt lat="49.818289" lon="16.155365"><ele>444</ele></trkpt>
<trkpt lat="49.818268" lon="16.155228"><ele>443</ele></trkpt>
<trkpt lat="49.818187" lon="16.154871"><ele>449</ele></trkpt>
<trkpt lat="49.818616" lon="16.154495"><ele>448</ele></trkpt>
<trkpt lat="49.819151" lon="16.153970"><ele>448</ele></trkpt>
<trkpt lat="49.819687" lon="16.153767"><ele>445</ele></trkpt>
<trkpt lat="49.820105" lon="16.153596"><ele>443</ele></trkpt>
<trkpt lat="49.820357" lon="16.153433"><ele>442</ele></trkpt>
<trkpt lat="49.820626" lon="16.153096"><ele>443</ele></trkpt>
<trkpt lat="49.821090" lon="16.152836"><ele>440</ele></trkpt>
<trkpt lat="49.821212" lon="16.152694"><ele>439</ele></trkpt>
<trkpt lat="49.821243" lon="16.152591"><ele>438</ele></trkpt>
<trkpt lat="49.821462" lon="16.152530"><ele>432</ele></trkpt>
<trkpt lat="49.821584" lon="16.152510"><ele>430</ele></trkpt>
<trkpt lat="49.821717" lon="16.152401"><ele>428</ele></trkpt>
<trkpt lat="49.821870" lon="16.152334"><ele>429</ele></trkpt>
<trkpt lat="49.822209" lon="16.152413"><ele>429</ele></trkpt>
<trkpt lat="49.822522" lon="16.152474"><ele>428</ele></trkpt>
<trkpt lat="49.822771" lon="16.152446"><ele>428</ele></trkpt>
<trkpt lat="49.822945" lon="16.152359"><ele>429</ele></trkpt>
<trkpt lat="49.823367" lon="16.152480"><ele>427</ele></trkpt>
<trkpt lat="49.823723" lon="16.152615"><ele>427</ele></trkpt>
<trkpt lat="49.824085" lon="16.152673"><ele>426</ele></trkpt>
<trkpt lat="49.824463" lon="16.152483"><ele>425</ele></trkpt>
<trkpt lat="49.824816" lon="16.152273"><ele>422</ele></trkpt>
<trkpt lat="49.825094" lon="16.151924"><ele>422</ele></trkpt>
<trkpt lat="49.825486" lon="16.151627"><ele>418</ele></trkpt>
<trkpt lat="49.825729" lon="16.151502"><ele>416</ele></trkpt>
<trkpt lat="49.825850" lon="16.151482"><ele>415</ele></trkpt>
<trkpt lat="49.825885" lon="16.151481"><ele>415</ele></trkpt>
<trkpt lat="49.826070" lon="16.151530"><ele>415</ele></trkpt>
<trkpt lat="49.826203" lon="16.151520"><ele>415</ele></trkpt>
<trkpt lat="49.826364" lon="16.151431"><ele>416</ele></trkpt>
<trkpt lat="49.826682" lon="16.151198"><ele>416</ele></trkpt>
<trkpt lat="49.826848" lon="16.151084"><ele>417</ele></trkpt>
<trkpt lat="49.827101" lon="16.150980"><ele>420</ele></trkpt>
<trkpt lat="49.827246" lon="16.150941"><ele>421</ele></trkpt>
<trkpt lat="49.827548" lon="16.150889"><ele>424</ele></trkpt>
<trkpt lat="49.827710" lon="16.150736"><ele>422</ele></trkpt>
<trkpt lat="49.827991" lon="16.150635"><ele>418</ele></trkpt>
<trkpt lat="49.828365" lon="16.150586"><ele>414</ele></trkpt>
<trkpt lat="49.828621" lon="16.150373"><ele>410</ele></trkpt>
<trkpt lat="49.828815" lon="16.150289"><ele>408</ele></trkpt>
<trkpt lat="49.828974" lon="16.150323"><ele>408</ele></trkpt>
<trkpt lat="49.829168" lon="16.150318"><ele>406</ele></trkpt>
<trkpt lat="49.829193" lon="16.150312"><ele>406</ele></trkpt>
</trkseg></trk>
</gpx>
