<?xml version="1.0" encoding="UTF-8"?>
<gpx version="1.1" creator="Vysočina 2026 – Mlýn Vikinek" xmlns="http://www.topografix.com/GPX/1/1">
<metadata><name>Čtyři palice a Milovské perničky</name><desc>Krátký okruh z Milov ke skalním věžím a „perníkovým“ mísám.</desc></metadata>
<wpt lat="49.686050" lon="16.093360"><name>Čtyři palice</name><desc>Rozeklané skalní věže nad Milovy s vyhlídkou a naučnou stezkou.</desc></wpt>
<wpt lat="49.693600" lon="16.087940"><name>Milovské perničky</name><desc>Skály s „perníkovými formičkami“, skalními mísami vymletými vodou a mrazem.</desc></wpt>
<trk><name>Čtyři palice a Milovské perničky</name><trkseg>
<trkpt lat="49.667824" lon="16.091127"><ele>595</ele></trkpt>
<trkpt lat="49.667797" lon="16.090992"><ele>595</ele></trkpt>
<trkpt lat="49.667868" lon="16.090951"><ele>596</ele></trkpt>
<trkpt lat="49.668085" lon="16.090717"><ele>596</ele></trkpt>
<trkpt lat="49.668179" lon="16.090582"><ele>596</ele></trkpt>
<trkpt lat="49.668282" lon="16.090758"><ele>596</ele></trkpt>
<trkpt lat="49.668406" lon="16.090573"><ele>596</ele></trkpt>
<trkpt lat="49.668761" lon="16.090784"><ele>594</ele></trkpt>
<trkpt lat="49.669364" lon="16.091524"><ele>590</ele></trkpt>
<trkpt lat="49.669748" lon="16.091974"><ele>589</ele></trkpt>
<trkpt lat="49.669941" lon="16.092382"><ele>588</ele></trkpt>
<trkpt lat="49.669981" lon="16.092403"><ele>588</ele></trkpt>
<trkpt lat="49.670099" lon="16.092420"><ele>588</ele></trkpt>
<trkpt lat="49.670363" lon="16.092551"><ele>588</ele></trkpt>
<trkpt lat="49.670562" lon="16.092674"><ele>588</ele></trkpt>
<trkpt lat="49.670762" lon="16.092746"><ele>588</ele></trkpt>
<trkpt lat="49.671237" lon="16.092747"><ele>588</ele></trkpt>
<trkpt lat="49.671289" lon="16.092632"><ele>588</ele></trkpt>
<trkpt lat="49.671299" lon="16.092611"><ele>588</ele></trkpt>
<trkpt lat="49.671333" lon="16.092550"><ele>588</ele></trkpt>
<trkpt lat="49.671374" lon="16.092513"><ele>588</ele></trkpt>
<trkpt lat="49.671397" lon="16.092512"><ele>588</ele></trkpt>
<trkpt lat="49.671473" lon="16.092544"><ele>588</ele></trkpt>
<trkpt lat="49.671509" lon="16.092556"><ele>588</ele></trkpt>
<trkpt lat="49.671582" lon="16.092647"><ele>588</ele></trkpt>
<trkpt lat="49.671662" lon="16.092714"><ele>588</ele></trkpt>
<trkpt lat="49.671723" lon="16.092804"><ele>588</ele></trkpt>
<trkpt lat="49.671755" lon="16.092831"><ele>588</ele></trkpt>
<trkpt lat="49.671783" lon="16.092813"><ele>588</ele></trkpt>
<trkpt lat="49.671818" lon="16.092810"><ele>587</ele></trkpt>
<trkpt lat="49.671857" lon="16.092838"><ele>587</ele></trkpt>
<trkpt lat="49.671906" lon="16.092862"><ele>587</ele></trkpt>
<trkpt lat="49.672024" lon="16.092826"><ele>588</ele></trkpt>
<trkpt lat="49.672118" lon="16.092782"><ele>589</ele></trkpt>
<trkpt lat="49.672384" lon="16.092529"><ele>590</ele></trkpt>
<trkpt lat="49.672235" lon="16.092058"><ele>590</ele></trkpt>
<trkpt lat="49.672092" lon="16.091074"><ele>590</ele></trkpt>
<trkpt lat="49.672126" lon="16.090642"><ele>590</ele></trkpt>
<trkpt lat="49.672272" lon="16.089909"><ele>589</ele></trkpt>
<trkpt lat="49.672397" lon="16.089364"><ele>590</ele></trkpt>
<trkpt lat="49.672549" lon="16.088839"><ele>590</ele></trkpt>
<trkpt lat="49.672612" lon="16.088792"><ele>590</ele></trkpt>
<trkpt lat="49.672814" lon="16.088702"><ele>590</ele></trkpt>
<trkpt lat="49.673103" lon="16.088455"><ele>590</ele></trkpt>
<trkpt lat="49.673390" lon="16.088227"><ele>590</ele></trkpt>
<trkpt lat="49.673742" lon="16.088070"><ele>590</ele></trkpt>
<trkpt lat="49.674222" lon="16.087918"><ele>591</ele></trkpt>
<trkpt lat="49.674653" lon="16.087915"><ele>592</ele></trkpt>
<trkpt lat="49.674825" lon="16.087953"><ele>593</ele></trkpt>
<trkpt lat="49.674975" lon="16.087952"><ele>593</ele></trkpt>
<trkpt lat="49.674962" lon="16.087896"><ele>592</ele></trkpt>
<trkpt lat="49.674964" lon="16.087776"><ele>592</ele></trkpt>
<trkpt lat="49.675005" lon="16.087585"><ele>591</ele></trkpt>
<trkpt lat="49.675276" lon="16.086268"><ele>591</ele></trkpt>
<trkpt lat="49.675431" lon="16.086324"><ele>591</ele></trkpt>
<trkpt lat="49.679468" lon="16.087344"><ele>602</ele></trkpt>
<trkpt lat="49.680776" lon="16.087674"><ele>608</ele></trkpt>
<trkpt lat="49.681208" lon="16.087749"><ele>611</ele></trkpt>
<trkpt lat="49.681545" lon="16.087852"><ele>613</ele></trkpt>
<trkpt lat="49.681841" lon="16.087958"><ele>616</ele></trkpt>
<trkpt lat="49.682318" lon="16.088216"><ele>621</ele></trkpt>
<trkpt lat="49.682493" lon="16.088280"><ele>622</ele></trkpt>
<trkpt lat="49.682609" lon="16.088266"><ele>623</ele></trkpt>
<trkpt lat="49.682748" lon="16.088185"><ele>624</ele></trkpt>
<trkpt lat="49.682851" lon="16.088099"><ele>624</ele></trkpt>
<trkpt lat="49.683062" lon="16.087878"><ele>624</ele></trkpt>
<trkpt lat="49.683231" lon="16.087779"><ele>624</ele></trkpt>
<trkpt lat="49.683507" lon="16.087643"><ele>625</ele></trkpt>
<trkpt lat="49.683825" lon="16.087358"><ele>625</ele></trkpt>
<trkpt lat="49.683963" lon="16.087306"><ele>625</ele></trkpt>
<trkpt lat="49.684159" lon="16.087309"><ele>626</ele></trkpt>
<trkpt lat="49.684380" lon="16.087332"><ele>627</ele></trkpt>
<trkpt lat="49.684606" lon="16.087285"><ele>628</ele></trkpt>
<trkpt lat="49.684994" lon="16.087152"><ele>628</ele></trkpt>
<trkpt lat="49.685052" lon="16.087097"><ele>628</ele></trkpt>
<trkpt lat="49.685400" lon="16.086765"><ele>628</ele></trkpt>
<trkpt lat="49.686013" lon="16.086311"><ele>626</ele></trkpt>
<trkpt lat="49.686301" lon="16.086208"><ele>626</ele></trkpt>
<trkpt lat="49.686588" lon="16.086187"><ele>627</ele></trkpt>
<trkpt lat="49.686607" lon="16.086498"><ele>630</ele></trkpt>
<trkpt lat="49.686775" lon="16.086929"><ele>634</ele></trkpt>
<trkpt lat="49.686927" lon="16.088500"><ele>648</ele></trkpt>
<trkpt lat="49.687033" lon="16.089096"><ele>655</ele></trkpt>
<trkpt lat="49.687175" lon="16.089687"><ele>662</ele></trkpt>
<trkpt lat="49.687254" lon="16.090453"><ele>672</ele></trkpt>
<trkpt lat="49.687122" lon="16.090959"><ele>679</ele></trkpt>
<trkpt lat="49.687306" lon="16.092791"><ele>704</ele></trkpt>
<trkpt lat="49.687344" lon="16.092947"><ele>706</ele></trkpt>
<trkpt lat="49.687533" lon="16.093688"><ele>709</ele></trkpt>
<trkpt lat="49.687536" lon="16.093698"><ele>709</ele></trkpt>
<trkpt lat="49.687809" lon="16.093957"><ele>708</ele></trkpt>
<trkpt lat="49.688066" lon="16.094608"><ele>704</ele></trkpt>
<trkpt lat="49.688219" lon="16.094787"><ele>704</ele></trkpt>
<trkpt lat="49.688524" lon="16.095256"><ele>705</ele></trkpt>
<trkpt lat="49.688726" lon="16.095463"><ele>706</ele></trkpt>
<trkpt lat="49.688854" lon="16.095566"><ele>708</ele></trkpt>
<trkpt lat="49.688975" lon="16.095521"><ele>708</ele></trkpt>
<trkpt lat="49.689143" lon="16.095495"><ele>708</ele></trkpt>
<trkpt lat="49.689271" lon="16.095406"><ele>708</ele></trkpt>
<trkpt lat="49.689518" lon="16.095389"><ele>708</ele></trkpt>
<trkpt lat="49.689903" lon="16.095514"><ele>707</ele></trkpt>
<trkpt lat="49.690323" lon="16.095613"><ele>708</ele></trkpt>
<trkpt lat="49.691198" lon="16.095722"><ele>708</ele></trkpt>
<trkpt lat="49.691729" lon="16.095505"><ele>708</ele></trkpt>
<trkpt lat="49.691915" lon="16.095460"><ele>708</ele></trkpt>
<trkpt lat="49.692083" lon="16.095408"><ele>709</ele></trkpt>
<trkpt lat="49.692334" lon="16.095063"><ele>711</ele></trkpt>
<trkpt lat="49.692499" lon="16.094685"><ele>712</ele></trkpt>
<trkpt lat="49.692813" lon="16.093447"><ele>713</ele></trkpt>
<trkpt lat="49.692972" lon="16.093174"><ele>714</ele></trkpt>
<trkpt lat="49.693063" lon="16.092670"><ele>714</ele></trkpt>
<trkpt lat="49.693070" lon="16.092010"><ele>716</ele></trkpt>
<trkpt lat="49.693013" lon="16.090995"><ele>717</ele></trkpt>
<trkpt lat="49.692930" lon="16.090145"><ele>716</ele></trkpt>
<trkpt lat="49.693001" lon="16.089289"><ele>718</ele></trkpt>
<trkpt lat="49.693116" lon="16.088711"><ele>719</ele></trkpt>
<trkpt lat="49.693210" lon="16.088351"><ele>720</ele></trkpt>
<trkpt lat="49.693210" lon="16.088350"><ele>722</ele></trkpt>
<trkpt lat="49.693210" lon="16.088351"><ele>720</ele></trkpt>
<trkpt lat="49.693116" lon="16.088711"><ele>719</ele></trkpt>
<trkpt lat="49.693001" lon="16.089289"><ele>718</ele></trkpt>
<trkpt lat="49.692930" lon="16.090145"><ele>716</ele></trkpt>
<trkpt lat="49.693013" lon="16.090995"><ele>717</ele></trkpt>
<trkpt lat="49.692628" lon="16.090850"><ele>712</ele></trkpt>
<trkpt lat="49.691932" lon="16.090089"><ele>700</ele></trkpt>
<trkpt lat="49.691138" lon="16.089204"><ele>682</ele></trkpt>
<trkpt lat="49.689634" lon="16.087467"><ele>656</ele></trkpt>
<trkpt lat="49.689041" lon="16.086699"><ele>646</ele></trkpt>
<trkpt lat="49.688322" lon="16.086906"><ele>640</ele></trkpt>
<trkpt lat="49.687488" lon="16.086569"><ele>634</ele></trkpt>
<trkpt lat="49.687110" lon="16.086418"><ele>631</ele></trkpt>
<trkpt lat="49.686765" lon="16.086258"><ele>628</ele></trkpt>
<trkpt lat="49.686588" lon="16.086187"><ele>627</ele></trkpt>
<trkpt lat="49.686592" lon="16.086253"><ele>630</ele></trkpt>
<trkpt lat="49.686588" lon="16.086187"><ele>627</ele></trkpt>
<trkpt lat="49.686301" lon="16.086208"><ele>626</ele></trkpt>
<trkpt lat="49.686013" lon="16.086311"><ele>626</ele></trkpt>
<trkpt lat="49.685400" lon="16.086765"><ele>628</ele></trkpt>
<trkpt lat="49.685052" lon="16.087097"><ele>628</ele></trkpt>
<trkpt lat="49.684994" lon="16.087152"><ele>628</ele></trkpt>
<trkpt lat="49.684606" lon="16.087285"><ele>628</ele></trkpt>
<trkpt lat="49.684380" lon="16.087332"><ele>627</ele></trkpt>
<trkpt lat="49.684159" lon="16.087309"><ele>626</ele></trkpt>
<trkpt lat="49.683963" lon="16.087306"><ele>625</ele></trkpt>
<trkpt lat="49.683825" lon="16.087358"><ele>625</ele></trkpt>
<trkpt lat="49.683507" lon="16.087643"><ele>625</ele></trkpt>
<trkpt lat="49.683231" lon="16.087779"><ele>624</ele></trkpt>
<trkpt lat="49.683062" lon="16.087878"><ele>624</ele></trkpt>
<trkpt lat="49.682851" lon="16.088099"><ele>624</ele></trkpt>
<trkpt lat="49.682748" lon="16.088185"><ele>624</ele></trkpt>
<trkpt lat="49.682609" lon="16.088266"><ele>623</ele></trkpt>
<trkpt lat="49.682493" lon="16.088280"><ele>622</ele></trkpt>
<trkpt lat="49.682318" lon="16.088216"><ele>621</ele></trkpt>
<trkpt lat="49.681841" lon="16.087958"><ele>616</ele></trkpt>
<trkpt lat="49.681545" lon="16.087852"><ele>613</ele></trkpt>
<trkpt lat="49.681208" lon="16.087749"><ele>611</ele></trkpt>
<trkpt lat="49.680776" lon="16.087674"><ele>608</ele></trkpt>
<trkpt lat="49.679468" lon="16.087344"><ele>602</ele></trkpt>
<trkpt lat="49.675431" lon="16.086324"><ele>591</ele></trkpt>
<trkpt lat="49.675276" lon="16.086268"><ele>591</ele></trkpt>
<trkpt lat="49.675005" lon="16.087585"><ele>591</ele></trkpt>
<trkpt lat="49.674964" lon="16.087776"><ele>592</ele></trkpt>
<trkpt lat="49.674962" lon="16.087896"><ele>592</ele></trkpt>
<trkpt lat="49.674975" lon="16.087952"><ele>593</ele></trkpt>
<trkpt lat="49.674825" lon="16.087953"><ele>593</ele></trkpt>
<trkpt lat="49.674653" lon="16.087915"><ele>592</ele></trkpt>
<trkpt lat="49.674222" lon="16.087918"><ele>591</ele></trkpt>
<trkpt lat="49.673742" lon="16.088070"><ele>590</ele></trkpt>
<trkpt lat="49.673390" lon="16.088227"><ele>590</ele></trkpt>
<trkpt lat="49.673103" lon="16.088455"><ele>590</ele></trkpt>
<trkpt lat="49.672814" lon="16.088702"><ele>590</ele></trkpt>
<trkpt lat="49.672612" lon="16.088792"><ele>590</ele></trkpt>
<trkpt lat="49.672549" lon="16.088839"><ele>590</ele></trkpt>
<trkpt lat="49.672397" lon="16.089364"><ele>590</ele></trkpt>
<trkpt lat="49.672272" lon="16.089909"><ele>589</ele></trkpt>
<trkpt lat="49.672126" lon="16.090642"><ele>590</ele></trkpt>
<trkpt lat="49.672092" lon="16.091074"><ele>590</ele></trkpt>
<trkpt lat="49.672235" lon="16.092058"><ele>590</ele></trkpt>
<trkpt lat="49.672384" lon="16.092529"><ele>590</ele></trkpt>
<trkpt lat="49.672118" lon="16.092782"><ele>589</ele></trkpt>
<trkpt lat="49.672024" lon="16.092826"><ele>588</ele></trkpt>
<trkpt lat="49.671906" lon="16.092862"><ele>587</ele></trkpt>
<trkpt lat="49.671857" lon="16.092838"><ele>587</ele></trkpt>
<trkpt lat="49.671818" lon="16.092810"><ele>587</ele></trkpt>
<trkpt lat="49.671783" lon="16.092813"><ele>588</ele></trkpt>
<trkpt lat="49.671755" lon="16.092831"><ele>588</ele></trkpt>
<trkpt lat="49.671723" lon="16.092804"><ele>588</ele></trkpt>
<trkpt lat="49.671662" lon="16.092714"><ele>588</ele></trkpt>
<trkpt lat="49.671582" lon="16.092647"><ele>588</ele></trkpt>
<trkpt lat="49.671509" lon="16.092556"><ele>588</ele></trkpt>
<trkpt lat="49.671473" lon="16.092544"><ele>588</ele></trkpt>
<trkpt lat="49.671397" lon="16.092512"><ele>588</ele></trkpt>
<trkpt lat="49.671374" lon="16.092513"><ele>588</ele></trkpt>
<trkpt lat="49.671333" lon="16.092550"><ele>588</ele></trkpt>
<trkpt lat="49.671299" lon="16.092611"><ele>588</ele></trkpt>
<trkpt lat="49.671289" lon="16.092632"><ele>588</ele></trkpt>
<trkpt lat="49.671237" lon="16.092747"><ele>588</ele></trkpt>
<trkpt lat="49.670762" lon="16.092746"><ele>588</ele></trkpt>
<trkpt lat="49.670562" lon="16.092674"><ele>588</ele></trkpt>
<trkpt lat="49.670363" lon="16.092551"><ele>588</ele></trkpt>
<trkpt lat="49.670099" lon="16.092420"><ele>588</ele></trkpt>
<trkpt lat="49.669981" lon="16.092403"><ele>588</ele></trkpt>
<trkpt lat="49.669941" lon="16.092382"><ele>588</ele></trkpt>
<trkpt lat="49.669748" lon="16.091974"><ele>589</ele></trkpt>
<trkpt lat="49.669364" lon="16.091524"><ele>590</ele></trkpt>
<trkpt lat="49.668761" lon="16.090784"><ele>594</ele></trkpt>
<trkpt lat="49.668406" lon="16.090573"><ele>596</ele></trkpt>
<trkpt lat="49.668282" lon="16.090758"><ele>596</ele></trkpt>
<trkpt lat="49.668179" lon="16.090582"><ele>596</ele></trkpt>
<trkpt lat="49.668085" lon="16.090717"><ele>596</ele></trkpt>
<trkpt lat="49.667868" lon="16.090951"><ele>596</ele></trkpt>
<trkpt lat="49.667797" lon="16.090992"><ele>595</ele></trkpt>
<trkpt lat="49.667824" lon="16.091127"><ele>595</ele></trkpt>
</trkseg></trk>
</gpx>
