<?xml version="1.0" encoding="UTF-8"?>
<gpx version="1.1" creator="Vysočina 2026 – Mlýn Vikinek" xmlns="http://www.topografix.com/GPX/1/1">
<metadata><name>Tisůvka: skály za humny</name><desc>Krátký okruh z mlýna ke skalní hradbě Tisůvka a přes Zubačku zpět.</desc></metadata>
<wpt lat="49.651780" lon="15.949450"><name>Tisůvka (804 m)</name><desc>Nejbližší skály: 58 m dlouhá rulová hradba, až 15 m vysoká, skoro za humny.</desc></wpt>
<wpt lat="49.647880" lon="15.962570"><name>Restaurace a penzion Tisůvka</name><desc>Nejbližší restaurace, 600 m od mlýna, s dětským koutkem. Pozor: ve čtvrtek 8. a v pátek 9. 10. má zavřeno.</desc></wpt>
<trk><name>Tisůvka: skály za humny</name><trkseg>
<trkpt lat="49.643916" lon="15.968121"><ele>658</ele></trkpt>
<trkpt lat="49.644152" lon="15.967435"><ele>660</ele></trkpt>
<trkpt lat="49.644313" lon="15.966793"><ele>660</ele></trkpt>
<trkpt lat="49.644443" lon="15.966914"><ele>662</ele></trkpt>
<trkpt lat="49.645041" lon="15.967409"><ele>667</ele></trkpt>
<trkpt lat="49.645077" lon="15.967326"><ele>667</ele></trkpt>
<trkpt lat="49.645529" lon="15.966303"><ele>667</ele></trkpt>
<trkpt lat="49.645584" lon="15.966142"><ele>667</ele></trkpt>
<trkpt lat="49.645676" lon="15.965869"><ele>667</ele></trkpt>
<trkpt lat="49.645796" lon="15.965773"><ele>667</ele></trkpt>
<trkpt lat="49.645890" lon="15.965759"><ele>668</ele></trkpt>
<trkpt lat="49.645969" lon="15.965782"><ele>668</ele></trkpt>
<trkpt lat="49.646053" lon="15.965847"><ele>669</ele></trkpt>
<trkpt lat="49.646122" lon="15.965939"><ele>669</ele></trkpt>
<trkpt lat="49.646208" lon="15.966034"><ele>670</ele></trkpt>
<trkpt lat="49.646312" lon="15.966111"><ele>670</ele></trkpt>
<trkpt lat="49.646440" lon="15.966247"><ele>671</ele></trkpt>
<trkpt lat="49.646551" lon="15.966427"><ele>672</ele></trkpt>
<trkpt lat="49.646581" lon="15.966496"><ele>672</ele></trkpt>
<trkpt lat="49.646761" lon="15.966923"><ele>674</ele></trkpt>
<trkpt lat="49.646874" lon="15.967086"><ele>674</ele></trkpt>
<trkpt lat="49.647162" lon="15.967350"><ele>676</ele></trkpt>
<trkpt lat="49.647283" lon="15.967442"><ele>677</ele></trkpt>
<trkpt lat="49.647387" lon="15.967492"><ele>678</ele></trkpt>
<trkpt lat="49.647544" lon="15.967540"><ele>679</ele></trkpt>
<trkpt lat="49.647682" lon="15.967544"><ele>680</ele></trkpt>
<trkpt lat="49.648227" lon="15.967406"><ele>684</ele></trkpt>
<trkpt lat="49.648604" lon="15.967200"><ele>687</ele></trkpt>
<trkpt lat="49.648884" lon="15.966973"><ele>688</ele></trkpt>
<trkpt lat="49.649151" lon="15.966628"><ele>690</ele></trkpt>
<trkpt lat="49.649310" lon="15.966377"><ele>690</ele></trkpt>
<trkpt lat="49.649474" lon="15.966134"><ele>690</ele></trkpt>
<trkpt lat="49.649651" lon="15.965931"><ele>691</ele></trkpt>
<trkpt lat="49.649867" lon="15.965737"><ele>692</ele></trkpt>
<trkpt lat="49.650090" lon="15.965550"><ele>692</ele></trkpt>
<trkpt lat="49.650381" lon="15.965276"><ele>694</ele></trkpt>
<trkpt lat="49.650505" lon="15.965173"><ele>694</ele></trkpt>
<trkpt lat="49.650569" lon="15.965143"><ele>694</ele></trkpt>
<trkpt lat="49.650758" lon="15.965084"><ele>696</ele></trkpt>
<trkpt lat="49.651132" lon="15.965019"><ele>699</ele></trkpt>
<trkpt lat="49.651335" lon="15.964998"><ele>700</ele></trkpt>
<trkpt lat="49.651672" lon="15.964918"><ele>700</ele></trkpt>
<trkpt lat="49.652139" lon="15.964738"><ele>702</ele></trkpt>
<trkpt lat="49.652379" lon="15.964581"><ele>702</ele></trkpt>
<trkpt lat="49.653121" lon="15.964019"><ele>702</ele></trkpt>
<trkpt lat="49.653280" lon="15.962186"><ele>704</ele></trkpt>
<trkpt lat="49.653274" lon="15.961769"><ele>704</ele></trkpt>
<trkpt lat="49.653441" lon="15.960358"><ele>708</ele></trkpt>
<trkpt lat="49.653617" lon="15.959340"><ele>710</ele></trkpt>
<trkpt lat="49.653744" lon="15.958939"><ele>712</ele></trkpt>
<trkpt lat="49.653817" lon="15.958710"><ele>712</ele></trkpt>
<trkpt lat="49.654005" lon="15.958331"><ele>714</ele></trkpt>
<trkpt lat="49.654014" lon="15.957844"><ele>716</ele></trkpt>
<trkpt lat="49.654088" lon="15.957340"><ele>718</ele></trkpt>
<trkpt lat="49.654097" lon="15.957038"><ele>720</ele></trkpt>
<trkpt lat="49.654023" lon="15.956189"><ele>725</ele></trkpt>
<trkpt lat="49.654042" lon="15.955887"><ele>727</ele></trkpt>
<trkpt lat="49.654135" lon="15.955527"><ele>729</ele></trkpt>
<trkpt lat="49.654116" lon="15.955009"><ele>732</ele></trkpt>
<trkpt lat="49.654153" lon="15.954635"><ele>734</ele></trkpt>
<trkpt lat="49.654022" lon="15.954253"><ele>737</ele></trkpt>
<trkpt lat="49.653942" lon="15.954067"><ele>738</ele></trkpt>
<trkpt lat="49.653796" lon="15.953329"><ele>742</ele></trkpt>
<trkpt lat="49.653620" lon="15.952833"><ele>748</ele></trkpt>
<trkpt lat="49.653349" lon="15.952553"><ele>752</ele></trkpt>
<trkpt lat="49.652877" lon="15.951593"><ele>768</ele></trkpt>
<trkpt lat="49.652409" lon="15.950806"><ele>778</ele></trkpt>
<trkpt lat="49.652287" lon="15.950546"><ele>781</ele></trkpt>
<trkpt lat="49.652253" lon="15.950299"><ele>783</ele></trkpt>
<trkpt lat="49.652089" lon="15.949998"><ele>787</ele></trkpt>
<trkpt lat="49.651978" lon="15.949886"><ele>788</ele></trkpt>
<trkpt lat="49.651928" lon="15.949657"><ele>789</ele></trkpt>
<trkpt lat="49.651966" lon="15.949454"><ele>788</ele></trkpt>
<trkpt lat="49.651970" lon="15.949438"><ele>788</ele></trkpt>
<trkpt lat="49.651974" lon="15.949285"><ele>788</ele></trkpt>
<trkpt lat="49.651939" lon="15.949152"><ele>787</ele></trkpt>
<trkpt lat="49.651837" lon="15.949044"><ele>787</ele></trkpt>
<trkpt lat="49.651738" lon="15.948916"><ele>787</ele></trkpt>
<trkpt lat="49.651671" lon="15.948773"><ele>786</ele></trkpt>
<trkpt lat="49.651596" lon="15.948602"><ele>785</ele></trkpt>
<trkpt lat="49.651512" lon="15.948254"><ele>782</ele></trkpt>
<trkpt lat="49.651345" lon="15.947405"><ele>774</ele></trkpt>
<trkpt lat="49.651268" lon="15.946881"><ele>768</ele></trkpt>
<trkpt lat="49.651200" lon="15.945967"><ele>759</ele></trkpt>
<trkpt lat="49.650932" lon="15.944395"><ele>742</ele></trkpt>
<trkpt lat="49.650507" lon="15.942289"><ele>722</ele></trkpt>
<trkpt lat="49.650261" lon="15.940021"><ele>708</ele></trkpt>
<trkpt lat="49.649908" lon="15.937914"><ele>700</ele></trkpt>
<trkpt lat="49.649635" lon="15.936353"><ele>698</ele></trkpt>
<trkpt lat="49.649632" lon="15.936335"><ele>698</ele></trkpt>
<trkpt lat="49.649287" lon="15.937575"><ele>696</ele></trkpt>
<trkpt lat="49.648902" lon="15.938770"><ele>696</ele></trkpt>
<trkpt lat="49.648610" lon="15.939435"><ele>695</ele></trkpt>
<trkpt lat="49.647852" lon="15.940697"><ele>692</ele></trkpt>
<trkpt lat="49.647607" lon="15.941207"><ele>692</ele></trkpt>
<trkpt lat="49.646526" lon="15.943174"><ele>689</ele></trkpt>
<trkpt lat="49.646373" lon="15.943451"><ele>688</ele></trkpt>
<trkpt lat="49.646148" lon="15.943990"><ele>687</ele></trkpt>
<trkpt lat="49.645581" lon="15.947115"><ele>689</ele></trkpt>
<trkpt lat="49.645498" lon="15.948854"><ele>692</ele></trkpt>
<trkpt lat="49.645436" lon="15.950570"><ele>692</ele></trkpt>
<trkpt lat="49.645456" lon="15.950979"><ele>693</ele></trkpt>
<trkpt lat="49.645289" lon="15.951186"><ele>691</ele></trkpt>
<trkpt lat="49.645156" lon="15.951578"><ele>689</ele></trkpt>
<trkpt lat="49.645108" lon="15.952064"><ele>687</ele></trkpt>
<trkpt lat="49.645059" lon="15.952773"><ele>685</ele></trkpt>
<trkpt lat="49.645011" lon="15.953614"><ele>681</ele></trkpt>
<trkpt lat="49.645047" lon="15.954697"><ele>678</ele></trkpt>
<trkpt lat="49.645096" lon="15.955650"><ele>674</ele></trkpt>
<trkpt lat="49.644999" lon="15.956902"><ele>669</ele></trkpt>
<trkpt lat="49.645088" lon="15.957100"><ele>669</ele></trkpt>
<trkpt lat="49.645153" lon="15.957411"><ele>669</ele></trkpt>
<trkpt lat="49.645025" lon="15.957833"><ele>666</ele></trkpt>
<trkpt lat="49.644872" lon="15.958051"><ele>664</ele></trkpt>
<trkpt lat="49.644793" lon="15.958527"><ele>662</ele></trkpt>
<trkpt lat="49.644660" lon="15.959536"><ele>660</ele></trkpt>
<trkpt lat="49.644503" lon="15.960227"><ele>660</ele></trkpt>
<trkpt lat="49.644588" lon="15.960733"><ele>663</ele></trkpt>
<trkpt lat="49.644229" lon="15.961285"><ele>661</ele></trkpt>
<trkpt lat="49.644089" lon="15.961750"><ele>661</ele></trkpt>
<trkpt lat="49.643993" lon="15.962138"><ele>661</ele></trkpt>
<trkpt lat="49.643941" lon="15.962421"><ele>660</ele></trkpt>
<trkpt lat="49.643953" lon="15.962890"><ele>660</ele></trkpt>
<trkpt lat="49.643913" lon="15.963321"><ele>660</ele></trkpt>
<trkpt lat="49.643802" lon="15.963679"><ele>656</ele></trkpt>
<trkpt lat="49.643781" lon="15.963909"><ele>655</ele></trkpt>
<trkpt lat="49.643880" lon="15.964755"><ele>656</ele></trkpt>
<trkpt lat="49.643917" lon="15.964825"><ele>656</ele></trkpt>
<trkpt lat="49.644013" lon="15.964867"><ele>656</ele></trkpt>
<trkpt lat="49.644156" lon="15.964909"><ele>657</ele></trkpt>
<trkpt lat="49.644295" lon="15.964890"><ele>656</ele></trkpt>
<trkpt lat="49.644434" lon="15.964890"><ele>656</ele></trkpt>
<trkpt lat="49.644483" lon="15.964919"><ele>656</ele></trkpt>
<trkpt lat="49.644483" lon="15.964989"><ele>655</ele></trkpt>
<trkpt lat="49.644528" lon="15.965306"><ele>655</ele></trkpt>
<trkpt lat="49.644553" lon="15.965547"><ele>656</ele></trkpt>
<trkpt lat="49.643848" lon="15.966364"><ele>656</ele></trkpt>
<trkpt lat="49.644313" lon="15.966793"><ele>660</ele></trkpt>
<trkpt lat="49.644152" lon="15.967435"><ele>660</ele></trkpt>
<trkpt lat="49.643916" lon="15.968121"><ele>658</ele></trkpt>
</trkseg></trk>
</gpx>
