{
 "type": "FeatureCollection",
 "features": [
  {
   "type": "Feature",
   "properties": {
    "creator": "BRouter-1.7.10",
    "name": "brouter_trekking_0",
    "track-length": "20280",
    "filtered ascend": "137",
    "plain-ascend": "0",
    "total-time": "3988",
    "total-energy": "394234",
    "cost": "34253",
    "messages": [
     [
      "Longitude",
      "Latitude",
      "Elevation",
      "Distance",
      "CostPerKm",
      "ElevCost",
      "TurnCost",
      "NodeCost",
      "InitialCost",
      "WayTags",
      "NodeTags",
      "Time",
      "Energy"
     ],
     [
      "15966793",
      "49644313",
      "660",
      "106",
      "1550",
      "0",
      "0",
      "0",
      "0",
      "reversedirection=yes highway=residential surface=unpaved oneway:bicycle=no",
      "estimated_crossing_class=1",
      "26",
      "2602"
     ],
     [
      "15966364",
      "49643848",
      "655",
      "60",
      "1650",
      "0",
      "74",
      "0",
      "0",
      "reversedirection=yes highway=secondary surface=asphalt cycleway:both=no",
      "estimated_crossing_class=1",
      "34",
      "3444"
     ],
     [
      "15963712",
      "49647133",
      "668",
      "415",
      "1150",
      "0",
      "125",
      "0",
      "0",
      "reversedirection=yes highway=residential surface=paved",
      "",
      "144",
      "14457"
     ],
     [
      "15962766",
      "49647942",
      "674",
      "117",
      "1150",
      "0",
      "6",
      "0",
      "0",
      "reversedirection=yes highway=residential surface=asphalt",
      "",
      "189",
      "18947"
     ],
     [
      "15959676",
      "49647268",
      "686",
      "251",
      "2050",
      "0",
      "24",
      "0",
      "0",
      "reversedirection=yes highway=track surface=gravel tracktype=grade2",
      "",
      "326",
      "32617"
     ],
     [
      "15958800",
      "49647725",
      "691",
      "86",
      "1150",
      "0",
      "60",
      "0",
      "0",
      "reversedirection=yes highway=track tracktype=grade2 foot=yes bicycle=yes",
      "",
      "368",
      "36845"
     ],
     [
      "15947115",
      "49645581",
      "688",
      "910",
      "1150",
      "0",
      "56",
      "0",
      "0",
      "reversedirection=yes highway=track surface=fine_gravel tracktype=grade2 foot=yes bicycle=yes",
      "",
      "555",
      "55582"
     ],
     [
      "15937085",
      "49645186",
      "675",
      "736",
      "2050",
      "0",
      "6",
      "0",
      "0",
      "highway=track surface=unpaved tracktype=grade2 foot=yes bicycle=yes",
      "",
      "635",
      "63582"
     ],
     [
      "15928315",
      "49636629",
      "653",
      "1217",
      "2050",
      "0",
      "75",
      "0",
      "0",
      "highway=track tracktype=grade2",
      "",
      "798",
      "79909"
     ],
     [
      "15927478",
      "49636300",
      "650",
      "72",
      "1150",
      "0",
      "5",
      "0",
      "0",
      "reversedirection=yes highway=residential surface=asphalt",
      "",
      "804",
      "80475"
     ],
     [
      "15928575",
      "49634792",
      "647",
      "194",
      "1150",
      "49",
      "98",
      "0",
      "0",
      "highway=residential surface=asphalt",
      "",
      "824",
      "82445"
     ],
     [
      "15930263",
      "49634262",
      "651",
      "179",
      "1350",
      "0",
      "84",
      "0",
      "0",
      "highway=unclassified surface=asphalt",
      "",
      "853",
      "85335"
     ],
     [
      "15925956",
      "49634577",
      "652",
      "385",
      "1350",
      "0",
      "272",
      "0",
      "0",
      "reversedirection=yes highway=unclassified surface=asphalt",
      "",
      "921",
      "92119"
     ],
     [
      "15925966",
      "49634490",
      "652",
      "10",
      "1450",
      "0",
      "64",
      "0",
      "0",
      "reversedirection=yes highway=tertiary surface=asphalt",
      "",
      "923",
      "92338"
     ],
     [
      "15922020",
      "49633085",
      "649",
      "334",
      "1150",
      "0",
      "61",
      "0",
      "0",
      "highway=residential surface=asphalt",
      "highway=stop direction=forward",
      "990",
      "99049"
     ],
     [
      "15921804",
      "49633081",
      "649",
      "16",
      "1150",
      "0",
      "0",
      "0",
      "0",
      "highway=residential surface=asphalt",
      "estimated_crossing_class=2",
      "992",
      "99261"
     ],
     [
      "15921615",
      "49633084",
      "648",
      "14",
      "1050",
      "0",
      "0",
      "0",
      "0",
      "highway=track surface=asphalt tracktype=grade1",
      "highway=stop direction=backward",
      "994",
      "99434"
     ],
     [
      "15901556",
      "49631769",
      "616",
      "1483",
      "1050",
      "738",
      "29",
      "0",
      "0",
      "highway=track surface=asphalt tracktype=grade1",
      "",
      "1170",
      "114873"
     ],
     [
      "15898240",
      "49631302",
      "617",
      "246",
      "1000",
      "0",
      "0",
      "0",
      "0",
      "reversedirection=yes highway=track surface=fine_gravel tracktype=grade2 bicycle=yes route_bicycle_icn=yes",
      "",
      "1216",
      "119480"
     ],
     [
      "15890229",
      "49631141",
      "620",
      "586",
      "1000",
      "0",
      "0",
      "0",
      "0",
      "reversedirection=yes highway=track tracktype=grade3 foot=yes bicycle=yes route_bicycle_icn=yes",
      "",
      "1335",
      "131331"
     ],
     [
      "15888819",
      "49631798",
      "617",
      "126",
      "1000",
      "0",
      "0",
      "0",
      "0",
      "reversedirection=yes highway=track surface=compacted tracktype=grade2 foot=yes bicycle=yes route_bicycle_icn=yes",
      "",
      "1349",
      "132803"
     ],
     [
      "15888772",
      "49631743",
      "617",
      "7",
      "5050",
      "0",
      "93",
      "0",
      "0",
      "reversedirection=yes highway=path surface=unpaved",
      "",
      "1350",
      "132886"
     ],
     [
      "15888819",
      "49631798",
      "617",
      "7",
      "5050",
      "0",
      "0",
      "0",
      "0",
      "highway=path surface=unpaved",
      "",
      "1351",
      "133004"
     ],
     [
      "15885135",
      "49635227",
      "618",
      "520",
      "1000",
      "0",
      "0",
      "0",
      "0",
      "reversedirection=yes highway=track surface=compacted tracktype=grade2 foot=yes bicycle=yes route_bicycle_icn=yes",
      "",
      "1442",
      "142098"
     ],
     [
      "15882060",
      "49638923",
      "618",
      "468",
      "1000",
      "0",
      "0",
      "0",
      "0",
      "reversedirection=yes highway=track tracktype=grade3 bicycle=yes route_bicycle_icn=yes",
      "",
      "1524",
      "150217"
     ],
     [
      "15880578",
      "49640936",
      "619",
      "293",
      "1000",
      "0",
      "0",
      "0",
      "0",
      "reversedirection=yes highway=path surface=wood bicycle=yes route_bicycle_icn=yes",
      "",
      "1577",
      "155510"
     ],
     [
      "15883340",
      "49646471",
      "618",
      "735",
      "1000",
      "0",
      "0",
      "0",
      "0",
      "reversedirection=yes highway=track tracktype=grade2 bicycle=yes route_bicycle_icn=yes",
      "nodeaccessgranted=yes barrier=bollard",
      "1702",
      "168037"
     ],
     [
      "15882458",
      "49651732",
      "620",
      "734",
      "1000",
      "0",
      "0",
      "0",
      "0",
      "reversedirection=yes highway=track tracktype=grade2 bicycle=yes route_bicycle_icn=yes",
      "",
      "1834",
      "181291"
     ],
     [
      "15875405",
      "49652771",
      "625",
      "534",
      "1000",
      "0",
      "0",
      "0",
      "0",
      "reversedirection=yes highway=residential surface=asphalt route_bicycle_icn=yes",
      "",
      "1945",
      "192365"
     ],
     [
      "15875789",
      "49653408",
      "625",
      "77",
      "1000",
      "0",
      "0",
      "0",
      "0",
      "highway=residential surface=asphalt route_bicycle_icn=yes",
      "",
      "1958",
      "193679"
     ],
     [
      "15880320",
      "49653003",
      "621",
      "346",
      "1150",
      "0",
      "118",
      "0",
      "0",
      "reversedirection=yes highway=residential surface=asphalt",
      "",
      "2008",
      "198619"
     ],
     [
      "15886898",
      "49655941",
      "619",
      "593",
      "1350",
      "0",
      "51",
      "0",
      "0",
      "reversedirection=yes highway=unclassified surface=asphalt",
      "",
      "2101",
      "208004"
     ],
     [
      "15904328",
      "49656087",
      "641",
      "1343",
      "1350",
      "0",
      "33",
      "0",
      "0",
      "reversedirection=yes highway=unclassified surface=asphalt smoothness=intermediate",
      "estimated_crossing_class=1",
      "2465",
      "244397"
     ],
     [
      "15904389",
      "49655953",
      "641",
      "16",
      "3050",
      "0",
      "85",
      "0",
      "0",
      "highway=primary surface=asphalt",
      "estimated_crossing_class=1",
      "2468",
      "244697"
     ],
     [
      "15904526",
      "49655652",
      "640",
      "35",
      "3050",
      "0",
      "0",
      "0",
      "0",
      "highway=primary surface=asphalt",
      "highway=bus_stop direction=backward",
      "2478",
      "245716"
     ],
     [
      "15906346",
      "49653289",
      "635",
      "295",
      "3050",
      "0",
      "0",
      "0",
      "0",
      "highway=primary surface=asphalt",
      "estimated_crossing_class=1",
      "2530",
      "250891"
     ],
     [
      "15906954",
      "49652641",
      "633",
      "84",
      "3050",
      "0",
      "0",
      "0",
      "0",
      "highway=primary surface=asphalt",
      "estimated_crossing_class=1",
      "2540",
      "251896"
     ],
     [
      "15907995",
      "49651531",
      "632",
      "145",
      "3050",
      "0",
      "0",
      "0",
      "0",
      "highway=primary surface=asphalt",
      "estimated_crossing_class=1",
      "2559",
      "253739"
     ],
     [
      "15909261",
      "49650180",
      "632",
      "176",
      "3050",
      "0",
      "0",
      "0",
      "0",
      "highway=primary surface=asphalt",
      "estimated_crossing_class=1",
      "2588",
      "256693"
     ],
     [
      "15909389",
      "49650043",
      "632",
      "18",
      "3050",
      "0",
      "0",
      "0",
      "0",
      "highway=primary surface=asphalt",
      "",
      "2591",
      "256996"
     ],
     [
      "15911288",
      "49648011",
      "630",
      "264",
      "3050",
      "0",
      "0",
      "0",
      "0",
      "highway=primary surface=asphalt cycleway:both=no",
      "",
      "2629",
      "260741"
     ],
     [
      "15911708",
      "49647522",
      "631",
      "62",
      "3050",
      "0",
      "0",
      "0",
      "0",
      "highway=primary surface=asphalt",
      "estimated_crossing_class=1",
      "2635",
      "261379"
     ],
     [
      "15911852",
      "49647354",
      "630",
      "21",
      "3050",
      "0",
      "0",
      "0",
      "0",
      "highway=primary surface=asphalt",
      "estimated_crossing_class=1",
      "2637",
      "261618"
     ],
     [
      "15914494",
      "49647046",
      "637",
      "197",
      "1150",
      "0",
      "87",
      "0",
      "0",
      "reversedirection=yes highway=residential surface=asphalt",
      "",
      "2688",
      "266688"
     ],
     [
      "15915387",
      "49646803",
      "638",
      "70",
      "1650",
      "0",
      "10",
      "0",
      "0",
      "highway=service surface=unpaved",
      "",
      "2708",
      "268629"
     ],
     [
      "15914675",
      "49642950",
      "625",
      "447",
      "1150",
      "0",
      "44",
      "0",
      "0",
      "reversedirection=yes highway=residential surface=asphalt",
      "estimated_crossing_class=1",
      "2766",
      "274428"
     ],
     [
      "15916261",
      "49641019",
      "622",
      "243",
      "3050",
      "0",
      "34",
      "0",
      "0",
      "highway=primary surface=asphalt",
      "estimated_crossing_class=1",
      "2791",
      "277024"
     ],
     [
      "15918503",
      "49638903",
      "634",
      "286",
      "3050",
      "0",
      "0",
      "0",
      "0",
      "highway=primary surface=asphalt",
      "estimated_crossing_class=2",
      "2865",
      "284358"
     ],
     [
      "15918724",
      "49638937",
      "635",
      "16",
      "1450",
      "0",
      "57",
      "0",
      "0",
      "reversedirection=yes highway=tertiary surface=asphalt",
      "highway=stop direction=forward",
      "2869",
      "284782"
     ],
     [
      "15925510",
      "49636694",
      "656",
      "572",
      "1450",
      "0",
      "11",
      "0",
      "0",
      "reversedirection=yes highway=tertiary surface=asphalt",
      "",
      "3116",
      "309518"
     ],
     [
      "15928315",
      "49636629",
      "653",
      "225",
      "1150",
      "0",
      "133",
      "0",
      "0",
      "highway=residential surface=asphalt",
      "",
      "3159",
      "313780"
     ],
     [
      "15937085",
      "49645186",
      "675",
      "1217",
      "2050",
      "0",
      "73",
      "0",
      "0",
      "reversedirection=yes highway=track tracktype=grade2",
      "",
      "3485",
      "346362"
     ],
     [
      "15947115",
      "49645581",
      "688",
      "736",
      "2050",
      "0",
      "11",
      "0",
      "0",
      "reversedirection=yes highway=track surface=unpaved tracktype=grade2 foot=yes bicycle=yes",
      "",
      "3684",
      "366300"
     ],
     [
      "15958800",
      "49647725",
      "691",
      "910",
      "1150",
      "0",
      "9",
      "0",
      "0",
      "highway=track surface=fine_gravel tracktype=grade2 foot=yes bicycle=yes",
      "",
      "3864",
      "384345"
     ],
     [
      "15959676",
      "49647268",
      "686",
      "86",
      "1150",
      "0",
      "96",
      "0",
      "0",
      "highway=track tracktype=grade2 foot=yes bicycle=yes",
      "",
      "3874",
      "385349"
     ],
     [
      "15962766",
      "49647942",
      "674",
      "251",
      "2050",
      "101",
      "35",
      "0",
      "0",
      "highway=track surface=gravel tracktype=grade2",
      "",
      "3900",
      "387647"
     ],
     [
      "15963712",
      "49647133",
      "668",
      "117",
      "1150",
      "238",
      "6",
      "0",
      "0",
      "highway=residential surface=asphalt",
      "",
      "3910",
      "387647"
     ],
     [
      "15964597",
      "49645748",
      "660",
      "167",
      "1150",
      "314",
      "0",
      "0",
      "0",
      "highway=residential surface=paved",
      "",
      "3923",
      "387795"
     ],
     [
      "15965869",
      "49645676",
      "666",
      "93",
      "1050",
      "0",
      "58",
      "0",
      "0",
      "highway=track surface=concrete tracktype=grade1",
      "",
      "3939",
      "389421"
     ],
     [
      "15967409",
      "49645041",
      "667",
      "132",
      "1150",
      "0",
      "4",
      "0",
      "0",
      "highway=residential surface=asphalt",
      "estimated_crossing_class=1",
      "3966",
      "392091"
     ],
     [
      "15966793",
      "49644313",
      "660",
      "93",
      "1650",
      "0",
      "80",
      "0",
      "0",
      "reversedirection=yes highway=secondary surface=asphalt cycleway:both=no",
      "estimated_crossing_class=1",
      "3977",
      "393161"
     ],
     [
      "15968121",
      "49643916",
      "658",
      "106",
      "1550",
      "0",
      "105",
      "0",
      "0",
      "highway=residential surface=unpaved oneway:bicycle=no",
      "",
      "3987",
      "394234"
     ]
    ],
    "times": [
     0,
     13.678,
     26.015,
     34.431,
     45.407,
     51.699,
     57.054,
     71.78,
     139.537,
     144.55,
     167.057,
     173.818,
     183.13,
     189.441,
     195.074,
     205.727,
     214.396,
     223.948,
     243.809,
     260.134,
     273.882,
     281.88,
     297.523,
     308.167,
     319.53,
     322.731,
     326.129,
     328.912,
     332.655,
     358.864,
     368.403,
     375.539,
     382.203,
     460.264,
     475.476,
     483.211,
     492.869,
     503.74,
     513.331,
     541.054,
     555.744,
     621.052,
     621.724,
     628.638,
     633.499,
     635.735,
     642.443,
     646.446,
     656.359,
     671.382,
     691.368,
     695.21,
     700.342,
     706.592,
     711.845,
     715.271,
     719.855,
     722.477,
     726.937,
     730.965,
     735.684,
     748.64,
     752.183,
     755.924,
     757.977,
     759.731,
     761.827,
     762.517,
     765.598,
     768.292,
     778.719,
     784.658,
     788.181,
     790.966,
     793.047,
     795.605,
     797.192,
     798.992,
     802.033,
     804.753,
     806.753,
     812.406,
     813.644,
     818.538,
     824.627,
     834.252,
     841.237,
     849.043,
     851.854,
     853.511,
     855.125,
     857.785,
     862.113,
     868.77,
     880.997,
     898.85,
     899.894,
     902.297,
     921.343,
     923.531,
     932.152,
     938.958,
     952.979,
     964.177,
     972.307,
     975.884,
     979.952,
     983.18,
     990.632,
     992.752,
     994.477,
     997.83,
     999.036,
     1002.396,
     1004.636,
     1008.316,
     1011.196,
     1014.156,
     1017.356,
     1020.156,
     1023.596,
     1029.599,
     1031.53,
     1036.22,
     1041.53,
     1043.61,
     1045.825,
     1049.307,
     1051.334,
     1056.331,
     1060.059,
     1063.398,
     1079.051,
     1080.487,
     1084.97,
     1093.453,
     1098.958,
     1100.835,
     1104.793,
     1112.042,
     1119.815,
     1133.377,
     1145.684,
     1166.242,
     1168.598,
     1169.439,
     1170.697,
     1172.796,
     1183.019,
     1209.106,
     1216.759,
     1222.852,
     1246.674,
     1267.487,
     1286.059,
     1294.716,
     1304.137,
     1335.256,
     1339.756,
     1347.923,
     1349.974,
     1350.803,
     1351.979,
     1360.8,
     1376.677,
     1391.964,
     1396.855,
     1410.658,
     1429.978,
     1442.917,
     1486.436,
     1495.123,
     1524.104,
     1551.266,
     1555.984,
     1559.735,
     1563.626,
     1577.027,
     1595.268,
     1605.364,
     1605.544,
     1612.937,
     1641.073,
     1645.261,
     1676.565,
     1702.265,
     1705.755,
     1710.917,
     1714.927,
     1719.222,
     1726.802,
     1734.779,
     1742.259,
     1755.998,
     1764.663,
     1768.156,
     1771.733,
     1775.333,
     1780.854,
     1805.128,
     1815.809,
     1821.276,
     1827.706,
     1834.795,
     1838.918,
     1865.865,
     1874.372,
     1878.037,
     1881.576,
     1885.387,
     1889.449,
     1899.169,
     1903.73,
     1915.362,
     1925.055,
     1945.516,
     1946.721,
     1947.057,
     1949.892,
     1952.797,
     1958.652,
     1967.234,
     1969.528,
     1970.765,
     1978.389,
     1979.559,
     1987.967,
     1989.685,
     1992.761,
     1996.242,
     1999.372,
     2001.342,
     2005.012,
     2008.046,
     2015.485,
     2028.382,
     2062.106,
     2069.254,
     2098.698,
     2101.9,
     2107.429,
     2119.712,
     2138.206,
     2144.2,
     2156.125,
     2164.099,
     2175.91,
     2192.607,
     2208.69,
     2220.375,
     2232.637,
     2248.094,
     2251.707,
     2253.807,
     2268.442,
     2276.199,
     2278.633,
     2282.269,
     2288.897,
     2295.539,
     2296.737,
     2465.772,
     2468.771,
     2478.958,
     2488.424,
     2497.103,
     2500.097,
     2506.266,
     2511.353,
     2530.709,
     2540.754,
     2559.167,
     2588.71,
     2591.733,
     2616.972,
     2629.164,
     2635.549,
     2637.938,
     2639.866,
     2641.303,
     2648.034,
     2650.63,
     2653.99,
     2658.682,
     2666.04,
     2679.187,
     2682.318,
     2688.626,
     2702.823,
     2707.133,
     2708.031,
     2710.53,
     2716.651,
     2727.792,
     2735.102,
     2739.591,
     2743.845,
     2744.699,
     2746.739,
     2759.852,
     2761.783,
     2766.01,
     2771.718,
     2777.4,
     2782.17,
     2791.956,
     2818.424,
     2865.283,
     2869.523,
     2872.461,
     2875.919,
     2883.467,
     2887.98,
     2909.9,
     3072.25,
     3084.472,
     3087.216,
     3093.273,
     3102.32,
     3106.94,
     3116.854,
     3125.661,
     3132.161,
     3137.42,
     3142.647,
     3149.076,
     3159.462,
     3166.268,
     3171.828,
     3177.487,
     3182.494,
     3189.156,
     3201.35,
     3226.384,
     3258.546,
     3262.679,
     3268.604,
     3270.091,
     3274.824,
     3279.103,
     3285.014,
     3295.322,
     3301.42,
     3316.927,
     3323.151,
     3332.556,
     3346.652,
     3354.87,
     3355.05,
     3365.913,
     3371.636,
     3379.32,
     3386.6,
     3396.827,
     3404.017,
     3438.988,
     3465.188,
     3475.541,
     3479.75,
     3485.195,
     3486.954,
     3490.514,
     3496.386,
     3497.221,
     3684.511,
     3719.902,
     3745.03,
     3751.199,
     3763.103,
     3776.895,
     3786.595,
     3801.52,
     3855.957,
     3860.759,
     3864.936,
     3868.195,
     3873.337,
     3874.28,
     3874.976,
     3875.899,
     3876.782,
     3879.572,
     3881.629,
     3885.73,
     3887.428,
     3890.007,
     3892.746,
     3895.638,
     3896.933,
     3898.213,
     3899.813,
     3900.773,
     3901.893,
     3903.653,
     3905.173,
     3910.133,
     3911.613,
     3923.533,
     3927.6,
     3939.785,
     3944.768,
     3947.573,
     3966.481,
     3975.387,
     3977.182,
     3982.455,
     3987.914
    ]
   },
   "geometry": {
    "type": "LineString",
    "coordinates": [
     [
      15.968121,
      49.643916,
      658.0
     ],
     [
      15.967435,
      49.644152,
      659.75
     ],
     [
      15.966793,
      49.644313,
      660.5
     ],
     [
      15.966364,
      49.643848,
      655.5
     ],
     [
      15.965547,
      49.644553,
      656.25
     ],
     [
      15.96518,
      49.644851,
      656.75
     ],
     [
      15.964995,
      49.645083,
      657.5
     ],
     [
      15.964597,
      49.645748,
      660.75
     ],
     [
      15.963798,
      49.646981,
      668.25
     ],
     [
      15.963712,
      49.647133,
      668.5
     ],
     [
      15.963362,
      49.647641,
      670.75
     ],
     [
      15.963181,
      49.647762,
      671.75
     ],
     [
      15.962931,
      49.647878,
      673.25
     ],
     [
      15.962766,
      49.647942,
      674.25
     ],
     [
      15.962622,
      49.64799,
      675.0
     ],
     [
      15.962365,
      49.648046,
      676.5
     ],
     [
      15.962146,
      49.64808,
      677.5
     ],
     [
      15.961927,
      49.648063,
      679.0
     ],
     [
      15.96151,
      49.64795,
      680.5
     ],
     [
      15.961152,
      49.647831,
      681.75
     ],
     [
      15.960832,
      49.64775,
      683.0
     ],
     [
      15.960655,
      49.647701,
      684.25
     ],
     [
      15.960335,
      49.64759,
      685.75
     ],
     [
      15.96011,
      49.6475,
      686.5
     ],
     [
      15.959889,
      49.647337,
      686.5
     ],
     [
      15.959803,
      49.647287,
      686.25
     ],
     [
      15.959676,
      49.647268,
      686.25
     ],
     [
      15.959578,
      49.647287,
      686.75
     ],
     [
      15.95951,
      49.647356,
      687.25
     ],
     [
      15.959078,
      49.647707,
      690.0
     ],
     [
      15.9588,
      49.647725,
      691.0
     ],
     [
      15.958652,
      49.647582,
      690.5
     ],
     [
      15.958422,
      49.647425,
      689.75
     ],
     [
      15.953988,
      49.645919,
      691.5
     ],
     [
      15.952976,
      49.645608,
      692.0
     ],
     [
      15.952425,
      49.645516,
      692.25
     ],
     [
      15.9518,
      49.645496,
      693.0
     ],
     [
      15.950979,
      49.645456,
      692.75
     ],
     [
      15.95057,
      49.645436,
      692.25
     ],
     [
      15.948854,
      49.645498,
      692.0
     ],
     [
      15.947115,
      49.645581,
      688.75
     ],
     [
      15.938204,
      49.645569,
      671.5
     ],
     [
      15.938109,
      49.645549,
      671.75
     ],
     [
      15.937503,
      49.645318,
      673.25
     ],
     [
      15.937203,
      49.645215,
      674.5
     ],
     [
      15.937085,
      49.645186,
      675.5
     ],
     [
      15.936872,
      49.645066,
      677.0
     ],
     [
      15.936723,
      49.644895,
      678.0
     ],
     [
      15.936519,
      49.644593,
      676.75
     ],
     [
      15.935538,
      49.643966,
      674.75
     ],
     [
      15.933765,
      49.643349,
      673.5
     ],
     [
      15.933476,
      49.643165,
      672.75
     ],
     [
      15.933051,
      49.642874,
      671.5
     ],
     [
      15.932763,
      49.642547,
      669.25
     ],
     [
      15.932419,
      49.642335,
      669.25
     ],
     [
      15.932319,
      49.642141,
      669.0
     ],
     [
      15.932293,
      49.641776,
      667.25
     ],
     [
      15.932235,
      49.641546,
      666.0
     ],
     [
      15.931971,
      49.641182,
      665.0
     ],
     [
      15.931833,
      49.640917,
      665.75
     ],
     [
      15.931729,
      49.640623,
      665.75
     ],
     [
      15.93132,
      49.639969,
      666.25
     ],
     [
      15.931297,
      49.639752,
      665.75
     ],
     [
      15.931485,
      49.639404,
      662.5
     ],
     [
      15.931488,
      49.639202,
      661.75
     ],
     [
      15.931476,
      49.639039,
      661.5
     ],
     [
      15.93144,
      49.638864,
      661.5
     ],
     [
      15.931429,
      49.638812,
      661.75
     ],
     [
      15.931275,
      49.638651,
      662.75
     ],
     [
      15.931057,
      49.638488,
      664.25
     ],
     [
      15.9303,
      49.637804,
      663.0
     ],
     [
      15.929805,
      49.637406,
      661.25
     ],
     [
      15.929506,
      49.637249,
      658.5
     ],
     [
      15.92923,
      49.637126,
      657.75
     ],
     [
      15.929017,
      49.637018,
      656.75
     ],
     [
      15.928747,
      49.636832,
      655.25
     ],
     [
      15.92854,
      49.636754,
      654.75
     ],
     [
      15.928315,
      49.636629,
      653.5
     ],
     [
      15.927842,
      49.636487,
      651.75
     ],
     [
      15.927478,
      49.6363,
      650.25
     ],
     [
      15.927693,
      49.636129,
      649.0
     ],
     [
      15.92834,
      49.635681,
      647.5
     ],
     [
      15.928416,
      49.63559,
      647.75
     ],
     [
      15.928525,
      49.635234,
      648.25
     ],
     [
      15.928575,
      49.634792,
      647.75
     ],
     [
      15.928814,
      49.634149,
      647.25
     ],
     [
      15.929471,
      49.634221,
      650.25
     ],
     [
      15.929936,
      49.634241,
      652.0
     ],
     [
      15.930135,
      49.63425,
      651.75
     ],
     [
      15.930263,
      49.634262,
      651.5
     ],
     [
      15.930135,
      49.63425,
      651.75
     ],
     [
      15.929936,
      49.634241,
      652.0
     ],
     [
      15.929471,
      49.634221,
      650.25
     ],
     [
      15.928814,
      49.634149,
      647.25
     ],
     [
      15.928575,
      49.634792,
      647.75
     ],
     [
      15.927131,
      49.634597,
      647.75
     ],
     [
      15.927014,
      49.634646,
      648.5
     ],
     [
      15.926856,
      49.634798,
      649.0
     ],
     [
      15.925956,
      49.634577,
      652.75
     ],
     [
      15.925966,
      49.63449,
      652.5
     ],
     [
      15.92551,
      49.634346,
      653.0
     ],
     [
      15.925243,
      49.634205,
      654.0
     ],
     [
      15.924794,
      49.63389,
      655.0
     ],
     [
      15.924283,
      49.633623,
      655.0
     ],
     [
      15.923822,
      49.63341,
      654.75
     ],
     [
      15.923518,
      49.633316,
      653.75
     ],
     [
      15.923118,
      49.633213,
      653.0
     ],
     [
      15.922741,
      49.633151,
      652.0
     ],
     [
      15.92202,
      49.633085,
      649.5
     ],
     [
      15.921804,
      49.633081,
      649.0
     ],
     [
      15.921615,
      49.633084,
      648.5
     ],
     [
      15.921069,
      49.633073,
      645.5
     ],
     [
      15.920865,
      49.63306,
      644.0
     ],
     [
      15.920303,
      49.63295,
      641.0
     ],
     [
      15.919955,
      49.632845,
      639.25
     ],
     [
      15.919352,
      49.632712,
      636.5
     ],
     [
      15.918878,
      49.632623,
      633.75
     ],
     [
      15.918363,
      49.63258,
      632.0
     ],
     [
      15.917807,
      49.632594,
      631.0
     ],
     [
      15.917316,
      49.632598,
      629.25
     ],
     [
      15.916725,
      49.632656,
      627.5
     ],
     [
      15.915736,
      49.632739,
      626.0
     ],
     [
      15.915473,
      49.632737,
      626.0
     ],
     [
      15.914795,
      49.632628,
      624.5
     ],
     [
      15.914108,
      49.632475,
      623.75
     ],
     [
      15.913823,
      49.632432,
      622.75
     ],
     [
      15.91351,
      49.632398,
      622.0
     ],
     [
      15.912998,
      49.632367,
      621.0
     ],
     [
      15.912721,
      49.632344,
      620.75
     ],
     [
      15.912071,
      49.632125,
      619.25
     ],
     [
      15.911632,
      49.631964,
      618.75
     ],
     [
      15.911239,
      49.631872,
      618.5
     ],
     [
      15.909636,
      49.6317,
      618.75
     ],
     [
      15.909529,
      49.631689,
      618.75
     ],
     [
      15.909117,
      49.631733,
      618.0
     ],
     [
      15.908227,
      49.631842,
      617.0
     ],
     [
      15.907668,
      49.631948,
      616.5
     ],
     [
      15.907463,
      49.631969,
      616.0
     ],
     [
      15.907047,
      49.632013,
      616.0
     ],
     [
      15.906226,
      49.632076,
      615.0
     ],
     [
      15.905383,
      49.63209,
      614.5
     ],
     [
      15.904304,
      49.632031,
      615.5
     ],
     [
      15.90354,
      49.63199,
      616.75
     ],
     [
      15.901852,
      49.631897,
      616.0
     ],
     [
      15.901677,
      49.631846,
      616.0
     ],
     [
      15.901623,
      49.631812,
      616.0
     ],
     [
      15.901556,
      49.631769,
      616.25
     ],
     [
      15.901405,
      49.631744,
      617.75
     ],
     [
      15.900791,
      49.631647,
      617.75
     ],
     [
      15.898904,
      49.63145,
      617.75
     ],
     [
      15.89824,
      49.631302,
      617.0
     ],
     [
      15.897737,
      49.631174,
      617.0
     ],
     [
      15.896379,
      49.631029,
      619.25
     ],
     [
      15.895211,
      49.630972,
      620.5
     ],
     [
      15.894147,
      49.630911,
      621.5
     ],
     [
      15.893538,
      49.631005,
      621.25
     ],
     [
      15.892929,
      49.631136,
      621.75
     ],
     [
      15.890229,
      49.631141,
      620.75
     ],
     [
      15.889942,
      49.631361,
      620.0
     ],
     [
      15.889037,
      49.631714,
      617.75
     ],
     [
      15.888819,
      49.631798,
      617.25
     ],
     [
      15.888772,
      49.631743,
      617.5
     ],
     [
      15.888819,
      49.631798,
      617.25
     ],
     [
      15.888059,
      49.631978,
      616.75
     ],
     [
      15.886961,
      49.63245,
      617.0
     ],
     [
      15.88599,
      49.632694,
      618.0
     ],
     [
      15.88581,
      49.632897,
      618.0
     ],
     [
      15.885542,
      49.63367,
      617.25
     ],
     [
      15.885481,
      49.634601,
      618.0
     ],
     [
      15.885135,
      49.635227,
      618.0
     ],
     [
      15.88308,
      49.637537,
      616.25
     ],
     [
      15.88283,
      49.637876,
      617.25
     ],
     [
      15.88206,
      49.638923,
      618.5
     ],
     [
      15.881125,
      49.640192,
      618.25
     ],
     [
      15.880827,
      49.640122,
      619.0
     ],
     [
      15.880717,
      49.640275,
      619.0
     ],
     [
      15.881008,
      49.640354,
      618.5
     ],
     [
      15.880578,
      49.640936,
      619.0
     ],
     [
      15.879956,
      49.641781,
      619.0
     ],
     [
      15.879705,
      49.642289,
      619.25
     ],
     [
      15.879704,
      49.642292,
      619.25
     ],
     [
      15.880014,
      49.642557,
      619.75
     ],
     [
      15.881856,
      49.643817,
      618.0
     ],
     [
      15.882106,
      49.643982,
      618.0
     ],
     [
      15.883439,
      49.644912,
      620.0
     ],
     [
      15.88334,
      49.646471,
      618.5
     ],
     [
      15.883239,
      49.646669,
      618.25
     ],
     [
      15.883042,
      49.646953,
      618.0
     ],
     [
      15.882994,
      49.647152,
      618.75
     ],
     [
      15.883017,
      49.647398,
      618.25
     ],
     [
      15.883195,
      49.647753,
      618.75
     ],
     [
      15.883441,
      49.648056,
      619.5
     ],
     [
      15.883765,
      49.648382,
      619.0
     ],
     [
      15.884491,
      49.648968,
      618.75
     ],
     [
      15.885028,
      49.649416,
      617.75
     ],
     [
      15.885184,
      49.649612,
      617.5
     ],
     [
      15.885262,
      49.6498,
      618.0
     ],
     [
      15.885229,
      49.649995,
      618.0
     ],
     [
      15.885061,
      49.650226,
      618.75
     ],
     [
      15.884146,
      49.650983,
      620.0
     ],
     [
      15.883642,
      49.651362,
      620.0
     ],
     [
      15.88333,
      49.651536,
      620.0
     ],
     [
      15.882927,
      49.651651,
      620.5
     ],
     [
      15.882458,
      49.651732,
      620.75
     ],
     [
      15.882191,
      49.651787,
      621.0
     ],
     [
      15.880306,
      49.65208,
      621.25
     ],
     [
      15.879714,
      49.652133,
      621.75
     ],
     [
      15.879487,
      49.652086,
      622.25
     ],
     [
      15.879349,
      49.651993,
      623.0
     ],
     [
      15.879162,
      49.651989,
      623.5
     ],
     [
      15.878931,
      49.65202,
      623.25
     ],
     [
      15.878203,
      49.652189,
      622.25
     ],
     [
      15.877875,
      49.652264,
      622.5
     ],
     [
      15.877075,
      49.652377,
      623.0
     ],
     [
      15.87646,
      49.652501,
      623.5
     ],
     [
      15.875405,
      49.652771,
      625.0
     ],
     [
      15.875451,
      49.652821,
      624.75
     ],
     [
      15.875467,
      49.652839,
      624.75
     ],
     [
      15.875633,
      49.652971,
      624.25
     ],
     [
      15.875738,
      49.653121,
      624.5
     ],
     [
      15.875789,
      49.653408,
      625.0
     ],
     [
      15.876382,
      49.653419,
      625.5
     ],
     [
      15.876543,
      49.653404,
      625.5
     ],
     [
      15.876634,
      49.653378,
      625.25
     ],
     [
      15.877352,
      49.653031,
      623.0
     ],
     [
      15.877482,
      49.653029,
      623.0
     ],
     [
      15.878348,
      49.652953,
      622.75
     ],
     [
      15.878508,
      49.652962,
      622.75
     ],
     [
      15.878769,
      49.653045,
      622.75
     ],
     [
      15.879139,
      49.653069,
      622.0
     ],
     [
      15.879451,
      49.653069,
      622.0
     ],
     [
      15.879638,
      49.653046,
      622.0
     ],
     [
      15.880011,
      49.652984,
      621.5
     ],
     [
      15.88032,
      49.653003,
      621.5
     ],
     [
      15.881079,
      49.65317,
      620.75
     ],
     [
      15.881856,
      49.653603,
      621.75
     ],
     [
      15.883606,
      49.654673,
      622.75
     ],
     [
      15.883729,
      49.654954,
      623.75
     ],
     [
      15.886582,
      49.655887,
      620.0
     ],
     [
      15.886898,
      49.655941,
      619.25
     ],
     [
      15.887456,
      49.656027,
      619.0
     ],
     [
      15.888444,
      49.656265,
      619.5
     ],
     [
      15.889556,
      49.656611,
      620.75
     ],
     [
      15.88993,
      49.656721,
      621.0
     ],
     [
      15.890504,
      49.656885,
      622.5
     ],
     [
      15.890904,
      49.656909,
      623.25
     ],
     [
      15.891488,
      49.656866,
      624.0
     ],
     [
      15.89229,
      49.656781,
      625.0
     ],
     [
      15.89307,
      49.656643,
      626.0
     ],
     [
      15.893736,
      49.656554,
      626.25
     ],
     [
      15.894421,
      49.65649,
      627.0
     ],
     [
      15.895454,
      49.656426,
      627.0
     ],
     [
      15.895711,
      49.656411,
      627.0
     ],
     [
      15.895854,
      49.656355,
      626.75
     ],
     [
      15.897035,
      49.65571,
      625.0
     ],
     [
      15.897776,
      49.655305,
      623.0
     ],
     [
      15.898019,
      49.655201,
      622.5
     ],
     [
      15.898476,
      49.655208,
      621.75
     ],
     [
      15.899195,
      49.655307,
      621.75
     ],
     [
      15.899925,
      49.655409,
      621.0
     ],
     [
      15.900046,
      49.655421,
      621.0
     ],
     [
      15.904328,
      49.656087,
      641.25
     ],
     [
      15.904389,
      49.655953,
      641.0
     ],
     [
      15.904526,
      49.655652,
      640.0
     ],
     [
      15.904668,
      49.655342,
      640.25
     ],
     [
      15.904901,
      49.654939,
      639.25
     ],
     [
      15.904999,
      49.654792,
      639.0
     ],
     [
      15.905234,
      49.654495,
      639.0
     ],
     [
      15.905465,
      49.654228,
      638.5
     ],
     [
      15.906346,
      49.653289,
      635.5
     ],
     [
      15.906954,
      49.652641,
      633.5
     ],
     [
      15.907995,
      49.651531,
      632.25
     ],
     [
      15.909261,
      49.65018,
      632.75
     ],
     [
      15.909389,
      49.650043,
      632.75
     ],
     [
      15.910654,
      49.648701,
      631.5
     ],
     [
      15.911288,
      49.648011,
      630.5
     ],
     [
      15.911708,
      49.647522,
      631.0
     ],
     [
      15.911852,
      49.647354,
      630.75
     ],
     [
      15.912017,
      49.647394,
      631.75
     ],
     [
      15.91214,
      49.647389,
      632.0
     ],
     [
      15.912543,
      49.647302,
      633.25
     ],
     [
      15.912686,
      49.647271,
      633.75
     ],
     [
      15.912855,
      49.647237,
      634.25
     ],
     [
      15.913079,
      49.647186,
      634.75
     ],
     [
      15.913431,
      49.647123,
      635.25
     ],
     [
      15.914058,
      49.647067,
      636.0
     ],
     [
      15.914211,
      49.647054,
      636.5
     ],
     [
      15.914494,
      49.647046,
      637.25
     ],
     [
      15.915083,
      49.646851,
      637.75
     ],
     [
      15.915317,
      49.646813,
      638.0
     ],
     [
      15.915387,
      49.646803,
      638.0
     ],
     [
      15.915453,
      49.646683,
      638.0
     ],
     [
      15.915573,
      49.6463,
      637.0
     ],
     [
      15.915706,
      49.645772,
      638.0
     ],
     [
      15.915774,
      49.645403,
      638.0
     ],
     [
      15.915783,
      49.645112,
      637.0
     ],
     [
      15.915794,
      49.6448,
      636.0
     ],
     [
      15.915796,
      49.644735,
      635.75
     ],
     [
      15.915748,
      49.64456,
      634.5
     ],
     [
      15.915104,
      49.643505,
      629.75
     ],
     [
      15.914998,
      49.643369,
      629.0
     ],
     [
      15.914675,
      49.64295,
      625.5
     ],
     [
      15.915061,
      49.642421,
      624.0
     ],
     [
      15.91545,
      49.64193,
      622.5
     ],
     [
      15.915772,
      49.641553,
      621.5
     ],
     [
      15.916261,
      49.641019,
      622.5
     ],
     [
      15.917212,
      49.640102,
      627.5
     ],
     [
      15.918503,
      49.638903,
      634.0
     ],
     [
      15.918724,
      49.638937,
      635.0
     ],
     [
      15.918879,
      49.638949,
      635.25
     ],
     [
      15.919044,
      49.638942,
      635.75
     ],
     [
      15.919355,
      49.638877,
      636.5
     ],
     [
      15.919569,
      49.638825,
      636.25
     ],
     [
      15.920913,
      49.638466,
      636.0
     ],
     [
      15.924328,
      49.637541,
      652.25
     ],
     [
      15.924829,
      49.637396,
      653.75
     ],
     [
      15.924943,
      49.637354,
      654.25
     ],
     [
      15.925132,
      49.637258,
      655.25
     ],
     [
      15.925347,
      49.637075,
      655.75
     ],
     [
      15.925431,
      49.63695,
      655.75
     ],
     [
      15.92551,
      49.636694,
      656.75
     ],
     [
      15.926224,
      49.636628,
      654.5
     ],
     [
      15.926567,
      49.636626,
      653.25
     ],
     [
      15.927004,
      49.636511,
      651.5
     ],
     [
      15.927478,
      49.6363,
      650.25
     ],
     [
      15.927842,
      49.636487,
      651.75
     ],
     [
      15.928315,
      49.636629,
      653.5
     ],
     [
      15.92854,
      49.636754,
      654.75
     ],
     [
      15.928747,
      49.636832,
      655.25
     ],
     [
      15.929017,
      49.637018,
      656.75
     ],
     [
      15.92923,
      49.637126,
      657.75
     ],
     [
      15.929506,
      49.637249,
      658.5
     ],
     [
      15.929805,
      49.637406,
      661.25
     ],
     [
      15.9303,
      49.637804,
      663.0
     ],
     [
      15.931057,
      49.638488,
      664.25
     ],
     [
      15.931275,
      49.638651,
      662.75
     ],
     [
      15.931429,
      49.638812,
      661.75
     ],
     [
      15.93144,
      49.638864,
      661.5
     ],
     [
      15.931476,
      49.639039,
      661.5
     ],
     [
      15.931488,
      49.639202,
      661.75
     ],
     [
      15.931485,
      49.639404,
      662.5
     ],
     [
      15.931297,
      49.639752,
      665.75
     ],
     [
      15.93132,
      49.639969,
      666.25
     ],
     [
      15.931729,
      49.640623,
      665.75
     ],
     [
      15.931833,
      49.640917,
      665.75
     ],
     [
      15.931971,
      49.641182,
      665.0
     ],
     [
      15.932235,
      49.641546,
      666.0
     ],
     [
      15.93229,
      49.641764,
      667.25
     ],
     [
      15.932293,
      49.641776,
      667.25
     ],
     [
      15.932319,
      49.642141,
      669.0
     ],
     [
      15.932419,
      49.642335,
      669.25
     ],
     [
      15.932763,
      49.642547,
      669.25
     ],
     [
      15.933051,
      49.642874,
      671.5
     ],
     [
      15.933476,
      49.643165,
      672.75
     ],
     [
      15.933765,
      49.643349,
      673.5
     ],
     [
      15.935538,
      49.643966,
      674.75
     ],
     [
      15.936519,
      49.644593,
      676.75
     ],
     [
      15.936723,
      49.644895,
      678.0
     ],
     [
      15.936872,
      49.645066,
      677.0
     ],
     [
      15.937085,
      49.645186,
      675.5
     ],
     [
      15.937203,
      49.645215,
      674.5
     ],
     [
      15.937503,
      49.645318,
      673.25
     ],
     [
      15.938109,
      49.645549,
      671.75
     ],
     [
      15.938204,
      49.645569,
      671.5
     ],
     [
      15.947115,
      49.645581,
      688.75
     ],
     [
      15.948854,
      49.645498,
      692.0
     ],
     [
      15.95057,
      49.645436,
      692.25
     ],
     [
      15.950979,
      49.645456,
      692.75
     ],
     [
      15.9518,
      49.645496,
      693.0
     ],
     [
      15.952425,
      49.645516,
      692.25
     ],
     [
      15.952976,
      49.645608,
      692.0
     ],
     [
      15.953988,
      49.645919,
      691.5
     ],
     [
      15.958422,
      49.647425,
      689.75
     ],
     [
      15.958652,
      49.647582,
      690.5
     ],
     [
      15.9588,
      49.647725,
      691.0
     ],
     [
      15.959078,
      49.647707,
      690.0
     ],
     [
      15.95951,
      49.647356,
      687.25
     ],
     [
      15.959578,
      49.647287,
      686.75
     ],
     [
      15.959676,
      49.647268,
      686.25
     ],
     [
      15.959803,
      49.647287,
      686.25
     ],
     [
      15.959889,
      49.647337,
      686.5
     ],
     [
      15.96011,
      49.6475,
      686.5
     ],
     [
      15.960335,
      49.64759,
      685.75
     ],
     [
      15.960655,
      49.647701,
      684.25
     ],
     [
      15.960832,
      49.64775,
      683.0
     ],
     [
      15.961152,
      49.647831,
      681.75
     ],
     [
      15.96151,
      49.64795,
      680.5
     ],
     [
      15.961927,
      49.648063,
      679.0
     ],
     [
      15.962146,
      49.64808,
      677.5
     ],
     [
      15.962365,
      49.648046,
      676.5
     ],
     [
      15.962622,
      49.64799,
      675.0
     ],
     [
      15.962766,
      49.647942,
      674.25
     ],
     [
      15.962931,
      49.647878,
      673.25
     ],
     [
      15.963181,
      49.647762,
      671.75
     ],
     [
      15.963362,
      49.647641,
      670.75
     ],
     [
      15.963712,
      49.647133,
      668.5
     ],
     [
      15.963798,
      49.646981,
      668.25
     ],
     [
      15.964597,
      49.645748,
      660.75
     ],
     [
      15.965103,
      49.645755,
      661.0
     ],
     [
      15.965869,
      49.645676,
      666.75
     ],
     [
      15.966142,
      49.645584,
      667.25
     ],
     [
      15.966303,
      49.645529,
      667.25
     ],
     [
      15.967409,
      49.645041,
      667.25
     ],
     [
      15.966914,
      49.644443,
      661.75
     ],
     [
      15.966793,
      49.644313,
      660.5
     ],
     [
      15.967435,
      49.644152,
      659.75
     ],
     [
      15.968121,
      49.643916,
      658.0
     ]
    ]
   }
  }
 ]
}