{
 "type": "FeatureCollection",
 "features": [
  {
   "type": "Feature",
   "properties": {
    "creator": "BRouter-1.7.10",
    "name": "brouter_trekking_0",
    "track-length": "40777",
    "filtered ascend": "511",
    "plain-ascend": "0",
    "total-time": "9449",
    "total-energy": "913410",
    "cost": "78857",
    "messages": [
     [
      "Longitude",
      "Latitude",
      "Elevation",
      "Distance",
      "CostPerKm",
      "ElevCost",
      "TurnCost",
      "NodeCost",
      "InitialCost",
      "WayTags",
      "NodeTags",
      "Time",
      "Energy"
     ],
     [
      "15966793",
      "49644313",
      "660",
      "106",
      "1550",
      "0",
      "0",
      "0",
      "0",
      "reversedirection=yes highway=residential surface=unpaved oneway:bicycle=no",
      "estimated_crossing_class=1",
      "26",
      "2602"
     ],
     [
      "15967409",
      "49645041",
      "667",
      "93",
      "1650",
      "0",
      "105",
      "0",
      "0",
      "highway=secondary surface=asphalt cycleway:both=no",
      "estimated_crossing_class=1",
      "59",
      "5995"
     ],
     [
      "15969031",
      "49647465",
      "681",
      "297",
      "1650",
      "0",
      "2",
      "0",
      "0",
      "highway=secondary",
      "estimated_crossing_class=1",
      "204",
      "20414"
     ],
     [
      "15967664",
      "49652846",
      "704",
      "610",
      "1650",
      "0",
      "5",
      "0",
      "0",
      "highway=secondary surface=asphalt",
      "estimated_crossing_class=1",
      "509",
      "50983"
     ],
     [
      "15968093",
      "49654165",
      "694",
      "151",
      "1650",
      "0",
      "3",
      "0",
      "0",
      "highway=secondary surface=asphalt",
      "estimated_crossing_class=1",
      "526",
      "52698"
     ],
     [
      "15969278",
      "49653791",
      "693",
      "95",
      "2050",
      "0",
      "95",
      "0",
      "0",
      "highway=track tracktype=grade2",
      "",
      "536",
      "53628"
     ],
     [
      "15968093",
      "49654165",
      "694",
      "95",
      "2050",
      "0",
      "0",
      "0",
      "0",
      "reversedirection=yes highway=track tracktype=grade2",
      "estimated_crossing_class=1",
      "558",
      "55817"
     ],
     [
      "15973243",
      "49660230",
      "681",
      "770",
      "1650",
      "117",
      "88",
      "0",
      "0",
      "highway=secondary surface=asphalt",
      "estimated_crossing_class=1",
      "654",
      "64117"
     ],
     [
      "15974162",
      "49660575",
      "684",
      "80",
      "1050",
      "0",
      "26",
      "0",
      "0",
      "highway=track surface=paved tracktype=grade1",
      "",
      "675",
      "66189"
     ],
     [
      "15974427",
      "49660476",
      "685",
      "22",
      "1050",
      "0",
      "22",
      "0",
      "0",
      "reversedirection=yes highway=track surface=asphalt tracktype=grade1 foot=yes bicycle=yes",
      "barrier=lift_gate motor_vehicle=agricultural",
      "680",
      "66687"
     ],
     [
      "15994228",
      "49652024",
      "765",
      "1713",
      "1050",
      "0",
      "0",
      "0",
      "0",
      "reversedirection=yes highway=track surface=asphalt tracktype=grade1 foot=yes bicycle=yes",
      "",
      "1546",
      "153310"
     ],
     [
      "15998109",
      "49652684",
      "776",
      "295",
      "1050",
      "0",
      "14",
      "0",
      "0",
      "highway=track surface=asphalt tracktype=grade1 foot=yes bicycle=yes",
      "",
      "1669",
      "165581"
     ],
     [
      "15996485",
      "49657885",
      "769",
      "641",
      "3050",
      "0",
      "85",
      "0",
      "0",
      "highway=track surface=compacted tracktype=grade3",
      "",
      "1806",
      "179302"
     ],
     [
      "15996360",
      "49657869",
      "772",
      "9",
      "5050",
      "0",
      "81",
      "0",
      "0",
      "highway=path foot=yes",
      "",
      "1807",
      "179441"
     ],
     [
      "15996485",
      "49657885",
      "769",
      "9",
      "5050",
      "0",
      "0",
      "0",
      "0",
      "reversedirection=yes highway=path foot=yes",
      "",
      "1808",
      "179554"
     ],
     [
      "15997840",
      "49658095",
      "754",
      "100",
      "5050",
      "291",
      "0",
      "0",
      "0",
      "reversedirection=yes highway=path",
      "",
      "1817",
      "179885"
     ],
     [
      "16003180",
      "49658986",
      "730",
      "398",
      "5050",
      "1335",
      "1",
      "0",
      "0",
      "reversedirection=yes highway=track surface=unpaved tracktype=grade4",
      "",
      "1852",
      "181007"
     ],
     [
      "16006291",
      "49659553",
      "731",
      "233",
      "3050",
      "0",
      "4",
      "0",
      "0",
      "reversedirection=yes highway=track surface=unpaved tracktype=grade3",
      "",
      "1896",
      "185362"
     ],
     [
      "16009253",
      "49659848",
      "719",
      "246",
      "5050",
      "72",
      "33",
      "0",
      "0",
      "reversedirection=yes highway=path",
      "",
      "1919",
      "187381"
     ],
     [
      "16012940",
      "49660557",
      "698",
      "291",
      "3050",
      "901",
      "26",
      "0",
      "0",
      "reversedirection=yes highway=track tracktype=grade3",
      "",
      "1943",
      "188594"
     ],
     [
      "16013533",
      "49661098",
      "697",
      "75",
      "2050",
      "49",
      "33",
      "0",
      "0",
      "reversedirection=yes highway=track tracktype=grade2",
      "",
      "1949",
      "188698"
     ],
     [
      "16004406",
      "49672929",
      "693",
      "1544",
      "1000",
      "577",
      "0",
      "0",
      "0",
      "highway=tertiary route_bicycle_ncn=yes",
      "",
      "2282",
      "220996"
     ],
     [
      "16005089",
      "49673120",
      "696",
      "54",
      "1050",
      "0",
      "56",
      "0",
      "0",
      "reversedirection=yes highway=track surface=paved tracktype=grade1",
      "",
      "2290",
      "221709"
     ],
     [
      "16009858",
      "49673351",
      "694",
      "533",
      "1000",
      "0",
      "0",
      "0",
      "0",
      "reversedirection=yes highway=track surface=paved tracktype=grade1 smoothness=good route_bicycle_rcn=yes",
      "",
      "2369",
      "229679"
     ],
     [
      "16008026",
      "49674137",
      "681",
      "165",
      "5050",
      "46",
      "94",
      "0",
      "0",
      "highway=track tracktype=grade4",
      "",
      "2385",
      "230791"
     ],
     [
      "16009858",
      "49673351",
      "694",
      "165",
      "5050",
      "0",
      "13",
      "0",
      "0",
      "reversedirection=yes highway=track tracktype=grade4",
      "",
      "2448",
      "237079"
     ],
     [
      "16013948",
      "49679964",
      "699",
      "828",
      "1000",
      "0",
      "0",
      "0",
      "0",
      "reversedirection=yes highway=track surface=paved tracktype=grade1 smoothness=good route_bicycle_rcn=yes",
      "",
      "2679",
      "260186"
     ],
     [
      "16017001",
      "49678486",
      "719",
      "283",
      "2050",
      "0",
      "74",
      "0",
      "0",
      "reversedirection=yes highway=track tracktype=grade2 smoothness=bad",
      "",
      "2805",
      "272732"
     ],
     [
      "16023761",
      "49674596",
      "771",
      "690",
      "5050",
      "0",
      "34",
      "0",
      "0",
      "highway=track surface=unpaved tracktype=grade4 foot=yes",
      "",
      "3397",
      "331958"
     ],
     [
      "16026303",
      "49671228",
      "793",
      "421",
      "3050",
      "0",
      "13",
      "0",
      "0",
      "highway=track tracktype=grade3",
      "",
      "3585",
      "350801"
     ],
     [
      "16029351",
      "49666554",
      "761",
      "583",
      "3050",
      "768",
      "35",
      "0",
      "0",
      "highway=track surface=gravel tracktype=grade3",
      "",
      "3675",
      "358091"
     ],
     [
      "16034097",
      "49663600",
      "746",
      "575",
      "2050",
      "135",
      "176",
      "0",
      "0",
      "highway=track surface=gravel tracktype=grade2",
      "",
      "3737",
      "363472"
     ],
     [
      "16034189",
      "49663581",
      "748",
      "7",
      "5050",
      "0",
      "56",
      "0",
      "0",
      "highway=path foot=yes",
      "",
      "3737",
      "363549"
     ],
     [
      "16034097",
      "49663600",
      "746",
      "7",
      "5050",
      "0",
      "0",
      "0",
      "0",
      "reversedirection=yes highway=path foot=yes",
      "",
      "3738",
      "363659"
     ],
     [
      "16033084",
      "49660707",
      "740",
      "353",
      "1050",
      "0",
      "71",
      "0",
      "0",
      "reversedirection=yes highway=track surface=asphalt tracktype=grade1 foot=yes bicycle=yes",
      "",
      "3787",
      "368466"
     ],
     [
      "16033637",
      "49659534",
      "737",
      "137",
      "1050",
      "0",
      "0",
      "0",
      "0",
      "reversedirection=yes highway=track surface=paved tracktype=grade1",
      "",
      "3802",
      "370048"
     ],
     [
      "16050463",
      "49647379",
      "757",
      "1868",
      "1000",
      "0",
      "0",
      "0",
      "0",
      "reversedirection=yes highway=tertiary route_bicycle_ncn=yes",
      "",
      "4241",
      "413888"
     ],
     [
      "16047409",
      "49648843",
      "759",
      "281",
      "1000",
      "0",
      "0",
      "0",
      "0",
      "highway=tertiary route_bicycle_ncn=yes",
      "",
      "4300",
      "419797"
     ],
     [
      "16054807",
      "49651597",
      "763",
      "677",
      "1000",
      "0",
      "0",
      "0",
      "0",
      "highway=track surface=paved tracktype=grade1 smoothness=good route_bicycle_rcn=yes",
      "",
      "4472",
      "437074"
     ],
     [
      "16063549",
      "49649491",
      "740",
      "710",
      "3050",
      "707",
      "104",
      "0",
      "0",
      "reversedirection=yes highway=track tracktype=grade3 smoothness=very_bad",
      "",
      "4540",
      "442164"
     ],
     [
      "16068950",
      "49649039",
      "733",
      "401",
      "3050",
      "0",
      "38",
      "0",
      "0",
      "reversedirection=yes highway=track tracktype=grade3",
      "",
      "4598",
      "447968"
     ],
     [
      "16071929",
      "49651241",
      "710",
      "329",
      "1150",
      "976",
      "23",
      "0",
      "0",
      "reversedirection=yes highway=residential surface=asphalt",
      "",
      "4624",
      "448104"
     ],
     [
      "16075791",
      "49649182",
      "724",
      "388",
      "1450",
      "0",
      "163",
      "0",
      "0",
      "reversedirection=yes highway=tertiary",
      "",
      "4704",
      "455968"
     ],
     [
      "16076578",
      "49646961",
      "752",
      "260",
      "1000",
      "0",
      "0",
      "0",
      "0",
      "highway=tertiary route_bicycle_rcn=yes",
      "",
      "4929",
      "478486"
     ],
     [
      "16075791",
      "49649182",
      "724",
      "260",
      "1000",
      "793",
      "0",
      "0",
      "0",
      "reversedirection=yes highway=tertiary route_bicycle_rcn=yes",
      "",
      "4954",
      "479386"
     ],
     [
      "16077462",
      "49649753",
      "725",
      "142",
      "1000",
      "0",
      "0",
      "0",
      "0",
      "highway=track tracktype=grade1 route_bicycle_rcn=yes",
      "",
      "4967",
      "480569"
     ],
     [
      "16082492",
      "49651073",
      "731",
      "401",
      "1000",
      "0",
      "0",
      "0",
      "0",
      "highway=track tracktype=grade3 route_bicycle_rcn=yes",
      "",
      "5037",
      "487571"
     ],
     [
      "16082531",
      "49651047",
      "733",
      "4",
      "1000",
      "0",
      "0",
      "0",
      "0",
      "highway=track tracktype=grade4 route_bicycle_rcn=yes",
      "",
      "5038",
      "487680"
     ],
     [
      "16082492",
      "49651073",
      "731",
      "4",
      "1000",
      "0",
      "0",
      "0",
      "0",
      "reversedirection=yes highway=track tracktype=grade4 route_bicycle_rcn=yes",
      "",
      "5039",
      "487743"
     ],
     [
      "16077462",
      "49649753",
      "725",
      "401",
      "1000",
      "0",
      "0",
      "0",
      "0",
      "reversedirection=yes highway=track tracktype=grade3 route_bicycle_rcn=yes",
      "",
      "5089",
      "492779"
     ],
     [
      "16075791",
      "49649182",
      "724",
      "142",
      "1000",
      "0",
      "0",
      "0",
      "0",
      "reversedirection=yes highway=track tracktype=grade1 route_bicycle_rcn=yes",
      "",
      "5109",
      "494808"
     ],
     [
      "16071929",
      "49651241",
      "710",
      "388",
      "1450",
      "0",
      "37",
      "0",
      "0",
      "highway=tertiary",
      "",
      "5149",
      "498732"
     ],
     [
      "16075757",
      "49657153",
      "695",
      "788",
      "1050",
      "435",
      "63",
      "0",
      "0",
      "reversedirection=yes highway=track surface=paved tracktype=grade1 smoothness=good",
      "",
      "5235",
      "506701"
     ],
     [
      "16077593",
      "49657355",
      "687",
      "140",
      "1000",
      "18",
      "0",
      "0",
      "0",
      "highway=track surface=paved tracktype=grade1 smoothness=good route_bicycle_rcn=yes",
      "",
      "5249",
      "508126"
     ],
     [
      "16082610",
      "49666813",
      "614",
      "1157",
      "1000",
      "3312",
      "0",
      "0",
      "0",
      "highway=track surface=asphalt tracktype=grade1 route_bicycle_rcn=yes",
      "",
      "5341",
      "509265"
     ],
     [
      "16083700",
      "49667531",
      "608",
      "115",
      "1000",
      "270",
      "0",
      "0",
      "0",
      "highway=track surface=paved tracktype=grade1 smoothness=good route_bicycle_rcn=yes",
      "",
      "5351",
      "509451"
     ],
     [
      "16088074",
      "49669816",
      "595",
      "406",
      "1000",
      "455",
      "0",
      "0",
      "0",
      "highway=service surface=asphalt tracktype=grade1 smoothness=good route_bicycle_rcn=yes",
      "nodeaccessgranted=yes estimated_crossing_class=1",
      "5387",
      "511647"
     ],
     [
      "16088389",
      "49669532",
      "595",
      "39",
      "1000",
      "0",
      "0",
      "0",
      "0",
      "highway=secondary route_bicycle_rcn=yes",
      "",
      "5392",
      "512161"
     ],
     [
      "16090573",
      "49668406",
      "595",
      "202",
      "1000",
      "0",
      "0",
      "0",
      "0",
      "highway=secondary surface=asphalt route_bicycle_rcn=yes",
      "nodeaccessgranted=yes estimated_crossing_class=1",
      "5420",
      "514934"
     ],
     [
      "16090758",
      "49668282",
      "596",
      "19",
      "1000",
      "0",
      "0",
      "0",
      "0",
      "highway=secondary surface=asphalt route_bicycle_rcn=yes",
      "nodeaccessgranted=yes estimated_crossing_class=1",
      "5422",
      "515170"
     ],
     [
      "16091245",
      "49667849",
      "595",
      "59",
      "1000",
      "0",
      "0",
      "0",
      "0",
      "highway=secondary surface=asphalt route_bicycle_rcn=yes",
      "nodeaccessgranted=yes estimated_crossing_class=1",
      "5429",
      "515866"
     ],
     [
      "16091127",
      "49667824",
      "595",
      "9",
      "1350",
      "0",
      "120",
      "0",
      "0",
      "reversedirection=yes highway=service surface=asphalt",
      "",
      "5431",
      "515979"
     ],
     [
      "16091245",
      "49667849",
      "595",
      "9",
      "1350",
      "0",
      "0",
      "0",
      "0",
      "highway=service surface=asphalt",
      "estimated_crossing_class=1",
      "5432",
      "516130"
     ],
     [
      "16090758",
      "49668282",
      "596",
      "59",
      "1000",
      "0",
      "0",
      "0",
      "0",
      "reversedirection=yes highway=secondary surface=asphalt route_bicycle_rcn=yes",
      "nodeaccessgranted=yes estimated_crossing_class=1",
      "5443",
      "517268"
     ],
     [
      "16090573",
      "49668406",
      "595",
      "19",
      "1000",
      "0",
      "0",
      "0",
      "0",
      "reversedirection=yes highway=secondary surface=asphalt route_bicycle_rcn=yes",
      "nodeaccessgranted=yes estimated_crossing_class=1",
      "5447",
      "517604"
     ],
     [
      "16088389",
      "49669532",
      "595",
      "202",
      "1000",
      "0",
      "0",
      "0",
      "0",
      "reversedirection=yes highway=secondary surface=asphalt route_bicycle_rcn=yes",
      "",
      "5483",
      "521195"
     ],
     [
      "16088074",
      "49669816",
      "595",
      "39",
      "1000",
      "0",
      "0",
      "0",
      "0",
      "reversedirection=yes highway=secondary route_bicycle_rcn=yes",
      "nodeaccessgranted=yes estimated_crossing_class=1",
      "5489",
      "521819"
     ],
     [
      "16087040",
      "49670701",
      "592",
      "123",
      "1000",
      "0",
      "0",
      "0",
      "0",
      "reversedirection=yes highway=secondary surface=asphalt route_bicycle_rcn=yes",
      "nodeaccessgranted=yes estimated_crossing_class=1",
      "5509",
      "523785"
     ],
     [
      "16083998",
      "49673869",
      "590",
      "419",
      "1000",
      "0",
      "0",
      "0",
      "0",
      "reversedirection=yes highway=secondary surface=asphalt route_bicycle_rcn=yes",
      "nodeaccessgranted=yes estimated_crossing_class=1",
      "5572",
      "530104"
     ],
     [
      "16083927",
      "49673970",
      "590",
      "12",
      "1000",
      "0",
      "0",
      "0",
      "0",
      "reversedirection=yes highway=secondary surface=asphalt route_bicycle_rcn=yes",
      "nodeaccessgranted=yes estimated_crossing_class=1",
      "5574",
      "530279"
     ],
     [
      "16083349",
      "49674407",
      "591",
      "65",
      "1000",
      "0",
      "0",
      "0",
      "0",
      "reversedirection=yes highway=secondary surface=asphalt route_bicycle_rcn=yes",
      "nodeaccessgranted=yes estimated_crossing_class=1",
      "5583",
      "531207"
     ],
     [
      "16086268",
      "49675276",
      "591",
      "232",
      "1000",
      "0",
      "0",
      "0",
      "0",
      "highway=tertiary route_bicycle_rcn=yes",
      "",
      "5615",
      "534417"
     ],
     [
      "16087332",
      "49684380",
      "627",
      "1043",
      "1000",
      "0",
      "0",
      "0",
      "0",
      "reversedirection=yes highway=track tracktype=grade1 access=delivery route_bicycle_rcn=yes",
      "",
      "5998",
      "572760"
     ],
     [
      "16087152",
      "49684994",
      "628",
      "69",
      "1000",
      "0",
      "0",
      "0",
      "0",
      "reversedirection=yes highway=track tracktype=grade1 route_bicycle_rcn=yes",
      "",
      "6021",
      "575079"
     ],
     [
      "16087097",
      "49685052",
      "628",
      "8",
      "1000",
      "0",
      "0",
      "0",
      "0",
      "reversedirection=yes highway=track surface=asphalt tracktype=grade1 route_bicycle_rcn=yes",
      "nodeaccessgranted=yes barrier=swing_gate",
      "6024",
      "575300"
     ],
     [
      "16086569",
      "49687488",
      "634",
      "290",
      "1000",
      "0",
      "0",
      "0",
      "0",
      "reversedirection=yes highway=track surface=asphalt tracktype=grade1 route_bicycle_rcn=yes",
      "",
      "6101",
      "583043"
     ],
     [
      "16079067",
      "49690683",
      "628",
      "664",
      "1000",
      "0",
      "0",
      "0",
      "0",
      "reversedirection=yes highway=track surface=compacted tracktype=grade2 route_bicycle_rcn=yes",
      "nodeaccessgranted=yes barrier=lift_gate",
      "6218",
      "594758"
     ],
     [
      "16078358",
      "49690658",
      "627",
      "51",
      "1000",
      "0",
      "0",
      "0",
      "0",
      "reversedirection=yes highway=track surface=compacted tracktype=grade2 route_bicycle_rcn=yes",
      "",
      "6224",
      "595351"
     ],
     [
      "16063168",
      "49688916",
      "605",
      "1119",
      "1000",
      "17",
      "0",
      "0",
      "0",
      "reversedirection=yes highway=tertiary surface=asphalt route_bicycle_rcn=yes",
      "",
      "6354",
      "608345"
     ],
     [
      "16063138",
      "49688725",
      "604",
      "25",
      "1350",
      "0",
      "156",
      "0",
      "0",
      "highway=service",
      "estimated_crossing_class=1",
      "6358",
      "608748"
     ],
     [
      "16063065",
      "49688803",
      "604",
      "10",
      "1000",
      "0",
      "0",
      "0",
      "0",
      "reversedirection=yes highway=secondary surface=asphalt route_bicycle_rcn=yes",
      "nodeaccessgranted=yes estimated_crossing_class=1",
      "6360",
      "608916"
     ],
     [
      "16062995",
      "49688887",
      "605",
      "11",
      "1000",
      "0",
      "0",
      "0",
      "0",
      "reversedirection=yes highway=secondary surface=asphalt route_bicycle_rcn=yes",
      "nodeaccessgranted=yes estimated_crossing_class=1",
      "6362",
      "609113"
     ],
     [
      "16061746",
      "49690726",
      "607",
      "225",
      "1650",
      "0",
      "1",
      "0",
      "0",
      "reversedirection=yes highway=secondary surface=asphalt cycleway:both=no",
      "estimated_crossing_class=1",
      "6412",
      "614089"
     ],
     [
      "16060464",
      "49692857",
      "611",
      "256",
      "1650",
      "0",
      "2",
      "0",
      "0",
      "reversedirection=yes highway=secondary surface=asphalt cycleway:both=no",
      "estimated_crossing_class=1",
      "6473",
      "620276"
     ],
     [
      "16059955",
      "49693475",
      "611",
      "78",
      "1650",
      "0",
      "0",
      "0",
      "0",
      "reversedirection=yes highway=secondary surface=asphalt cycleway:both=no",
      "estimated_crossing_class=1",
      "6490",
      "621956"
     ],
     [
      "16059870",
      "49693569",
      "611",
      "12",
      "1650",
      "0",
      "0",
      "0",
      "0",
      "reversedirection=yes highway=secondary surface=asphalt cycleway:both=no",
      "estimated_crossing_class=1",
      "6493",
      "622191"
     ],
     [
      "16057764",
      "49693426",
      "619",
      "155",
      "1050",
      "0",
      "81",
      "0",
      "0",
      "reversedirection=yes highway=track surface=asphalt tracktype=grade1 smoothness=good",
      "",
      "6538",
      "626691"
     ],
     [
      "16043939",
      "49688799",
      "650",
      "1449",
      "1050",
      "0",
      "63",
      "0",
      "0",
      "reversedirection=yes highway=track surface=asphalt tracktype=grade1 foot=yes bicycle=yes smoothness=good",
      "",
      "6998",
      "672710"
     ],
     [
      "16030607",
      "49687405",
      "658",
      "1043",
      "1050",
      "0",
      "89",
      "0",
      "0",
      "reversedirection=yes highway=track surface=paved tracktype=grade1 smoothness=good",
      "",
      "7237",
      "696650"
     ],
     [
      "16027743",
      "49685858",
      "668",
      "280",
      "1050",
      "0",
      "7",
      "0",
      "0",
      "highway=track surface=paved tracktype=grade1 smoothness=good",
      "",
      "7323",
      "705254"
     ],
     [
      "16004331",
      "49673384",
      "690",
      "2669",
      "1000",
      "0",
      "0",
      "0",
      "0",
      "highway=track surface=paved tracktype=grade1 smoothness=good route_bicycle_rcn=yes",
      "",
      "8016",
      "774605"
     ],
     [
      "15994584",
      "49685766",
      "665",
      "1562",
      "1000",
      "324",
      "0",
      "0",
      "0",
      "highway=tertiary route_bicycle_ncn=yes",
      "",
      "8199",
      "792579"
     ],
     [
      "15994016",
      "49685666",
      "664",
      "43",
      "1350",
      "0",
      "93",
      "0",
      "0",
      "highway=service",
      "",
      "8205",
      "793130"
     ],
     [
      "15993333",
      "49687169",
      "658",
      "174",
      "3050",
      "0",
      "87",
      "0",
      "0",
      "reversedirection=yes highway=track surface=unpaved tracktype=grade3",
      "",
      "8226",
      "795262"
     ],
     [
      "15992478",
      "49687034",
      "651",
      "64",
      "1350",
      "99",
      "81",
      "0",
      "0",
      "reversedirection=yes highway=unclassified",
      "estimated_crossing_class=2",
      "8231",
      "795262"
     ],
     [
      "15991682",
      "49683312",
      "649",
      "427",
      "1650",
      "0",
      "73",
      "0",
      "0",
      "reversedirection=yes highway=secondary surface=asphalt",
      "estimated_crossing_class=2",
      "8279",
      "800058"
     ],
     [
      "15989825",
      "49679651",
      "653",
      "440",
      "1650",
      "0",
      "1",
      "0",
      "0",
      "reversedirection=yes highway=secondary surface=asphalt",
      "estimated_crossing_class=1",
      "8351",
      "807260"
     ],
     [
      "15988315",
      "49679509",
      "653",
      "118",
      "1150",
      "0",
      "80",
      "0",
      "0",
      "highway=residential",
      "",
      "8377",
      "809870"
     ],
     [
      "15988259",
      "49679468",
      "653",
      "6",
      "3050",
      "0",
      "63",
      "0",
      "0",
      "reversedirection=yes highway=track tracktype=grade3",
      "",
      "8379",
      "810030"
     ],
     [
      "15988315",
      "49679509",
      "653",
      "6",
      "3050",
      "0",
      "0",
      "0",
      "0",
      "highway=track tracktype=grade3",
      "",
      "8380",
      "810131"
     ],
     [
      "15989825",
      "49679651",
      "653",
      "118",
      "1150",
      "0",
      "81",
      "0",
      "0",
      "reversedirection=yes highway=residential",
      "estimated_crossing_class=1",
      "8402",
      "812346"
     ],
     [
      "15989256",
      "49677556",
      "658",
      "236",
      "1650",
      "0",
      "118",
      "0",
      "0",
      "reversedirection=yes highway=secondary surface=asphalt",
      "estimated_crossing_class=1",
      "8449",
      "817034"
     ],
     [
      "15988730",
      "49673350",
      "663",
      "470",
      "1650",
      "0",
      "0",
      "0",
      "0",
      "reversedirection=yes highway=secondary surface=asphalt",
      "estimated_crossing_class=1",
      "8554",
      "827607"
     ],
     [
      "15988458",
      "49672970",
      "665",
      "47",
      "1650",
      "0",
      "3",
      "0",
      "0",
      "reversedirection=yes highway=secondary surface=asphalt",
      "estimated_crossing_class=1",
      "8567",
      "828821"
     ],
     [
      "15987218",
      "49671744",
      "668",
      "163",
      "1650",
      "0",
      "0",
      "0",
      "0",
      "reversedirection=yes highway=secondary surface=asphalt",
      "estimated_crossing_class=1",
      "8618",
      "833984"
     ],
     [
      "15978201",
      "49668317",
      "678",
      "765",
      "1650",
      "0",
      "1",
      "0",
      "0",
      "reversedirection=yes highway=secondary surface=asphalt",
      "estimated_crossing_class=1",
      "8812",
      "853402"
     ],
     [
      "15973417",
      "49663100",
      "683",
      "698",
      "1650",
      "0",
      "1",
      "0",
      "0",
      "reversedirection=yes highway=secondary surface=asphalt",
      "estimated_crossing_class=1",
      "8967",
      "868867"
     ],
     [
      "15973041",
      "49661042",
      "681",
      "231",
      "1650",
      "0",
      "2",
      "0",
      "0",
      "reversedirection=yes highway=secondary surface=asphalt",
      "estimated_crossing_class=1",
      "9003",
      "872493"
     ],
     [
      "15973243",
      "49660230",
      "681",
      "92",
      "1650",
      "0",
      "0",
      "0",
      "0",
      "reversedirection=yes highway=secondary surface=asphalt",
      "estimated_crossing_class=1",
      "9018",
      "873934"
     ],
     [
      "15968093",
      "49654165",
      "694",
      "770",
      "1650",
      "0",
      "7",
      "0",
      "0",
      "reversedirection=yes highway=secondary surface=asphalt",
      "estimated_crossing_class=1",
      "9217",
      "893838"
     ],
     [
      "15969278",
      "49653791",
      "693",
      "95",
      "2050",
      "0",
      "85",
      "0",
      "0",
      "highway=track tracktype=grade2",
      "",
      "9241",
      "896252"
     ],
     [
      "15968093",
      "49654165",
      "694",
      "95",
      "2050",
      "0",
      "0",
      "0",
      "0",
      "reversedirection=yes highway=track tracktype=grade2",
      "estimated_crossing_class=1",
      "9263",
      "898442"
     ],
     [
      "15967664",
      "49652846",
      "704",
      "151",
      "1650",
      "0",
      "97",
      "0",
      "0",
      "reversedirection=yes highway=secondary surface=asphalt",
      "estimated_crossing_class=1",
      "9318",
      "903979"
     ],
     [
      "15969031",
      "49647465",
      "681",
      "610",
      "1650",
      "295",
      "6",
      "0",
      "0",
      "reversedirection=yes highway=secondary surface=asphalt",
      "estimated_crossing_class=1",
      "9408",
      "911213"
     ],
     [
      "15967409",
      "49645041",
      "667",
      "297",
      "1650",
      "586",
      "2",
      "0",
      "0",
      "reversedirection=yes highway=secondary",
      "estimated_crossing_class=1",
      "9432",
      "912520"
     ],
     [
      "15966793",
      "49644313",
      "660",
      "93",
      "1650",
      "320",
      "0",
      "0",
      "0",
      "reversedirection=yes highway=secondary surface=asphalt cycleway:both=no",
      "estimated_crossing_class=1",
      "9440",
      "912544"
     ],
     [
      "15968121",
      "49643916",
      "658",
      "106",
      "1550",
      "54",
      "105",
      "0",
      "0",
      "highway=residential surface=unpaved oneway:bicycle=no",
      "",
      "9448",
      "913410"
     ]
    ],
    "times": [
     0,
     13.678,
     26.015,
     31.127,
     59.934,
     72.488,
     88.325,
     114.204,
     125.801,
     204.107,
     237.198,
     390.594,
     497.779,
     509.756,
     516.876,
     523.162,
     526.902,
     536.208,
     558.093,
     562.386,
     592.585,
     606.265,
     607.284,
     647.383,
     650.572,
     654.761,
     662.366,
     669.675,
     675.476,
     680.452,
     766.187,
     768.916,
     834.795,
     1001.315,
     1172.953,
     1188.766,
     1234.813,
     1336.51,
     1377.756,
     1382.299,
     1514.33,
     1546.59,
     1554.822,
     1593.547,
     1614.311,
     1621.427,
     1661.515,
     1669.27,
     1690.096,
     1706.981,
     1714.488,
     1718.072,
     1724.92,
     1731.964,
     1742.361,
     1747.258,
     1757.888,
     1764.01,
     1767.119,
     1775.293,
     1777.178,
     1789.071,
     1792.3,
     1794.666,
     1797.871,
     1800.328,
     1803.791,
     1806.465,
     1807.854,
     1808.984,
     1812.287,
     1817.007,
     1841.567,
     1842.47,
     1844.105,
     1844.705,
     1851.933,
     1852.789,
     1853.364,
     1853.978,
     1858.733,
     1864.934,
     1876.703,
     1895.22,
     1896.333,
     1897.32,
     1901.103,
     1902.236,
     1903.676,
     1905.836,
     1909.501,
     1916.758,
     1917.789,
     1919.679,
     1921.017,
     1924.937,
     1926.037,
     1930.543,
     1931.945,
     1932.848,
     1935.407,
     1935.807,
     1937.167,
     1939.088,
     1940.527,
     1941.728,
     1943.647,
     1944.287,
     1945.887,
     1947.088,
     1949.647,
     1950.806,
     1954.426,
     1956.573,
     1958.028,
     1962.507,
     1967.367,
     1970.598,
     1987.709,
     2025.932,
     2030.867,
     2037.107,
     2081.334,
     2097.084,
     2105.303,
     2112.253,
     2120.683,
     2138.747,
     2181.893,
     2189.188,
     2195.229,
     2204.141,
     2229.214,
     2232.291,
     2234.774,
     2236.501,
     2237.856,
     2240.366,
     2242.213,
     2243.829,
     2247.342,
     2249.607,
     2253.767,
     2259.047,
     2260.115,
     2267.075,
     2268.595,
     2269.315,
     2270.618,
     2282.97,
     2286.044,
     2290.1,
     2296.744,
     2301.898,
     2306.764,
     2311.219,
     2318.99,
     2327.828,
     2335.117,
     2337.707,
     2340.199,
     2341.915,
     2343.564,
     2346.461,
     2349.396,
     2356.029,
     2358.707,
     2369.791,
     2372.609,
     2375.215,
     2376.257,
     2378.987,
     2381.387,
     2384.347,
     2385.707,
     2389.645,
     2396.709,
     2406.576,
     2419.225,
     2422.76,
     2431.609,
     2448.572,
     2551.164,
     2557.9,
     2565.339,
     2570.38,
     2575.945,
     2579.656,
     2582.691,
     2600.257,
     2607.262,
     2621.062,
     2631.728,
     2636.122,
     2641.736,
     2645.639,
     2648.407,
     2669.463,
     2675.273,
     2678.436,
     2679.603,
     2680.746,
     2681.504,
     2690.079,
     2699.026,
     2725.741,
     2732.475,
     2749.085,
     2766.377,
     2776.271,
     2785.946,
     2797.248,
     2801.12,
     2805.055,
     2894.532,
     3025.439,
     3096.227,
     3126.946,
     3155.596,
     3175.475,
     3185.857,
     3222.089,
     3234.837,
     3253.683,
     3297.147,
     3340.935,
     3356.637,
     3367.157,
     3374.168,
     3383.051,
     3387.542,
     3397.304,
     3399.17,
     3406.128,
     3413.451,
     3423.707,
     3433.281,
     3441.178,
     3449.908,
     3475.904,
     3496.881,
     3523.821,
     3543.132,
     3585.713,
     3623.167,
     3632.828,
     3637.464,
     3641.238,
     3645.898,
     3650.458,
     3654.538,
     3656.778,
     3659.098,
     3667.018,
     3667.658,
     3667.826,
     3670.865,
     3675.791,
     3678.006,
     3680.153,
     3682.998,
     3684.138,
     3686.09,
     3695.286,
     3697.427,
     3700.719,
     3705.359,
     3708.958,
     3715.198,
     3717.82,
     3720.999,
     3724.84,
     3734.614,
     3737.094,
     3737.864,
     3738.967,
     3760.273,
     3763.284,
     3765.505,
     3768.626,
     3777.423,
     3781.059,
     3787.03,
     3788.9,
     3796.561,
     3801.414,
     3802.842,
     3810.211,
     3820.081,
     3821.569,
     3826.516,
     3832.779,
     3833.802,
     3836.293,
     3839.042,
     3854.902,
     3860.625,
     3866.609,
     3869.845,
     3873.101,
     3878.335,
     3884.922,
     3888.011,
     3890.464,
     3892.925,
     3903.846,
     3913.609,
     3931.467,
     3955.645,
     3986.547,
     4006.906,
     4073.207,
     4123.481,
     4131.344,
     4148.138,
     4154.307,
     4165.292,
     4185.646,
     4203.467,
     4214.654,
     4216.725,
     4226.325,
     4229.751,
     4232.82,
     4235.967,
     4238.175,
     4240.876,
     4241.18,
     4241.516,
     4244.54,
     4247.404,
     4251.447,
     4255.178,
     4258.973,
     4268.095,
     4271.1,
     4286.049,
     4300.257,
     4349.6,
     4352.174,
     4358.076,
     4366.091,
     4376.312,
     4396.618,
     4409.065,
     4422.462,
     4440.375,
     4447.336,
     4451.666,
     4462.23,
     4466.143,
     4470.89,
     4472.986,
     4473.71,
     4475.11,
     4477.119,
     4480.033,
     4481.953,
     4484.752,
     4486.913,
     4489.312,
     4490.592,
     4493.312,
     4496.112,
     4498.112,
     4499.232,
     4501.232,
     4503.072,
     4504.672,
     4507.18,
     4508.749,
     4514.628,
     4517.225,
     4530.065,
     4532.036,
     4538.814,
     4540.556,
     4548.524,
     4552.152,
     4556.959,
     4567.195,
     4570.79,
     4573.289,
     4581.382,
     4584.227,
     4585.799,
     4587.351,
     4591.288,
     4593.181,
     4593.761,
     4594.625,
     4596.386,
     4597.086,
     4597.854,
     4598.267,
     4598.595,
     4599.641,
     4601.161,
     4603.24,
     4605.4,
     4606.521,
     4607.641,
     4609.161,
     4610.121,
     4613.24,
     4615,
     4616.84,
     4619.96,
     4624.92,
     4626.84,
     4633.47,
     4635.943,
     4640.511,
     4643.712,
     4646.487,
     4649.346,
     4653.263,
     4657.392,
     4663.683,
     4668.922,
     4677.595,
     4688.849,
     4704.784,
     4778.896,
     4787.91,
     4806.448,
     4824.995,
     4883.13,
     4923.465,
     4929.957,
     4931.469,
     4937.79,
     4942.349,
     4944.029,
     4945.869,
     4946.989,
     4954.35,
     4955.79,
     4958.989,
     4959.925,
     4960.999,
     4962.524,
     4965.277,
     4967.622,
     4973.262,
     4977.793,
     4982.204,
     4990.195,
     4995.863,
     5004.736,
     5010.093,
     5017.148,
     5022.729,
     5037.629,
     5038.723,
     5039.353,
     5044.871,
     5048.256,
     5053.646,
     5058.388,
     5066.102,
     5071.117,
     5076.204,
     5080.182,
     5083.729,
     5089.707,
     5092.218,
     5095.937,
     5098.929,
     5100.853,
     5102.595,
     5107.418,
     5109.989,
     5115.03,
     5117.922,
     5121.953,
     5124.075,
     5126.699,
     5128.058,
     5129.607,
     5131.047,
     5132.938,
     5135.732,
     5138.524,
     5140.339,
     5146.707,
     5149.361,
     5152.102,
     5155.122,
     5157.071,
     5160.386,
     5163.041,
     5164.829,
     5166.332,
     5168.059,
     5170.944,
     5173.904,
     5175.584,
     5179.024,
     5181.185,
     5184.688,
     5196.619,
     5198.927,
     5208.27,
     5213.538,
     5216.189,
     5220.04,
     5226.019,
     5229.303,
     5231.195,
     5235.001,
     5240.943,
     5243.588,
     5246.417,
     5249.252,
     5252.212,
     5255.332,
     5261.572,
     5263.812,
     5266.372,
     5270.932,
     5277.332,
     5280.692,
     5281.892,
     5282.452,
     5285.492,
     5288.692,
     5291.572,
     5293.652,
     5297.892,
     5308.932,
     5317.172,
     5317.639,
     5321.479,
     5322.52,
     5328.759,
     5341.879,
     5348.039,
     5351.079,
     5352.839,
     5355.959,
     5368.919,
     5371.691,
     5376.805,
     5380.316,
     5387.748,
     5392.89,
     5398.235,
     5414.748,
     5418.4,
     5420.619,
     5422.975,
     5425.584,
     5428.47,
     5429.934,
     5431.062,
     5432.575,
     5434.591,
     5439.335,
     5443.952,
     5447.318,
     5451.24,
     5457.593,
     5477.901,
     5483.227,
     5489.466,
     5498.097,
     5509.123,
     5543.534,
     5548.985,
     5552.774,
     5564.453,
     5572.299,
     5572.728,
     5573.592,
     5574.054,
     5576.861,
     5578.35,
     5580.062,
     5583.332,
     5592.615,
     5611.303,
     5615.407,
     5618.284,
     5742.683,
     5796.124,
     5816.234,
     5834.086,
     5852.507,
     5892.677,
     5905.795,
     5914.016,
     5923.859,
     5930.791,
     5943.56,
     5951.985,
     5964.418,
     5977.139,
     5981.974,
     5989.525,
     5998.762,
     6007.999,
     6021.946,
     6024.152,
     6033.744,
     6053.027,
     6060.47,
     6068.899,
     6074.611,
     6084.077,
     6101.56,
     6120.049,
     6202.477,
     6210.371,
     6213.835,
     6218.7,
     6224.63,
     6229.146,
     6245.437,
     6273.772,
     6314.116,
     6316.953,
     6319.088,
     6327.738,
     6330.415,
     6335.375,
     6347.945,
     6349.702,
     6354.611,
     6356.622,
     6356.79,
     6358.638,
     6360.318,
     6362.29,
     6369.006,
     6376.306,
     6412.044,
     6439.67,
     6447.65,
     6473.901,
     6490.696,
     6493.046,
     6497.231,
     6502.862,
     6525.511,
     6533.331,
     6538.028,
     6544.007,
     6571.964,
     6598.665,
     6613.18,
     6641.436,
     6649.522,
     6656.674,
     6664.668,
     6675.752,
     6682.994,
     6684.107,
     6699.883,
     6706.736,
     6713.726,
     6718.607,
     6724.608,
     6737.922,
     6740.055,
     6743.101,
     6746.958,
     6749.977,
     6776.222,
     6821.285,
     6839.456,
     6861.37,
     6880.85,
     6914.067,
     6934.691,
     6937.976,
     6943.43,
     6949.738,
     6958.671,
     6966.599,
     6991.933,
     6998.127,
     7003.649,
     7069.786,
     7084.736,
     7107.932,
     7112.781,
     7117.814,
     7122.588,
     7126.928,
     7147.922,
     7176.253,
     7179.566,
     7182.12,
     7205.291,
     7211.33,
     7223.131,
     7237.475,
     7241.696,
     7246.711,
     7256.566,
     7287.721,
     7291.801,
     7295.498,
     7304.831,
     7310.039,
     7323.489,
     7407.467,
     7414.337,
     7421.446,
     7430.319,
     7437.946,
     7455.808,
     7496.036,
     7507.354,
     7528.131,
     7599.667,
     7628.063,
     7657.108,
     7716.086,
     7742.002,
     7749.264,
     7756.262,
     7770.115,
     7779.662,
     7782.698,
     7785.622,
     7787.795,
     7789.967,
     7792.638,
     7793.488,
     7795.876,
     7800.34,
     7826.678,
     7829.41,
     7833.625,
     7841.654,
     7846.627,
     7857.09,
     7865.471,
     7869.637,
     7879.486,
     7882.497,
     7885.773,
     7888.521,
     7893.544,
     7898.992,
     7903.977,
     7926.047,
     7935.136,
     7937.975,
     7944.513,
     7947.611,
     7951.296,
     7953.395,
     7954.785,
     7957.066,
     7959.109,
     7967.66,
     7975.746,
     7987.013,
     7992.981,
     7997.555,
     8005.234,
     8010.539,
     8012.498,
     8016.889,
     8020.438,
     8022.038,
     8024.038,
     8027.478,
     8031.591,
     8035.472,
     8037.577,
     8054.869,
     8060.517,
     8070.993,
     8087.458,
     8096.697,
     8108.174,
     8134.413,
     8148.321,
     8162.496,
     8167.323,
     8192.143,
     8199.584,
     8202.757,
     8205.1,
     8215.102,
     8223.323,
     8226.414,
     8231.534,
     8241.332,
     8246.895,
     8255.332,
     8264.817,
     8268.1,
     8270.657,
     8272.812,
     8274.339,
     8275.855,
     8279.49,
     8293.799,
     8295.803,
     8297.531,
     8299.237,
     8303.096,
     8304.34,
     8351.508,
     8353.512,
     8364.038,
     8366.466,
     8368.86,
     8377.598,
     8379.198,
     8380.206,
     8386.619,
     8389.1,
     8392.096,
     8400.603,
     8402.354,
     8423.596,
     8449.228,
     8494.883,
     8549.732,
     8554.941,
     8561.54,
     8567.075,
     8572.734,
     8618.688,
     8636.881,
     8646.728,
     8659.38,
     8680.29,
     8697.747,
     8707.434,
     8730.059,
     8812.821,
     8822.576,
     8836.32,
     8853.037,
     8860.41,
     8864.119,
     8866.438,
     8870.574,
     8874.145,
     8879.981,
     8952.419,
     8967.447,
     8971.25,
     8983.415,
     8993.783,
     8999.544,
     9003.693,
     9014.739,
     9018.103,
     9020.834,
     9022.841,
     9059.886,
     9060.869,
     9114.911,
     9210.985,
     9217.09,
     9241.228,
     9263.113,
     9275.111,
     9292.621,
     9318.477,
     9332.193,
     9389.378,
     9404.018,
     9408.178,
     9417.618,
     9420.018,
     9426.512,
     9430.168,
     9432.877,
     9438.957,
     9440.317,
     9444.317,
     9448.973
    ]
   },
   "geometry": {
    "type": "LineString",
    "coordinates": [
     [
      15.968121,
      49.643916,
      658.0
     ],
     [
      15.967435,
      49.644152,
      659.75
     ],
     [
      15.966793,
      49.644313,
      660.5
     ],
     [
      15.966914,
      49.644443,
      661.75
     ],
     [
      15.967409,
      49.645041,
      667.25
     ],
     [
      15.967593,
      49.645302,
      669.0
     ],
     [
      15.96788,
      49.645609,
      670.25
     ],
     [
      15.968458,
      49.646193,
      671.25
     ],
     [
      15.96859,
      49.646446,
      673.25
     ],
     [
      15.969031,
      49.647465,
      681.5
     ],
     [
      15.969163,
      49.647923,
      686.0
     ],
     [
      15.968814,
      49.649557,
      699.75
     ],
     [
      15.967713,
      49.652504,
      705.0
     ],
     [
      15.967664,
      49.652846,
      704.5
     ],
     [
      15.967715,
      49.65336,
      701.0
     ],
     [
      15.967886,
      49.653844,
      696.75
     ],
     [
      15.968093,
      49.654165,
      694.75
     ],
     [
      15.969278,
      49.653791,
      693.0
     ],
     [
      15.968093,
      49.654165,
      694.75
     ],
     [
      15.968234,
      49.654384,
      694.0
     ],
     [
      15.970006,
      49.65644,
      686.5
     ],
     [
      15.971192,
      49.657773,
      676.25
     ],
     [
      15.971265,
      49.657852,
      675.75
     ],
     [
      15.973106,
      49.659925,
      679.75
     ],
     [
      15.973199,
      49.66006,
      680.5
     ],
     [
      15.973243,
      49.66023,
      681.0
     ],
     [
      15.973502,
      49.660402,
      682.25
     ],
     [
      15.973759,
      49.660525,
      683.25
     ],
     [
      15.974162,
      49.660575,
      684.75
     ],
     [
      15.974427,
      49.660476,
      685.5
     ],
     [
      15.976809,
      49.659468,
      693.0
     ],
     [
      15.976923,
      49.659419,
      693.75
     ],
     [
      15.978611,
      49.658725,
      699.75
     ],
     [
      15.981914,
      49.657363,
      714.75
     ],
     [
      15.985199,
      49.656009,
      731.25
     ],
     [
      15.985706,
      49.655796,
      733.75
     ],
     [
      15.986761,
      49.655284,
      738.25
     ],
     [
      15.988984,
      49.654131,
      746.25
     ],
     [
      15.990256,
      49.65352,
      749.75
     ],
     [
      15.990429,
      49.653431,
      750.25
     ],
     [
      15.993199,
      49.652332,
      762.25
     ],
     [
      15.994228,
      49.652024,
      765.75
     ],
     [
      15.994499,
      49.652033,
      767.5
     ],
     [
      15.995552,
      49.652091,
      771.0
     ],
     [
      15.996295,
      49.652136,
      772.0
     ],
     [
      15.996581,
      49.652165,
      772.5
     ],
     [
      15.997812,
      49.652583,
      775.5
     ],
     [
      15.998109,
      49.652684,
      776.25
     ],
     [
      15.998525,
      49.653089,
      778.25
     ],
     [
      15.998761,
      49.653367,
      781.0
     ],
     [
      15.998876,
      49.653522,
      781.0
     ],
     [
      15.998881,
      49.653615,
      781.0
     ],
     [
      15.998855,
      49.6538,
      781.0
     ],
     [
      15.9988,
      49.654032,
      780.75
     ],
     [
      15.998647,
      49.654417,
      777.75
     ],
     [
      15.998592,
      49.654652,
      777.25
     ],
     [
      15.998223,
      49.655182,
      776.75
     ],
     [
      15.997887,
      49.655352,
      777.5
     ],
     [
      15.997718,
      49.655512,
      776.25
     ],
     [
      15.99716,
      49.655911,
      775.75
     ],
     [
      15.997053,
      49.656009,
      775.75
     ],
     [
      15.996846,
      49.656694,
      772.75
     ],
     [
      15.996767,
      49.656902,
      772.0
     ],
     [
      15.996695,
      49.65704,
      772.25
     ],
     [
      15.996704,
      49.657278,
      771.25
     ],
     [
      15.996577,
      49.657398,
      772.0
     ],
     [
      15.996577,
      49.657677,
      770.25
     ],
     [
      15.996485,
      49.657885,
      769.75
     ],
     [
      15.99636,
      49.657869,
      772.0
     ],
     [
      15.996485,
      49.657885,
      769.75
     ],
     [
      15.997033,
      49.657993,
      763.0
     ],
     [
      15.99784,
      49.658095,
      754.5
     ],
     [
      16.001946,
      49.658819,
      727.75
     ],
     [
      16.002063,
      49.658827,
      727.5
     ],
     [
      16.002261,
      49.658848,
      727.5
     ],
     [
      16.002323,
      49.658856,
      727.5
     ],
     [
      16.003106,
      49.658971,
      730.25
     ],
     [
      16.00318,
      49.658986,
      730.5
     ],
     [
      16.003235,
      49.658996,
      730.5
     ],
     [
      16.003292,
      49.659007,
      730.75
     ],
     [
      16.003601,
      49.659086,
      731.75
     ],
     [
      16.003974,
      49.659131,
      732.5
     ],
     [
      16.004874,
      49.659281,
      734.75
     ],
     [
      16.006193,
      49.659514,
      732.25
     ],
     [
      16.006291,
      49.659553,
      731.25
     ],
     [
      16.006389,
      49.659598,
      730.0
     ],
     [
      16.00677,
      49.659907,
      724.5
     ],
     [
      16.00691,
      49.659996,
      723.0
     ],
     [
      16.00713,
      49.660068,
      720.75
     ],
     [
      16.007496,
      49.660111,
      720.25
     ],
     [
      16.007966,
      49.659967,
      721.25
     ],
     [
      16.008896,
      49.659808,
      720.5
     ],
     [
      16.009018,
      49.659808,
      720.25
     ],
     [
      16.009253,
      49.659848,
      719.5
     ],
     [
      16.009429,
      49.65992,
      718.0
     ],
     [
      16.010028,
      49.660122,
      715.5
     ],
     [
      16.010205,
      49.660138,
      715.0
     ],
     [
      16.010918,
      49.660125,
      714.0
     ],
     [
      16.011123,
      49.660171,
      713.0
     ],
     [
      16.01125,
      49.660226,
      712.0
     ],
     [
      16.011561,
      49.660426,
      708.0
     ],
     [
      16.011618,
      49.660448,
      707.5
     ],
     [
      16.011835,
      49.660497,
      706.0
     ],
     [
      16.012166,
      49.660531,
      703.75
     ],
     [
      16.012407,
      49.66057,
      701.25
     ],
     [
      16.012615,
      49.66057,
      700.25
     ],
     [
      16.01294,
      49.660557,
      698.75
     ],
     [
      16.01302,
      49.660602,
      698.0
     ],
     [
      16.013146,
      49.660758,
      697.5
     ],
     [
      16.013277,
      49.660859,
      697.5
     ],
     [
      16.013533,
      49.661098,
      697.5
     ],
     [
      16.013398,
      49.661173,
      698.0
     ],
     [
      16.012963,
      49.661457,
      696.0
     ],
     [
      16.012704,
      49.6616,
      695.25
     ],
     [
      16.012555,
      49.661716,
      694.5
     ],
     [
      16.012267,
      49.662013,
      695.75
     ],
     [
      16.012073,
      49.662329,
      698.75
     ],
     [
      16.011886,
      49.662463,
      699.5
     ],
     [
      16.011217,
      49.662963,
      701.25
     ],
     [
      16.010228,
      49.663972,
      707.0
     ],
     [
      16.010178,
      49.664133,
      708.0
     ],
     [
      16.010153,
      49.664331,
      708.5
     ],
     [
      16.010134,
      49.665221,
      713.0
     ],
     [
      16.010133,
      49.665548,
      715.25
     ],
     [
      16.010099,
      49.665711,
      716.5
     ],
     [
      16.010041,
      49.665838,
      717.25
     ],
     [
      16.009933,
      49.665986,
      718.0
     ],
     [
      16.009589,
      49.666291,
      718.75
     ],
     [
      16.008654,
      49.667049,
      721.25
     ],
     [
      16.008439,
      49.667199,
      722.0
     ],
     [
      16.008241,
      49.667318,
      722.5
     ],
     [
      16.007888,
      49.667493,
      722.5
     ],
     [
      16.006628,
      49.66805,
      719.75
     ],
     [
      16.006416,
      49.668155,
      719.0
     ],
     [
      16.00622,
      49.668276,
      717.75
     ],
     [
      16.006082,
      49.668383,
      716.75
     ],
     [
      16.005981,
      49.668484,
      716.25
     ],
     [
      16.005863,
      49.668611,
      715.0
     ],
     [
      16.005782,
      49.668747,
      713.5
     ],
     [
      16.005727,
      49.668895,
      712.0
     ],
     [
      16.005639,
      49.669254,
      710.5
     ],
     [
      16.00559,
      49.669498,
      709.0
     ],
     [
      16.005443,
      49.66996,
      706.75
     ],
     [
      16.005276,
      49.67054,
      704.0
     ],
     [
      16.00522,
      49.67065,
      703.0
     ],
     [
      16.004661,
      49.671341,
      696.5
     ],
     [
      16.004576,
      49.671504,
      695.75
     ],
     [
      16.004543,
      49.671586,
      695.5
     ],
     [
      16.004488,
      49.671727,
      695.25
     ],
     [
      16.004406,
      49.672929,
      693.5
     ],
     [
      16.004648,
      49.673,
      694.75
     ],
     [
      16.005089,
      49.67312,
      696.0
     ],
     [
      16.005585,
      49.672999,
      697.5
     ],
     [
      16.006047,
      49.672854,
      696.5
     ],
     [
      16.006372,
      49.672724,
      697.25
     ],
     [
      16.006698,
      49.672579,
      696.75
     ],
     [
      16.007332,
      49.67224,
      695.75
     ],
     [
      16.007935,
      49.671945,
      696.25
     ],
     [
      16.008594,
      49.671718,
      695.25
     ],
     [
      16.008827,
      49.671695,
      695.5
     ],
     [
      16.009091,
      49.671726,
      694.75
     ],
     [
      16.009259,
      49.671784,
      694.25
     ],
     [
      16.009386,
      49.671868,
      694.25
     ],
     [
      16.009549,
      49.672046,
      694.0
     ],
     [
      16.009647,
      49.672224,
      694.25
     ],
     [
      16.009734,
      49.672605,
      694.5
     ],
     [
      16.009774,
      49.672768,
      694.25
     ],
     [
      16.009858,
      49.673351,
      694.75
     ],
     [
      16.009491,
      49.673397,
      692.25
     ],
     [
      16.009272,
      49.673441,
      690.75
     ],
     [
      16.009176,
      49.673477,
      690.0
     ],
     [
      16.008873,
      49.673642,
      687.75
     ],
     [
      16.0085,
      49.673764,
      685.25
     ],
     [
      16.008189,
      49.674025,
      682.75
     ],
     [
      16.008026,
      49.674137,
      681.25
     ],
     [
      16.008189,
      49.674025,
      682.75
     ],
     [
      16.0085,
      49.673764,
      685.25
     ],
     [
      16.008873,
      49.673642,
      687.75
     ],
     [
      16.009176,
      49.673477,
      690.0
     ],
     [
      16.009272,
      49.673441,
      690.75
     ],
     [
      16.009491,
      49.673397,
      692.25
     ],
     [
      16.009858,
      49.673351,
      694.75
     ],
     [
      16.010154,
      49.674975,
      701.0
     ],
     [
      16.010195,
      49.675216,
      700.75
     ],
     [
      16.010311,
      49.67548,
      701.0
     ],
     [
      16.010446,
      49.675696,
      700.5
     ],
     [
      16.010568,
      49.675812,
      700.0
     ],
     [
      16.010751,
      49.675965,
      700.5
     ],
     [
      16.010924,
      49.676085,
      700.5
     ],
     [
      16.011568,
      49.67641,
      700.25
     ],
     [
      16.011839,
      49.676575,
      700.5
     ],
     [
      16.012312,
      49.676922,
      701.25
     ],
     [
      16.012738,
      49.677289,
      701.0
     ],
     [
      16.01294,
      49.677463,
      700.75
     ],
     [
      16.013248,
      49.677746,
      699.75
     ],
     [
      16.013411,
      49.67795,
      699.75
     ],
     [
      16.013496,
      49.678092,
      700.0
     ],
     [
      16.013871,
      49.679419,
      698.75
     ],
     [
      16.013932,
      49.679732,
      699.0
     ],
     [
      16.013932,
      49.6799,
      699.0
     ],
     [
      16.013948,
      49.679964,
      699.0
     ],
     [
      16.014029,
      49.679969,
      699.5
     ],
     [
      16.014086,
      49.679962,
      699.5
     ],
     [
      16.014427,
      49.679871,
      701.75
     ],
     [
      16.014938,
      49.679688,
      703.75
     ],
     [
      16.015711,
      49.679379,
      707.75
     ],
     [
      16.015896,
      49.679296,
      709.25
     ],
     [
      16.016244,
      49.679115,
      711.5
     ],
     [
      16.016553,
      49.678935,
      713.75
     ],
     [
      16.016705,
      49.678833,
      715.5
     ],
     [
      16.01682,
      49.67872,
      716.75
     ],
     [
      16.01694,
      49.678588,
      718.0
     ],
     [
      16.016979,
      49.678537,
      718.5
     ],
     [
      16.017001,
      49.678486,
      719.0
     ],
     [
      16.017572,
      49.677818,
      729.0
     ],
     [
      16.018677,
      49.677155,
      742.75
     ],
     [
      16.019259,
      49.676696,
      751.0
     ],
     [
      16.019512,
      49.676436,
      754.0
     ],
     [
      16.019724,
      49.676193,
      757.25
     ],
     [
      16.019872,
      49.676009,
      759.0
     ],
     [
      16.019983,
      49.675922,
      759.75
     ],
     [
      16.020476,
      49.675689,
      762.5
     ],
     [
      16.020696,
      49.675641,
      764.0
     ],
     [
      16.021023,
      49.675608,
      766.0
     ],
     [
      16.021707,
      49.675564,
      770.25
     ],
     [
      16.02242,
      49.675431,
      774.0
     ],
     [
      16.02272,
      49.675349,
      775.0
     ],
     [
      16.022951,
      49.675258,
      774.75
     ],
     [
      16.023093,
      49.675143,
      774.5
     ],
     [
      16.023238,
      49.674899,
      773.5
     ],
     [
      16.023418,
      49.67476,
      772.75
     ],
     [
      16.023761,
      49.674596,
      771.5
     ],
     [
      16.023808,
      49.67454,
      770.75
     ],
     [
      16.024122,
      49.674177,
      770.75
     ],
     [
      16.024304,
      49.673881,
      772.0
     ],
     [
      16.024522,
      49.673426,
      775.0
     ],
     [
      16.024621,
      49.673176,
      777.5
     ],
     [
      16.024731,
      49.673016,
      779.25
     ],
     [
      16.024851,
      49.672868,
      780.5
     ],
     [
      16.025072,
      49.672533,
      784.25
     ],
     [
      16.025174,
      49.672267,
      787.25
     ],
     [
      16.02543,
      49.671969,
      789.75
     ],
     [
      16.025682,
      49.671737,
      790.75
     ],
     [
      16.026303,
      49.671228,
      793.75
     ],
     [
      16.02717,
      49.670163,
      793.25
     ],
     [
      16.027192,
      49.669846,
      791.5
     ],
     [
      16.027279,
      49.669621,
      790.25
     ],
     [
      16.027494,
      49.669375,
      788.5
     ],
     [
      16.027654,
      49.669106,
      786.0
     ],
     [
      16.027854,
      49.668643,
      782.0
     ],
     [
      16.028173,
      49.668236,
      778.0
     ],
     [
      16.028409,
      49.668032,
      775.5
     ],
     [
      16.028707,
      49.667852,
      773.25
     ],
     [
      16.029484,
      49.667118,
      765.0
     ],
     [
      16.029498,
      49.667046,
      764.5
     ],
     [
      16.0295,
      49.66704,
      764.5
     ],
     [
      16.029494,
      49.666808,
      762.75
     ],
     [
      16.029351,
      49.666554,
      761.0
     ],
     [
      16.029554,
      49.666497,
      760.25
     ],
     [
      16.029776,
      49.666384,
      758.75
     ],
     [
      16.030146,
      49.666209,
      756.5
     ],
     [
      16.030315,
      49.666219,
      756.5
     ],
     [
      16.030547,
      49.666309,
      756.25
     ],
     [
      16.031248,
      49.666654,
      757.75
     ],
     [
      16.031454,
      49.666635,
      757.5
     ],
     [
      16.031826,
      49.666435,
      754.75
     ],
     [
      16.032178,
      49.665962,
      751.0
     ],
     [
      16.032552,
      49.665642,
      748.5
     ],
     [
      16.033055,
      49.665019,
      746.0
     ],
     [
      16.033341,
      49.664819,
      745.0
     ],
     [
      16.033621,
      49.664593,
      745.0
     ],
     [
      16.033848,
      49.664339,
      745.25
     ],
     [
      16.034069,
      49.663828,
      746.5
     ],
     [
      16.034097,
      49.6636,
      746.75
     ],
     [
      16.034189,
      49.663581,
      748.0
     ],
     [
      16.034097,
      49.6636,
      746.75
     ],
     [
      16.033005,
      49.662603,
      743.5
     ],
     [
      16.032874,
      49.662415,
      742.5
     ],
     [
      16.032825,
      49.662252,
      742.0
     ],
     [
      16.032843,
      49.662041,
      742.0
     ],
     [
      16.032777,
      49.661369,
      740.75
     ],
     [
      16.032836,
      49.661089,
      740.0
     ],
     [
      16.033084,
      49.660707,
      740.0
     ],
     [
      16.033172,
      49.660581,
      739.5
     ],
     [
      16.033462,
      49.660001,
      738.25
     ],
     [
      16.033606,
      49.659638,
      737.5
     ],
     [
      16.033637,
      49.659534,
      737.25
     ],
     [
      16.034046,
      49.659075,
      737.0
     ],
     [
      16.034669,
      49.65853,
      736.5
     ],
     [
      16.034729,
      49.658435,
      736.25
     ],
     [
      16.03494,
      49.65805,
      734.75
     ],
     [
      16.035145,
      49.657532,
      733.5
     ],
     [
      16.035195,
      49.657454,
      733.25
     ],
     [
      16.035367,
      49.657308,
      733.5
     ],
     [
      16.035559,
      49.657167,
      733.5
     ],
     [
      16.036852,
      49.656491,
      735.75
     ],
     [
      16.037164,
      49.656235,
      736.0
     ],
     [
      16.037442,
      49.655976,
      736.25
     ],
     [
      16.037563,
      49.655826,
      736.25
     ],
     [
      16.037641,
      49.655669,
      736.5
     ],
     [
      16.037716,
      49.655377,
      736.0
     ],
     [
      16.037754,
      49.654992,
      735.75
     ],
     [
      16.037831,
      49.654798,
      735.25
     ],
     [
      16.037942,
      49.654669,
      735.5
     ],
     [
      16.038066,
      49.654575,
      736.0
     ],
     [
      16.038759,
      49.654226,
      739.0
     ],
     [
      16.039144,
      49.653998,
      740.75
     ],
     [
      16.039646,
      49.653637,
      742.75
     ],
     [
      16.040236,
      49.653157,
      744.75
     ],
     [
      16.040858,
      49.65265,
      748.0
     ],
     [
      16.041348,
      49.652319,
      749.75
     ],
     [
      16.042833,
      49.651573,
      755.25
     ],
     [
      16.044215,
      49.650852,
      759.0
     ],
     [
      16.044561,
      49.650619,
      758.5
     ],
     [
      16.045253,
      49.650085,
      759.0
     ],
     [
      16.045613,
      49.649866,
      758.5
     ],
     [
      16.046235,
      49.649574,
      759.25
     ],
     [
      16.047409,
      49.648843,
      759.0
     ],
     [
      16.048217,
      49.648268,
      760.0
     ],
     [
      16.048864,
      49.647874,
      759.75
     ],
     [
      16.048995,
      49.647814,
      759.75
     ],
     [
      16.04942,
      49.647716,
      759.0
     ],
     [
      16.049623,
      49.647687,
      758.5
     ],
     [
      16.049839,
      49.647642,
      758.0
     ],
     [
      16.050067,
      49.647562,
      757.5
     ],
     [
      16.050241,
      49.647491,
      757.0
     ],
     [
      16.050441,
      49.647392,
      757.0
     ],
     [
      16.050463,
      49.647379,
      757.0
     ],
     [
      16.050441,
      49.647392,
      757.0
     ],
     [
      16.050241,
      49.647491,
      757.0
     ],
     [
      16.050067,
      49.647562,
      757.5
     ],
     [
      16.049839,
      49.647642,
      758.0
     ],
     [
      16.049623,
      49.647687,
      758.5
     ],
     [
      16.04942,
      49.647716,
      759.0
     ],
     [
      16.048995,
      49.647814,
      759.75
     ],
     [
      16.048864,
      49.647874,
      759.75
     ],
     [
      16.048217,
      49.648268,
      760.0
     ],
     [
      16.047409,
      49.648843,
      759.0
     ],
     [
      16.048969,
      49.650326,
      765.25
     ],
     [
      16.049085,
      49.650407,
      765.75
     ],
     [
      16.049396,
      49.650536,
      766.0
     ],
     [
      16.049729,
      49.650684,
      767.25
     ],
     [
      16.050054,
      49.650809,
      769.25
     ],
     [
      16.050572,
      49.651066,
      771.25
     ],
     [
      16.050885,
      49.651253,
      772.25
     ],
     [
      16.051243,
      49.651452,
      773.25
     ],
     [
      16.051936,
      49.651704,
      773.5
     ],
     [
      16.052331,
      49.651813,
      773.0
     ],
     [
      16.052625,
      49.651844,
      772.75
     ],
     [
      16.053723,
      49.651688,
      767.75
     ],
     [
      16.054195,
      49.651641,
      766.5
     ],
     [
      16.054586,
      49.651606,
      764.75
     ],
     [
      16.054807,
      49.651597,
      763.75
     ],
     [
      16.054846,
      49.651554,
      763.25
     ],
     [
      16.05501,
      49.651487,
      762.0
     ],
     [
      16.055254,
      49.651359,
      760.5
     ],
     [
      16.055742,
      49.65132,
      758.75
     ],
     [
      16.056067,
      49.651283,
      757.25
     ],
     [
      16.056552,
      49.651269,
      755.5
     ],
     [
      16.056921,
      49.651308,
      754.5
     ],
     [
      16.057332,
      49.651339,
      753.0
     ],
     [
      16.057556,
      49.651343,
      752.0
     ],
     [
      16.05802,
      49.651289,
      749.5
     ],
     [
      16.058404,
      49.6511,
      746.75
     ],
     [
      16.05866,
      49.650951,
      745.75
     ],
     [
      16.058851,
      49.650913,
      745.25
     ],
     [
      16.059198,
      49.650893,
      744.0
     ],
     [
      16.059521,
      49.650872,
      743.25
     ],
     [
      16.059798,
      49.650861,
      743.0
     ],
     [
      16.060191,
      49.650824,
      742.75
     ],
     [
      16.060411,
      49.65077,
      742.5
     ],
     [
      16.061147,
      49.650433,
      741.0
     ],
     [
      16.061413,
      49.650303,
      741.0
     ],
     [
      16.062534,
      49.649607,
      740.0
     ],
     [
      16.062734,
      49.649536,
      739.5
     ],
     [
      16.063311,
      49.649522,
      740.5
     ],
     [
      16.063549,
      49.649491,
      740.75
     ],
     [
      16.06435,
      49.649369,
      742.0
     ],
     [
      16.064634,
      49.649349,
      742.75
     ],
     [
      16.065004,
      49.64928,
      742.75
     ],
     [
      16.065769,
      49.649172,
      743.0
     ],
     [
      16.066012,
      49.649145,
      743.5
     ],
     [
      16.066184,
      49.64915,
      743.75
     ],
     [
      16.066883,
      49.649231,
      742.75
     ],
     [
      16.067196,
      49.649252,
      741.5
     ],
     [
      16.067389,
      49.649246,
      740.75
     ],
     [
      16.067595,
      49.649223,
      740.0
     ],
     [
      16.067965,
      49.649149,
      738.25
     ],
     [
      16.068183,
      49.649112,
      737.25
     ],
     [
      16.068254,
      49.649101,
      737.0
     ],
     [
      16.068363,
      49.649102,
      736.5
     ],
     [
      16.068644,
      49.649128,
      734.75
     ],
     [
      16.068741,
      49.649096,
      734.25
     ],
     [
      16.068837,
      49.64905,
      733.75
     ],
     [
      16.068901,
      49.649034,
      733.25
     ],
     [
      16.06895,
      49.649039,
      733.0
     ],
     [
      16.069086,
      49.649118,
      732.5
     ],
     [
      16.069253,
      49.649245,
      731.0
     ],
     [
      16.069566,
      49.649369,
      728.5
     ],
     [
      16.069827,
      49.649539,
      727.0
     ],
     [
      16.069952,
      49.649635,
      726.25
     ],
     [
      16.07005,
      49.649741,
      725.5
     ],
     [
      16.070174,
      49.649893,
      724.75
     ],
     [
      16.070268,
      49.649984,
      724.0
     ],
     [
      16.070649,
      49.650229,
      721.25
     ],
     [
      16.070853,
      49.650372,
      719.5
     ],
     [
      16.07104,
      49.650537,
      717.5
     ],
     [
      16.071396,
      49.650801,
      714.75
     ],
     [
      16.071929,
      49.651241,
      710.5
     ],
     [
      16.072067,
      49.651049,
      710.75
     ],
     [
      16.072581,
      49.650571,
      711.75
     ],
     [
      16.07275,
      49.650442,
      712.25
     ],
     [
      16.073093,
      49.650296,
      712.75
     ],
     [
      16.073497,
      49.650175,
      713.25
     ],
     [
      16.073803,
      49.650109,
      713.75
     ],
     [
      16.074014,
      49.650023,
      714.75
     ],
     [
      16.074147,
      49.649877,
      715.75
     ],
     [
      16.074249,
      49.649745,
      716.75
     ],
     [
      16.074386,
      49.649493,
      719.25
     ],
     [
      16.074558,
      49.649375,
      720.75
     ],
     [
      16.074861,
      49.649271,
      722.0
     ],
     [
      16.075221,
      49.64919,
      723.5
     ],
     [
      16.075791,
      49.649182,
      724.5
     ],
     [
      16.075729,
      49.648358,
      734.25
     ],
     [
      16.075769,
      49.648239,
      736.0
     ],
     [
      16.075952,
      49.648065,
      739.25
     ],
     [
      16.076095,
      49.647903,
      742.0
     ],
     [
      16.076352,
      49.647418,
      747.75
     ],
     [
      16.076535,
      49.647037,
      751.5
     ],
     [
      16.076578,
      49.646961,
      752.0
     ],
     [
      16.076535,
      49.647037,
      751.5
     ],
     [
      16.076352,
      49.647418,
      747.75
     ],
     [
      16.076095,
      49.647903,
      742.0
     ],
     [
      16.075952,
      49.648065,
      739.25
     ],
     [
      16.075769,
      49.648239,
      736.0
     ],
     [
      16.075729,
      49.648358,
      734.25
     ],
     [
      16.075791,
      49.649182,
      724.5
     ],
     [
      16.076036,
      49.649227,
      724.25
     ],
     [
      16.07656,
      49.64925,
      725.75
     ],
     [
      16.076683,
      49.649289,
      725.75
     ],
     [
      16.076815,
      49.649343,
      725.75
     ],
     [
      16.076961,
      49.649464,
      724.75
     ],
     [
      16.077239,
      49.649641,
      724.75
     ],
     [
      16.077462,
      49.649753,
      725.25
     ],
     [
      16.078046,
      49.649911,
      725.0
     ],
     [
      16.078478,
      49.649979,
      725.25
     ],
     [
      16.079013,
      49.65001,
      726.75
     ],
     [
      16.079598,
      49.650105,
      728.5
     ],
     [
      16.079988,
      49.650236,
      728.5
     ],
     [
      16.080628,
      49.650438,
      728.5
     ],
     [
      16.081003,
      49.6506,
      728.25
     ],
     [
      16.081456,
      49.650857,
      728.25
     ],
     [
      16.081797,
      49.651015,
      728.75
     ],
     [
      16.082492,
      49.651073,
      731.0
     ],
     [
      16.082531,
      49.651047,
      733.75
     ],
     [
      16.082492,
      49.651073,
      731.0
     ],
     [
      16.081797,
      49.651015,
      728.75
     ],
     [
      16.081456,
      49.650857,
      728.25
     ],
     [
      16.081003,
      49.6506,
      728.25
     ],
     [
      16.080628,
      49.650438,
      728.5
     ],
     [
      16.079988,
      49.650236,
      728.5
     ],
     [
      16.079598,
      49.650105,
      728.5
     ],
     [
      16.079013,
      49.65001,
      726.75
     ],
     [
      16.078478,
      49.649979,
      725.25
     ],
     [
      16.078046,
      49.649911,
      725.0
     ],
     [
      16.077462,
      49.649753,
      725.25
     ],
     [
      16.077239,
      49.649641,
      724.75
     ],
     [
      16.076961,
      49.649464,
      724.75
     ],
     [
      16.076815,
      49.649343,
      725.75
     ],
     [
      16.076683,
      49.649289,
      725.75
     ],
     [
      16.07656,
      49.64925,
      725.75
     ],
     [
      16.076036,
      49.649227,
      724.25
     ],
     [
      16.075791,
      49.649182,
      724.5
     ],
     [
      16.075221,
      49.64919,
      723.5
     ],
     [
      16.074861,
      49.649271,
      722.0
     ],
     [
      16.074558,
      49.649375,
      720.75
     ],
     [
      16.074386,
      49.649493,
      719.25
     ],
     [
      16.074249,
      49.649745,
      716.75
     ],
     [
      16.074147,
      49.649877,
      715.75
     ],
     [
      16.074014,
      49.650023,
      714.75
     ],
     [
      16.073803,
      49.650109,
      713.75
     ],
     [
      16.073497,
      49.650175,
      713.25
     ],
     [
      16.073093,
      49.650296,
      712.75
     ],
     [
      16.07275,
      49.650442,
      712.25
     ],
     [
      16.072581,
      49.650571,
      711.75
     ],
     [
      16.072067,
      49.651049,
      710.75
     ],
     [
      16.071929,
      49.651241,
      710.5
     ],
     [
      16.071827,
      49.65144,
      710.5
     ],
     [
      16.071773,
      49.651668,
      710.0
     ],
     [
      16.071763,
      49.651829,
      709.25
     ],
     [
      16.07181,
      49.652149,
      707.5
     ],
     [
      16.071836,
      49.652409,
      706.5
     ],
     [
      16.071766,
      49.652577,
      706.0
     ],
     [
      16.07166,
      49.652702,
      705.5
     ],
     [
      16.071582,
      49.652862,
      704.75
     ],
     [
      16.071646,
      49.653175,
      703.0
     ],
     [
      16.071801,
      49.653493,
      700.75
     ],
     [
      16.071944,
      49.653654,
      699.75
     ],
     [
      16.072177,
      49.654014,
      697.5
     ],
     [
      16.072265,
      49.654248,
      696.5
     ],
     [
      16.072433,
      49.654602,
      696.0
     ],
     [
      16.072765,
      49.655403,
      697.25
     ],
     [
      16.072903,
      49.655517,
      697.25
     ],
     [
      16.073906,
      49.655788,
      695.75
     ],
     [
      16.074396,
      49.655947,
      695.5
     ],
     [
      16.074616,
      49.656074,
      695.0
     ],
     [
      16.074718,
      49.656302,
      695.5
     ],
     [
      16.074933,
      49.656599,
      695.75
     ],
     [
      16.075153,
      49.656859,
      696.0
     ],
     [
      16.075321,
      49.65698,
      695.75
     ],
     [
      16.075757,
      49.657153,
      695.0
     ],
     [
      16.076443,
      49.657091,
      692.0
     ],
     [
      16.076792,
      49.65713,
      690.5
     ],
     [
      16.077202,
      49.657197,
      689.0
     ],
     [
      16.077593,
      49.657355,
      687.5
     ],
     [
      16.077924,
      49.657605,
      685.25
     ],
     [
      16.078259,
      49.657881,
      683.75
     ],
     [
      16.078911,
      49.658444,
      679.25
     ],
     [
      16.079125,
      49.658657,
      677.0
     ],
     [
      16.079311,
      49.658914,
      674.75
     ],
     [
      16.079578,
      49.659393,
      670.5
     ],
     [
      16.079933,
      49.660072,
      664.0
     ],
     [
      16.080062,
      49.660444,
      660.75
     ],
     [
      16.080046,
      49.66058,
      660.25
     ],
     [
      16.080033,
      49.660644,
      659.5
     ],
     [
      16.080031,
      49.660988,
      656.5
     ],
     [
      16.080071,
      49.661343,
      653.5
     ],
     [
      16.080157,
      49.66166,
      650.25
     ],
     [
      16.080255,
      49.661883,
      648.25
     ],
     [
      16.080328,
      49.662359,
      645.5
     ],
     [
      16.080272,
      49.663598,
      639.0
     ],
     [
      16.080289,
      49.664526,
      634.5
     ],
     [
      16.080308,
      49.664573,
      634.25
     ],
     [
      16.080473,
      49.664987,
      631.5
     ],
     [
      16.080573,
      49.66508,
      630.5
     ],
     [
      16.081193,
      49.665657,
      626.0
     ],
     [
      16.08261,
      49.666813,
      614.75
     ],
     [
      16.083237,
      49.667376,
      610.5
     ],
     [
      16.0837,
      49.667531,
      608.5
     ],
     [
      16.083971,
      49.667624,
      607.5
     ],
     [
      16.084437,
      49.667806,
      605.75
     ],
     [
      16.086142,
      49.668751,
      598.75
     ],
     [
      16.086442,
      49.668924,
      597.75
     ],
     [
      16.087007,
      49.669237,
      596.5
     ],
     [
      16.087366,
      49.669455,
      595.75
     ],
     [
      16.088074,
      49.669816,
      595.5
     ],
     [
      16.088389,
      49.669532,
      595.5
     ],
     [
      16.088704,
      49.669299,
      596.0
     ],
     [
      16.089951,
      49.668737,
      595.5
     ],
     [
      16.090363,
      49.668543,
      595.75
     ],
     [
      16.090573,
      49.668406,
      595.5
     ],
     [
      16.090758,
      49.668282,
      596.0
     ],
     [
      16.09095,
      49.668124,
      595.5
     ],
     [
      16.091141,
      49.667937,
      595.0
     ],
     [
      16.091245,
      49.667849,
      595.0
     ],
     [
      16.091127,
      49.667824,
      595.25
     ],
     [
      16.091245,
      49.667849,
      595.0
     ],
     [
      16.091141,
      49.667937,
      595.0
     ],
     [
      16.09095,
      49.668124,
      595.5
     ],
     [
      16.090758,
      49.668282,
      596.0
     ],
     [
      16.090573,
      49.668406,
      595.5
     ],
     [
      16.090363,
      49.668543,
      595.75
     ],
     [
      16.089951,
      49.668737,
      595.5
     ],
     [
      16.088704,
      49.669299,
      596.0
     ],
     [
      16.088389,
      49.669532,
      595.5
     ],
     [
      16.088074,
      49.669816,
      595.5
     ],
     [
      16.087636,
      49.670202,
      592.5
     ],
     [
      16.08704,
      49.670701,
      592.25
     ],
     [
      16.085189,
      49.672267,
      591.75
     ],
     [
      16.084923,
      49.672503,
      591.75
     ],
     [
      16.084747,
      49.672715,
      591.0
     ],
     [
      16.084316,
      49.67339,
      590.75
     ],
     [
      16.083998,
      49.673869,
      590.0
     ],
     [
      16.083981,
      49.673895,
      590.0
     ],
     [
      16.083945,
      49.673945,
      590.0
     ],
     [
      16.083927,
      49.67397,
      590.25
     ],
     [
      16.083835,
      49.674108,
      590.5
     ],
     [
      16.083764,
      49.674179,
      590.5
     ],
     [
      16.083652,
      49.674249,
      590.25
     ],
     [
      16.083349,
      49.674407,
      591.75
     ],
     [
      16.084325,
      49.674716,
      591.0
     ],
     [
      16.085924,
      49.675209,
      591.0
     ],
     [
      16.086268,
      49.675276,
      591.0
     ],
     [
      16.086324,
      49.675431,
      591.0
     ],
     [
      16.087344,
      49.679468,
      602.25
     ],
     [
      16.087674,
      49.680776,
      607.75
     ],
     [
      16.087749,
      49.681208,
      611.0
     ],
     [
      16.087852,
      49.681545,
      613.25
     ],
     [
      16.087958,
      49.681841,
      615.75
     ],
     [
      16.088216,
      49.682318,
      620.75
     ],
     [
      16.08828,
      49.682493,
      622.5
     ],
     [
      16.088266,
      49.682609,
      623.25
     ],
     [
      16.088185,
      49.682748,
      623.5
     ],
     [
      16.088099,
      49.682851,
      623.75
     ],
     [
      16.087878,
      49.683062,
      623.75
     ],
     [
      16.087779,
      49.683231,
      624.25
     ],
     [
      16.087643,
      49.683507,
      624.75
     ],
     [
      16.087358,
      49.683825,
      624.75
     ],
     [
      16.087306,
      49.683963,
      625.25
     ],
     [
      16.087309,
      49.684159,
      626.25
     ],
     [
      16.087332,
      49.68438,
      627.25
     ],
     [
      16.087285,
      49.684606,
      628.0
     ],
     [
      16.087152,
      49.684994,
      628.25
     ],
     [
      16.087097,
      49.685052,
      628.25
     ],
     [
      16.086765,
      49.6854,
      627.5
     ],
     [
      16.086311,
      49.686013,
      626.0
     ],
     [
      16.086208,
      49.686301,
      626.25
     ],
     [
      16.086187,
      49.686588,
      627.25
     ],
     [
      16.086258,
      49.686765,
      628.0
     ],
     [
      16.086418,
      49.68711,
      630.75
     ],
     [
      16.086569,
      49.687488,
      634.0
     ],
     [
      16.086097,
      49.688034,
      633.5
     ],
     [
      16.080358,
      49.690443,
      629.25
     ],
     [
      16.079865,
      49.690643,
      629.75
     ],
     [
      16.079604,
      49.690671,
      629.75
     ],
     [
      16.079067,
      49.690683,
      628.0
     ],
     [
      16.078358,
      49.690658,
      627.0
     ],
     [
      16.07791,
      49.690609,
      627.25
     ],
     [
      16.076346,
      49.690366,
      626.75
     ],
     [
      16.073448,
      49.689906,
      624.75
     ],
     [
      16.068902,
      49.689176,
      617.0
     ],
     [
      16.068571,
      49.689153,
      615.5
     ],
     [
      16.068281,
      49.68915,
      614.25
     ],
     [
      16.066824,
      49.689221,
      610.0
     ],
     [
      16.066404,
      49.68922,
      608.5
     ],
     [
      16.065544,
      49.689163,
      605.75
     ],
     [
      16.063765,
      49.688999,
      604.0
     ],
     [
      16.063577,
      49.688977,
      604.0
     ],
     [
      16.063168,
      49.688916,
      605.0
     ],
     [
      16.063236,
      49.688806,
      604.75
     ],
     [
      16.063242,
      49.688797,
      604.75
     ],
     [
      16.063138,
      49.688725,
      604.75
     ],
     [
      16.063065,
      49.688803,
      604.75
     ],
     [
      16.062995,
      49.688887,
      605.0
     ],
     [
      16.062724,
      49.689178,
      605.0
     ],
     [
      16.062436,
      49.689505,
      605.0
     ],
     [
      16.061746,
      49.690726,
      607.5
     ],
     [
      16.061354,
      49.691733,
      609.0
     ],
     [
      16.061148,
      49.692011,
      609.75
     ],
     [
      16.060464,
      49.692857,
      611.0
     ],
     [
      16.059955,
      49.693475,
      611.5
     ],
     [
      16.05987,
      49.693569,
      611.5
     ],
     [
      16.059647,
      49.693506,
      612.25
     ],
     [
      16.05937,
      49.693473,
      613.25
     ],
     [
      16.058256,
      49.693438,
      617.25
     ],
     [
      16.05794,
      49.693423,
      619.0
     ],
     [
      16.057764,
      49.693426,
      619.75
     ],
     [
      16.057574,
      49.693451,
      621.0
     ],
     [
      16.056823,
      49.693576,
      623.5
     ],
     [
      16.056042,
      49.693682,
      625.5
     ],
     [
      16.055596,
      49.693725,
      627.0
     ],
     [
      16.054646,
      49.693855,
      628.5
     ],
     [
      16.054339,
      49.693904,
      629.25
     ],
     [
      16.054078,
      49.694014,
      629.5
     ],
     [
      16.053825,
      49.694164,
      630.0
     ],
     [
      16.053304,
      49.694308,
      630.0
     ],
     [
      16.052893,
      49.694479,
      629.5
     ],
     [
      16.052822,
      49.694509,
      629.25
     ],
     [
      16.052104,
      49.69465,
      628.5
     ],
     [
      16.051706,
      49.694768,
      628.0
     ],
     [
      16.051355,
      49.6949,
      628.75
     ],
     [
      16.051039,
      49.694995,
      628.25
     ],
     [
      16.050626,
      49.69505,
      628.5
     ],
     [
      16.049743,
      49.694985,
      629.0
     ],
     [
      16.049593,
      49.694958,
      629.0
     ],
     [
      16.049389,
      49.694894,
      629.0
     ],
     [
      16.049212,
      49.694792,
      629.75
     ],
     [
      16.049106,
      49.694701,
      630.0
     ],
     [
      16.048536,
      49.693894,
      634.5
     ],
     [
      16.047526,
      49.693204,
      639.5
     ],
     [
      16.047114,
      49.692858,
      641.25
     ],
     [
      16.046464,
      49.692511,
      642.75
     ],
     [
      16.046057,
      49.692168,
      645.0
     ],
     [
      16.045824,
      49.691629,
      649.0
     ],
     [
      16.045049,
      49.691036,
      647.25
     ],
     [
      16.044967,
      49.690914,
      647.5
     ],
     [
      16.044889,
      49.690711,
      648.0
     ],
     [
      16.044743,
      49.69049,
      648.25
     ],
     [
      16.044535,
      49.690202,
      649.0
     ],
     [
      16.044364,
      49.689928,
      649.25
     ],
     [
      16.044103,
      49.689047,
      650.5
     ],
     [
      16.043939,
      49.688799,
      650.5
     ],
     [
      16.04354,
      49.688717,
      650.25
     ],
     [
      16.040844,
      49.688284,
      655.75
     ],
     [
      16.040066,
      49.688148,
      657.0
     ],
     [
      16.038381,
      49.687889,
      656.5
     ],
     [
      16.03803,
      49.687841,
      656.75
     ],
     [
      16.037681,
      49.687803,
      657.0
     ],
     [
      16.037395,
      49.687809,
      657.75
     ],
     [
      16.037086,
      49.687835,
      657.25
     ],
     [
      16.03612,
      49.687938,
      656.75
     ],
     [
      16.03428,
      49.688186,
      656.75
     ],
     [
      16.034033,
      49.688214,
      656.75
     ],
     [
      16.033821,
      49.688231,
      656.5
     ],
     [
      16.031924,
      49.688264,
      656.5
     ],
     [
      16.031352,
      49.688314,
      655.75
     ],
     [
      16.030976,
      49.68787,
      657.5
     ],
     [
      16.030607,
      49.687405,
      658.75
     ],
     [
      16.030504,
      49.687272,
      659.25
     ],
     [
      16.030353,
      49.687131,
      659.75
     ],
     [
      16.029871,
      49.686769,
      661.75
     ],
     [
      16.029043,
      49.686196,
      665.75
     ],
     [
      16.028941,
      49.686112,
      666.75
     ],
     [
      16.028806,
      49.686058,
      667.0
     ],
     [
      16.028496,
      49.685964,
      668.0
     ],
     [
      16.028299,
      49.685926,
      668.25
     ],
     [
      16.027743,
      49.685858,
      668.75
     ],
     [
      16.025221,
      49.68549,
      675.5
     ],
     [
      16.024909,
      49.685431,
      676.5
     ],
     [
      16.024646,
      49.685373,
      677.75
     ],
     [
      16.024372,
      49.685297,
      679.0
     ],
     [
      16.024164,
      49.685221,
      680.25
     ],
     [
      16.023739,
      49.685051,
      682.0
     ],
     [
      16.022917,
      49.684629,
      685.25
     ],
     [
      16.022691,
      49.684455,
      686.5
     ],
     [
      16.022276,
      49.6841,
      687.5
     ],
     [
      16.021016,
      49.683083,
      693.25
     ],
     [
      16.02032,
      49.682598,
      695.75
     ],
     [
      16.019541,
      49.682165,
      698.25
     ],
     [
      16.017844,
      49.681431,
      702.5
     ],
     [
      16.016884,
      49.680987,
      704.25
     ],
     [
      16.016523,
      49.680835,
      704.25
     ],
     [
      16.01603,
      49.680756,
      703.75
     ],
     [
      16.015433,
      49.680695,
      703.25
     ],
     [
      16.014755,
      49.680611,
      702.0
     ],
     [
      16.014469,
      49.680593,
      701.0
     ],
     [
      16.014243,
      49.680449,
      700.25
     ],
     [
      16.014115,
      49.68031,
      699.75
     ],
     [
      16.014034,
      49.680159,
      699.5
     ],
     [
      16.013948,
      49.679964,
      699.0
     ],
     [
      16.013932,
      49.6799,
      699.0
     ],
     [
      16.013932,
      49.679732,
      699.0
     ],
     [
      16.013871,
      49.679419,
      698.75
     ],
     [
      16.013496,
      49.678092,
      700.0
     ],
     [
      16.013411,
      49.67795,
      699.75
     ],
     [
      16.013248,
      49.677746,
      699.75
     ],
     [
      16.01294,
      49.677463,
      700.75
     ],
     [
      16.012738,
      49.677289,
      701.0
     ],
     [
      16.012312,
      49.676922,
      701.25
     ],
     [
      16.011839,
      49.676575,
      700.5
     ],
     [
      16.011568,
      49.67641,
      700.25
     ],
     [
      16.010924,
      49.676085,
      700.5
     ],
     [
      16.010751,
      49.675965,
      700.5
     ],
     [
      16.010568,
      49.675812,
      700.0
     ],
     [
      16.010446,
      49.675696,
      700.5
     ],
     [
      16.010311,
      49.67548,
      701.0
     ],
     [
      16.010195,
      49.675216,
      700.75
     ],
     [
      16.010154,
      49.674975,
      701.0
     ],
     [
      16.009858,
      49.673351,
      694.75
     ],
     [
      16.009774,
      49.672768,
      694.25
     ],
     [
      16.009734,
      49.672605,
      694.5
     ],
     [
      16.009647,
      49.672224,
      694.25
     ],
     [
      16.009549,
      49.672046,
      694.0
     ],
     [
      16.009386,
      49.671868,
      694.25
     ],
     [
      16.009259,
      49.671784,
      694.25
     ],
     [
      16.009091,
      49.671726,
      694.75
     ],
     [
      16.008827,
      49.671695,
      695.5
     ],
     [
      16.008594,
      49.671718,
      695.25
     ],
     [
      16.007935,
      49.671945,
      696.25
     ],
     [
      16.007332,
      49.67224,
      695.75
     ],
     [
      16.006698,
      49.672579,
      696.75
     ],
     [
      16.006372,
      49.672724,
      697.25
     ],
     [
      16.006047,
      49.672854,
      696.5
     ],
     [
      16.005585,
      49.672999,
      697.5
     ],
     [
      16.005089,
      49.67312,
      696.0
     ],
     [
      16.004878,
      49.673205,
      694.5
     ],
     [
      16.004331,
      49.673384,
      690.25
     ],
     [
      16.004066,
      49.673729,
      687.5
     ],
     [
      16.0039,
      49.673877,
      686.0
     ],
     [
      16.003658,
      49.67404,
      684.5
     ],
     [
      16.003229,
      49.674303,
      683.0
     ],
     [
      16.002755,
      49.674632,
      681.75
     ],
     [
      16.002465,
      49.674923,
      681.75
     ],
     [
      16.002341,
      49.675078,
      681.75
     ],
     [
      16.00154,
      49.676086,
      682.0
     ],
     [
      16.00121,
      49.67646,
      680.5
     ],
     [
      16.000455,
      49.677271,
      677.75
     ],
     [
      15.999219,
      49.678777,
      671.5
     ],
     [
      15.998542,
      49.679516,
      668.5
     ],
     [
      15.997981,
      49.680342,
      667.5
     ],
     [
      15.99665,
      49.68186,
      666.5
     ],
     [
      15.995995,
      49.68263,
      665.75
     ],
     [
      15.995446,
      49.683396,
      665.5
     ],
     [
      15.995198,
      49.683795,
      665.75
     ],
     [
      15.994784,
      49.685208,
      667.0
     ],
     [
      15.994584,
      49.685766,
      665.0
     ],
     [
      15.994277,
      49.685712,
      665.25
     ],
     [
      15.994016,
      49.685666,
      664.25
     ],
     [
      15.99366,
      49.686434,
      663.0
     ],
     [
      15.993472,
      49.686914,
      660.5
     ],
     [
      15.993333,
      49.687169,
      658.25
     ],
     [
      15.992478,
      49.687034,
      651.25
     ],
     [
      15.992538,
      49.686178,
      652.5
     ],
     [
      15.992551,
      49.685709,
      651.25
     ],
     [
      15.992515,
      49.685067,
      650.75
     ],
     [
      15.992352,
      49.684297,
      652.0
     ],
     [
      15.9923,
      49.684083,
      652.25
     ],
     [
      15.992249,
      49.683919,
      652.0
     ],
     [
      15.992169,
      49.683767,
      651.25
     ],
     [
      15.992079,
      49.683657,
      650.5
     ],
     [
      15.991969,
      49.683542,
      649.75
     ],
     [
      15.991682,
      49.683312,
      649.75
     ],
     [
      15.990882,
      49.682691,
      648.0
     ],
     [
      15.990743,
      49.682569,
      646.5
     ],
     [
      15.990643,
      49.682442,
      645.75
     ],
     [
      15.990572,
      49.68232,
      645.75
     ],
     [
      15.99046,
      49.68203,
      645.5
     ],
     [
      15.990443,
      49.681945,
      645.5
     ],
     [
      15.989825,
      49.679651,
      653.5
     ],
     [
      15.989679,
      49.679638,
      653.75
     ],
     [
      15.989063,
      49.679441,
      654.5
     ],
     [
      15.988871,
      49.67941,
      654.0
     ],
     [
      15.98869,
      49.679399,
      654.25
     ],
     [
      15.988315,
      49.679509,
      653.25
     ],
     [
      15.988259,
      49.679468,
      653.5
     ],
     [
      15.988315,
      49.679509,
      653.25
     ],
     [
      15.98869,
      49.679399,
      654.25
     ],
     [
      15.988871,
      49.67941,
      654.0
     ],
     [
      15.989063,
      49.679441,
      654.5
     ],
     [
      15.989679,
      49.679638,
      653.75
     ],
     [
      15.989825,
      49.679651,
      653.5
     ],
     [
      15.989612,
      49.678889,
      655.75
     ],
     [
      15.989256,
      49.677556,
      658.0
     ],
     [
      15.989007,
      49.675559,
      656.75
     ],
     [
      15.988778,
      49.673573,
      663.0
     ],
     [
      15.98873,
      49.67335,
      663.5
     ],
     [
      15.988603,
      49.673134,
      664.5
     ],
     [
      15.988458,
      49.67297,
      665.0
     ],
     [
      15.988262,
      49.672783,
      664.75
     ],
     [
      15.987218,
      49.671744,
      668.5
     ],
     [
      15.9866,
      49.671257,
      669.5
     ],
     [
      15.986266,
      49.671044,
      670.75
     ],
     [
      15.985841,
      49.670758,
      671.5
     ],
     [
      15.985089,
      49.670384,
      673.0
     ],
     [
      15.984438,
      49.670134,
      674.5
     ],
     [
      15.984021,
      49.669984,
      675.0
     ],
     [
      15.983054,
      49.669681,
      676.25
     ],
     [
      15.978201,
      49.668317,
      678.5
     ],
     [
      15.977849,
      49.668173,
      678.25
     ],
     [
      15.977279,
      49.667928,
      678.5
     ],
     [
      15.976482,
      49.667547,
      678.75
     ],
     [
      15.976119,
      49.667358,
      679.0
     ],
     [
      15.975953,
      49.667247,
      679.25
     ],
     [
      15.975862,
      49.667171,
      679.25
     ],
     [
      15.975723,
      49.667028,
      679.5
     ],
     [
      15.975629,
      49.666905,
      680.0
     ],
     [
      15.975514,
      49.666713,
      680.5
     ],
     [
      15.973725,
      49.663585,
      684.25
     ],
     [
      15.973417,
      49.6631,
      683.25
     ],
     [
      15.973367,
      49.662946,
      683.0
     ],
     [
      15.973191,
      49.662179,
      681.25
     ],
     [
      15.973022,
      49.661556,
      681.0
     ],
     [
      15.973008,
      49.661258,
      681.5
     ],
     [
      15.973041,
      49.661042,
      681.5
     ],
     [
      15.973205,
      49.660416,
      681.0
     ],
     [
      15.973243,
      49.66023,
      681.0
     ],
     [
      15.973199,
      49.66006,
      680.5
     ],
     [
      15.973106,
      49.659925,
      679.75
     ],
     [
      15.971265,
      49.657852,
      675.75
     ],
     [
      15.971192,
      49.657773,
      676.25
     ],
     [
      15.970006,
      49.65644,
      686.5
     ],
     [
      15.968234,
      49.654384,
      694.0
     ],
     [
      15.968093,
      49.654165,
      694.75
     ],
     [
      15.969278,
      49.653791,
      693.0
     ],
     [
      15.968093,
      49.654165,
      694.75
     ],
     [
      15.967886,
      49.653844,
      696.75
     ],
     [
      15.967715,
      49.65336,
      701.0
     ],
     [
      15.967664,
      49.652846,
      704.5
     ],
     [
      15.967713,
      49.652504,
      705.0
     ],
     [
      15.968814,
      49.649557,
      699.75
     ],
     [
      15.969163,
      49.647923,
      686.0
     ],
     [
      15.969031,
      49.647465,
      681.5
     ],
     [
      15.96859,
      49.646446,
      673.25
     ],
     [
      15.968458,
      49.646193,
      671.25
     ],
     [
      15.96788,
      49.645609,
      670.25
     ],
     [
      15.967593,
      49.645302,
      669.0
     ],
     [
      15.967409,
      49.645041,
      667.25
     ],
     [
      15.966914,
      49.644443,
      661.75
     ],
     [
      15.966793,
      49.644313,
      660.5
     ],
     [
      15.967435,
      49.644152,
      659.75
     ],
     [
      15.968121,
      49.643916,
      658.0
     ]
    ]
   }
  }
 ]
}