{
 "type": "FeatureCollection",
 "features": [
  {
   "type": "Feature",
   "properties": {
    "creator": "BRouter-1.7.10",
    "name": "brouter_trekking_0",
    "track-length": "22976",
    "filtered ascend": "321",
    "plain-ascend": "0",
    "total-time": "5627",
    "total-energy": "542339",
    "cost": "47414",
    "messages": [
     [
      "Longitude",
      "Latitude",
      "Elevation",
      "Distance",
      "CostPerKm",
      "ElevCost",
      "TurnCost",
      "NodeCost",
      "InitialCost",
      "WayTags",
      "NodeTags",
      "Time",
      "Energy"
     ],
     [
      "15966793",
      "49644313",
      "660",
      "106",
      "1550",
      "0",
      "0",
      "0",
      "0",
      "reversedirection=yes highway=residential surface=unpaved oneway:bicycle=no",
      "estimated_crossing_class=1",
      "26",
      "2602"
     ],
     [
      "15966364",
      "49643848",
      "655",
      "60",
      "1650",
      "0",
      "74",
      "0",
      "0",
      "reversedirection=yes highway=secondary surface=asphalt cycleway:both=no",
      "estimated_crossing_class=1",
      "34",
      "3444"
     ],
     [
      "15965254",
      "49642601",
      "658",
      "160",
      "1650",
      "0",
      "0",
      "0",
      "0",
      "reversedirection=yes highway=secondary surface=asphalt",
      "estimated_crossing_class=1",
      "58",
      "5875"
     ],
     [
      "15964978",
      "49642290",
      "661",
      "40",
      "1650",
      "0",
      "0",
      "0",
      "0",
      "reversedirection=yes highway=secondary surface=asphalt",
      "estimated_crossing_class=1",
      "71",
      "7146"
     ],
     [
      "15965235",
      "49642068",
      "663",
      "32",
      "1050",
      "0",
      "50",
      "0",
      "0",
      "highway=track surface=paved tracktype=grade1 foot=yes bicycle=yes",
      "",
      "77",
      "7782"
     ],
     [
      "15965323",
      "49642097",
      "663",
      "7",
      "1050",
      "0",
      "56",
      "0",
      "0",
      "highway=track surface=asphalt tracktype=grade1 foot=yes bicycle=yes",
      "barrier=lift_gate motor_vehicle=agricultural",
      "79",
      "7925"
     ],
     [
      "15985965",
      "49644840",
      "718",
      "1676",
      "1050",
      "0",
      "29",
      "0",
      "0",
      "highway=track surface=asphalt tracktype=grade1 foot=yes bicycle=yes",
      "",
      "729",
      "72965"
     ],
     [
      "15999081",
      "49643230",
      "782",
      "1058",
      "1050",
      "0",
      "15",
      "0",
      "0",
      "highway=track surface=paved tracktype=grade1 foot=yes bicycle=yes",
      "",
      "1384",
      "138445"
     ],
     [
      "15999447",
      "49643864",
      "778",
      "76",
      "5050",
      "0",
      "94",
      "0",
      "0",
      "highway=path",
      "",
      "1405",
      "140558"
     ],
     [
      "15999081",
      "49643230",
      "782",
      "76",
      "5050",
      "0",
      "8",
      "0",
      "0",
      "reversedirection=yes highway=path",
      "",
      "1423",
      "142339"
     ],
     [
      "16003790",
      "49641398",
      "788",
      "396",
      "1050",
      "0",
      "90",
      "0",
      "0",
      "highway=track surface=paved tracktype=grade1 foot=yes bicycle=yes",
      "",
      "1524",
      "152448"
     ],
     [
      "16003736",
      "49641307",
      "787",
      "11",
      "5050",
      "0",
      "74",
      "0",
      "0",
      "highway=track surface=ground tracktype=grade4",
      "",
      "1528",
      "152837"
     ],
     [
      "16003790",
      "49641398",
      "788",
      "11",
      "5050",
      "0",
      "0",
      "0",
      "0",
      "reversedirection=yes highway=track surface=ground tracktype=grade4",
      "",
      "1530",
      "153035"
     ],
     [
      "16007771",
      "49639710",
      "773",
      "345",
      "1050",
      "0",
      "116",
      "0",
      "0",
      "highway=track surface=paved tracktype=grade1 foot=yes bicycle=yes",
      "barrier=lift_gate motor_vehicle=agricultural",
      "1566",
      "156405"
     ],
     [
      "16008096",
      "49639604",
      "772",
      "26",
      "1050",
      "11",
      "0",
      "0",
      "0",
      "highway=track surface=paved tracktype=grade1 foot=yes bicycle=yes",
      "",
      "1568",
      "156630"
     ],
     [
      "16009267",
      "49639658",
      "768",
      "88",
      "1050",
      "174",
      "9",
      "0",
      "0",
      "highway=track surface=paved tracktype=grade1",
      "",
      "1575",
      "157080"
     ],
     [
      "16030314",
      "49635604",
      "743",
      "1721",
      "1050",
      "966",
      "28",
      "0",
      "0",
      "reversedirection=yes highway=track surface=paved tracktype=grade1",
      "",
      "1848",
      "182747"
     ],
     [
      "16036311",
      "49632175",
      "726",
      "609",
      "1050",
      "0",
      "31",
      "0",
      "0",
      "highway=track surface=paved tracktype=grade1",
      "",
      "1915",
      "189455"
     ],
     [
      "16036841",
      "49632023",
      "725",
      "42",
      "1350",
      "0",
      "0",
      "0",
      "0",
      "highway=service",
      "barrier=gate",
      "1920",
      "189906"
     ],
     [
      "16039559",
      "49631133",
      "713",
      "220",
      "1350",
      "385",
      "0",
      "0",
      "0",
      "reversedirection=yes highway=service access=permissive",
      "barrier=gate",
      "1937",
      "190422"
     ],
     [
      "16039656",
      "49630998",
      "712",
      "17",
      "1350",
      "44",
      "15",
      "0",
      "0",
      "reversedirection=yes highway=service access=permissive",
      "",
      "1939",
      "190565"
     ],
     [
      "16040114",
      "49630122",
      "707",
      "105",
      "1350",
      "219",
      "7",
      "0",
      "0",
      "reversedirection=yes highway=service",
      "",
      "1947",
      "190918"
     ],
     [
      "16040255",
      "49629862",
      "707",
      "31",
      "1150",
      "0",
      "5",
      "0",
      "0",
      "reversedirection=yes highway=residential",
      "",
      "1950",
      "191184"
     ],
     [
      "16040601",
      "49629369",
      "708",
      "61",
      "1150",
      "0",
      "3",
      "0",
      "0",
      "reversedirection=yes highway=residential surface=asphalt",
      "estimated_crossing_class=1",
      "1957",
      "191920"
     ],
     [
      "16040948",
      "49629569",
      "707",
      "34",
      "1000",
      "0",
      "0",
      "0",
      "0",
      "highway=secondary surface=asphalt smoothness=good cycleway:both=no route_bicycle_ncn=yes",
      "",
      "1961",
      "192353"
     ],
     [
      "16041297",
      "49629767",
      "707",
      "34",
      "1000",
      "0",
      "0",
      "0",
      "0",
      "highway=secondary surface=asphalt route_bicycle_ncn=yes",
      "nodeaccessgranted=yes estimated_crossing_class=2",
      "1967",
      "192874"
     ],
     [
      "16042219",
      "49630198",
      "706",
      "82",
      "1000",
      "0",
      "0",
      "0",
      "0",
      "highway=secondary surface=asphalt route_bicycle_ncn=yes",
      "nodeaccessgranted=yes estimated_crossing_class=2",
      "1978",
      "193965"
     ],
     [
      "16042431",
      "49630243",
      "706",
      "17",
      "1000",
      "0",
      "0",
      "0",
      "0",
      "highway=secondary surface=asphalt route_bicycle_ncn=yes",
      "nodeaccessgranted=yes estimated_crossing_class=2",
      "1980",
      "194197"
     ],
     [
      "16042772",
      "49630282",
      "706",
      "25",
      "1000",
      "0",
      "0",
      "0",
      "0",
      "highway=secondary surface=asphalt route_bicycle_ncn=yes",
      "nodeaccessgranted=yes estimated_crossing_class=2",
      "1984",
      "194608"
     ],
     [
      "16043245",
      "49629850",
      "711",
      "59",
      "1000",
      "0",
      "0",
      "0",
      "0",
      "reversedirection=yes highway=residential tracktype=grade1 route_bicycle_rcn=yes",
      "",
      "1998",
      "195985"
     ],
     [
      "16050975",
      "49619185",
      "718",
      "1331",
      "1000",
      "1185",
      "0",
      "0",
      "0",
      "reversedirection=yes highway=service route_bicycle_rcn=yes",
      "",
      "2529",
      "246402"
     ],
     [
      "16051110",
      "49618637",
      "716",
      "62",
      "1000",
      "63",
      "0",
      "0",
      "0",
      "reversedirection=yes highway=unclassified surface=asphalt route_bicycle_rcn=yes",
      "",
      "2535",
      "246919"
     ],
     [
      "16051635",
      "49617768",
      "712",
      "109",
      "1350",
      "140",
      "6",
      "0",
      "0",
      "reversedirection=yes highway=unclassified surface=asphalt",
      "barrier=bollard",
      "2544",
      "247814"
     ],
     [
      "16053371",
      "49616735",
      "711",
      "170",
      "1350",
      "0",
      "0",
      "0",
      "0",
      "reversedirection=yes highway=unclassified surface=asphalt cycleway:both=no",
      "barrier=bollard",
      "2564",
      "249814"
     ],
     [
      "16053463",
      "49616672",
      "712",
      "10",
      "1350",
      "0",
      "0",
      "0",
      "0",
      "reversedirection=yes highway=unclassified surface=asphalt",
      "",
      "2565",
      "249914"
     ],
     [
      "16054152",
      "49616420",
      "716",
      "59",
      "1350",
      "0",
      "3",
      "0",
      "0",
      "reversedirection=yes highway=unclassified",
      "",
      "2576",
      "250981"
     ],
     [
      "16056316",
      "49616115",
      "723",
      "164",
      "1350",
      "0",
      "5",
      "0",
      "0",
      "reversedirection=yes highway=unclassified surface=asphalt cycleway:both=no",
      "",
      "2628",
      "256213"
     ],
     [
      "16054152",
      "49616420",
      "716",
      "164",
      "1350",
      "0",
      "4",
      "0",
      "0",
      "highway=unclassified surface=asphalt cycleway:both=no",
      "",
      "2651",
      "258542"
     ],
     [
      "16053463",
      "49616672",
      "712",
      "59",
      "1350",
      "0",
      "4",
      "0",
      "0",
      "highway=unclassified",
      "",
      "2656",
      "259015"
     ],
     [
      "16053371",
      "49616735",
      "711",
      "10",
      "1350",
      "0",
      "0",
      "0",
      "0",
      "highway=unclassified surface=asphalt",
      "barrier=bollard",
      "2657",
      "259015"
     ],
     [
      "16051635",
      "49617768",
      "712",
      "170",
      "1350",
      "0",
      "0",
      "0",
      "0",
      "highway=unclassified surface=asphalt cycleway:both=no",
      "barrier=bollard",
      "2676",
      "260913"
     ],
     [
      "16051110",
      "49618637",
      "716",
      "109",
      "1350",
      "0",
      "6",
      "0",
      "0",
      "highway=unclassified surface=asphalt",
      "",
      "2693",
      "262620"
     ],
     [
      "16049503",
      "49618378",
      "712",
      "121",
      "1000",
      "0",
      "0",
      "0",
      "0",
      "highway=track tracktype=grade3 route_bicycle_rcn=yes",
      "",
      "2709",
      "264269"
     ],
     [
      "16047858",
      "49617271",
      "718",
      "177",
      "1000",
      "0",
      "0",
      "0",
      "0",
      "highway=track surface=ground tracktype=grade5 route_bicycle_rcn=yes",
      "",
      "2745",
      "267841"
     ],
     [
      "16043017",
      "49616885",
      "727",
      "398",
      "1000",
      "0",
      "0",
      "0",
      "0",
      "reversedirection=yes highway=track surface=mud tracktype=grade5 smoothness=horrible route_bicycle_rcn=yes",
      "",
      "2858",
      "279098"
     ],
     [
      "16041878",
      "49613681",
      "717",
      "372",
      "1000",
      "0",
      "0",
      "0",
      "0",
      "reversedirection=yes highway=track surface=ground tracktype=grade3 route_bicycle_rcn=yes",
      "",
      "2933",
      "286664"
     ],
     [
      "16039308",
      "49611137",
      "724",
      "351",
      "1000",
      "0",
      "0",
      "0",
      "0",
      "reversedirection=yes highway=track tracktype=grade2 route_bicycle_rcn=yes",
      "",
      "3002",
      "293559"
     ],
     [
      "16038311",
      "49612194",
      "731",
      "138",
      "1000",
      "0",
      "0",
      "0",
      "0",
      "highway=tertiary route_bicycle_ncn=yes",
      "",
      "3046",
      "297985"
     ],
     [
      "16036495",
      "49612749",
      "735",
      "167",
      "1150",
      "0",
      "91",
      "0",
      "0",
      "reversedirection=yes highway=residential surface=asphalt",
      "",
      "3104",
      "303707"
     ],
     [
      "16033043",
      "49608898",
      "723",
      "505",
      "1150",
      "0",
      "74",
      "0",
      "0",
      "highway=residential surface=asphalt",
      "",
      "3190",
      "312322"
     ],
     [
      "16032896",
      "49608881",
      "723",
      "11",
      "5050",
      "0",
      "49",
      "0",
      "0",
      "reversedirection=yes highway=track tracktype=grade4",
      "",
      "3191",
      "312427"
     ],
     [
      "16033043",
      "49608898",
      "723",
      "11",
      "5050",
      "0",
      "0",
      "0",
      "0",
      "highway=track tracktype=grade4",
      "",
      "3193",
      "312612"
     ],
     [
      "16036281",
      "49613396",
      "729",
      "586",
      "1150",
      "0",
      "136",
      "0",
      "0",
      "reversedirection=yes highway=residential surface=asphalt",
      "",
      "3341",
      "327477"
     ],
     [
      "16036191",
      "49613431",
      "729",
      "8",
      "5050",
      "0",
      "21",
      "0",
      "0",
      "highway=footway surface=paved",
      "",
      "3342",
      "327573"
     ],
     [
      "16036281",
      "49613396",
      "729",
      "8",
      "5050",
      "0",
      "0",
      "0",
      "0",
      "reversedirection=yes highway=footway surface=paved",
      "",
      "3344",
      "327717"
     ],
     [
      "16036257",
      "49613442",
      "729",
      "5",
      "1150",
      "0",
      "158",
      "0",
      "0",
      "reversedirection=yes highway=residential surface=asphalt",
      "",
      "3344",
      "327795"
     ],
     [
      "16033595",
      "49616576",
      "742",
      "430",
      "1000",
      "0",
      "0",
      "0",
      "0",
      "highway=tertiary route_bicycle_ncn=yes",
      "",
      "3449",
      "338301"
     ],
     [
      "16033344",
      "49616625",
      "742",
      "20",
      "1450",
      "0",
      "42",
      "0",
      "0",
      "reversedirection=yes highway=tertiary",
      "highway=give_way direction=forward",
      "3460",
      "339379"
     ],
     [
      "16033058",
      "49616585",
      "742",
      "21",
      "1450",
      "0",
      "1",
      "0",
      "0",
      "reversedirection=yes highway=tertiary",
      "estimated_crossing_class=1",
      "3469",
      "340306"
     ],
     [
      "16029576",
      "49616115",
      "752",
      "260",
      "1650",
      "0",
      "1",
      "0",
      "0",
      "reversedirection=yes highway=secondary",
      "estimated_crossing_class=1",
      "3582",
      "351570"
     ],
     [
      "16022745",
      "49613834",
      "753",
      "636",
      "1650",
      "0",
      "4",
      "0",
      "0",
      "reversedirection=yes highway=secondary",
      "estimated_crossing_class=1",
      "3771",
      "370501"
     ],
     [
      "16022259",
      "49612451",
      "753",
      "162",
      "1650",
      "0",
      "6",
      "0",
      "0",
      "reversedirection=yes highway=secondary",
      "estimated_crossing_class=1",
      "3796",
      "372923"
     ],
     [
      "16017213",
      "49610142",
      "760",
      "445",
      "1650",
      "0",
      "0",
      "0",
      "0",
      "reversedirection=yes highway=secondary",
      "estimated_crossing_class=1",
      "3869",
      "380280"
     ],
     [
      "16016011",
      "49609852",
      "767",
      "94",
      "1650",
      "0",
      "0",
      "0",
      "0",
      "reversedirection=yes highway=secondary",
      "estimated_crossing_class=1",
      "3912",
      "384548"
     ],
     [
      "16014645",
      "49609801",
      "772",
      "98",
      "1650",
      "0",
      "0",
      "0",
      "0",
      "reversedirection=yes highway=secondary",
      "estimated_crossing_class=1",
      "3972",
      "390529"
     ],
     [
      "16011398",
      "49609702",
      "774",
      "236",
      "1650",
      "0",
      "0",
      "0",
      "0",
      "reversedirection=yes highway=secondary",
      "estimated_crossing_class=1",
      "4060",
      "399389"
     ],
     [
      "16008655",
      "49610158",
      "764",
      "208",
      "1650",
      "0",
      "4",
      "0",
      "0",
      "reversedirection=yes highway=secondary",
      "estimated_crossing_class=1",
      "4090",
      "402398"
     ],
     [
      "16007579",
      "49609876",
      "758",
      "84",
      "1650",
      "180",
      "1",
      "0",
      "0",
      "reversedirection=yes highway=secondary",
      "estimated_crossing_class=1",
      "4097",
      "402605"
     ],
     [
      "16007284",
      "49609850",
      "755",
      "22",
      "1650",
      "115",
      "3",
      "0",
      "0",
      "reversedirection=yes highway=secondary",
      "estimated_crossing_class=1",
      "4099",
      "402605"
     ],
     [
      "16006501",
      "49609894",
      "751",
      "57",
      "1650",
      "203",
      "3",
      "0",
      "0",
      "reversedirection=yes highway=secondary",
      "estimated_crossing_class=1",
      "4103",
      "402605"
     ],
     [
      "16005433",
      "49609476",
      "747",
      "90",
      "1650",
      "173",
      "6",
      "0",
      "0",
      "reversedirection=yes highway=secondary",
      "estimated_crossing_class=1",
      "4111",
      "402605"
     ],
     [
      "16005673",
      "49609458",
      "748",
      "17",
      "1550",
      "0",
      "159",
      "0",
      "0",
      "reversedirection=yes highway=residential surface=unpaved",
      "",
      "4112",
      "402760"
     ],
     [
      "16005433",
      "49609476",
      "747",
      "17",
      "1550",
      "0",
      "0",
      "0",
      "0",
      "highway=residential surface=unpaved",
      "estimated_crossing_class=1",
      "4114",
      "402987"
     ],
     [
      "16005111",
      "49609388",
      "747",
      "25",
      "1650",
      "0",
      "11",
      "0",
      "0",
      "reversedirection=yes highway=secondary",
      "estimated_crossing_class=1",
      "4118",
      "403334"
     ],
     [
      "16004635",
      "49610829",
      "740",
      "169",
      "1550",
      "0",
      "135",
      "0",
      "0",
      "highway=residential surface=unpaved",
      "",
      "4137",
      "405256"
     ],
     [
      "15987145",
      "49616342",
      "720",
      "1461",
      "3050",
      "129",
      "47",
      "0",
      "0",
      "highway=track tracktype=grade3",
      "",
      "4327",
      "423835"
     ],
     [
      "15978363",
      "49614816",
      "668",
      "761",
      "5050",
      "1853",
      "173",
      "0",
      "0",
      "reversedirection=yes highway=path",
      "",
      "4389",
      "425309"
     ],
     [
      "15966119",
      "49614721",
      "627",
      "974",
      "2050",
      "1590",
      "86",
      "0",
      "0",
      "reversedirection=yes highway=track tracktype=grade2",
      "",
      "4472",
      "430116"
     ],
     [
      "15958404",
      "49618686",
      "612",
      "714",
      "2050",
      "404",
      "3",
      "0",
      "0",
      "reversedirection=yes highway=track surface=compacted tracktype=grade2",
      "",
      "4565",
      "437435"
     ],
     [
      "15955119",
      "49620657",
      "600",
      "324",
      "1150",
      "411",
      "10",
      "0",
      "0",
      "reversedirection=yes highway=residential",
      "estimated_crossing_class=2",
      "4598",
      "440328"
     ],
     [
      "15954345",
      "49620133",
      "596",
      "81",
      "1650",
      "152",
      "96",
      "0",
      "0",
      "reversedirection=yes highway=secondary surface=asphalt",
      "",
      "4605",
      "440328"
     ],
     [
      "15955119",
      "49620657",
      "600",
      "81",
      "1650",
      "0",
      "0",
      "0",
      "0",
      "highway=secondary surface=asphalt",
      "estimated_crossing_class=2",
      "4620",
      "441897"
     ],
     [
      "15955490",
      "49620877",
      "601",
      "36",
      "1650",
      "0",
      "0",
      "0",
      "0",
      "highway=secondary surface=asphalt",
      "estimated_crossing_class=2",
      "4629",
      "442774"
     ],
     [
      "15956288",
      "49621348",
      "605",
      "78",
      "1650",
      "0",
      "0",
      "0",
      "0",
      "highway=secondary surface=asphalt",
      "estimated_crossing_class=2",
      "4663",
      "446118"
     ],
     [
      "15956729",
      "49621704",
      "609",
      "52",
      "1650",
      "0",
      "4",
      "0",
      "0",
      "highway=secondary surface=asphalt",
      "estimated_crossing_class=2",
      "4686",
      "448421"
     ],
     [
      "15956812",
      "49622092",
      "613",
      "44",
      "1650",
      "0",
      "6",
      "0",
      "0",
      "highway=secondary surface=asphalt",
      "estimated_crossing_class=1",
      "4715",
      "451327"
     ],
     [
      "15957284",
      "49622985",
      "621",
      "105",
      "1650",
      "0",
      "1",
      "0",
      "0",
      "highway=secondary surface=asphalt",
      "estimated_crossing_class=1",
      "4791",
      "458994"
     ],
     [
      "15962996",
      "49632269",
      "630",
      "1156",
      "1650",
      "0",
      "3",
      "0",
      "0",
      "highway=secondary surface=asphalt",
      "estimated_crossing_class=1",
      "5105",
      "490313"
     ],
     [
      "15963171",
      "49636124",
      "652",
      "430",
      "1650",
      "0",
      "0",
      "0",
      "0",
      "highway=secondary surface=asphalt",
      "estimated_crossing_class=1",
      "5293",
      "509210"
     ],
     [
      "15962741",
      "49638576",
      "675",
      "276",
      "1650",
      "0",
      "0",
      "0",
      "0",
      "highway=secondary surface=asphalt",
      "estimated_crossing_class=1",
      "5492",
      "529068"
     ],
     [
      "15963732",
      "49640458",
      "673",
      "222",
      "1650",
      "0",
      "1",
      "0",
      "0",
      "highway=secondary surface=asphalt",
      "estimated_crossing_class=1",
      "5555",
      "535354"
     ],
     [
      "15964591",
      "49641856",
      "664",
      "168",
      "1650",
      "0",
      "0",
      "0",
      "0",
      "highway=secondary surface=asphalt",
      "estimated_crossing_class=1",
      "5578",
      "537651"
     ],
     [
      "15964978",
      "49642290",
      "661",
      "56",
      "1650",
      "0",
      "0",
      "0",
      "0",
      "highway=secondary surface=asphalt",
      "estimated_crossing_class=1",
      "5583",
      "538142"
     ],
     [
      "15965254",
      "49642601",
      "658",
      "40",
      "1650",
      "123",
      "0",
      "0",
      "0",
      "highway=secondary surface=asphalt",
      "estimated_crossing_class=1",
      "5586",
      "538309"
     ],
     [
      "15966364",
      "49643848",
      "655",
      "160",
      "1650",
      "21",
      "0",
      "0",
      "0",
      "highway=secondary surface=asphalt",
      "estimated_crossing_class=1",
      "5600",
      "539734"
     ],
     [
      "15966793",
      "49644313",
      "660",
      "60",
      "1650",
      "0",
      "0",
      "0",
      "0",
      "highway=secondary surface=asphalt cycleway:both=no",
      "estimated_crossing_class=1",
      "5612",
      "540901"
     ],
     [
      "15968121",
      "49643916",
      "658",
      "106",
      "1550",
      "0",
      "74",
      "0",
      "0",
      "highway=residential surface=unpaved oneway:bicycle=no",
      "",
      "5626",
      "542339"
     ]
    ],
    "times": [
     0,
     13.678,
     26.015,
     34.431,
     58.749,
     71.452,
     75.355,
     77.814,
     79.24,
     164.751,
     188.597,
     241.804,
     292.026,
     327.49,
     344.922,
     367.624,
     462.395,
     485.7,
     495.781,
     501.612,
     504.9,
     509.246,
     514.44,
     517.873,
     519.642,
     522.631,
     590.107,
     605.76,
     679.334,
     729.53,
     748.861,
     772.376,
     781.123,
     793.528,
     799.237,
     804.733,
     815.394,
     818.232,
     827.901,
     837.676,
     917.429,
     932.74,
     998.997,
     1073.797,
     1253.682,
     1257.633,
     1263.271,
     1268.869,
     1272.82,
     1283.886,
     1293.609,
     1306.564,
     1319.33,
     1326.526,
     1343.447,
     1350.01,
     1363.839,
     1384.294,
     1393.552,
     1397.412,
     1399.883,
     1405.419,
     1409.038,
     1410.443,
     1417.438,
     1423.222,
     1447.064,
     1524.285,
     1528.175,
     1530.146,
     1546.939,
     1553.046,
     1559.258,
     1566.298,
     1567.355,
     1568.542,
     1570.222,
     1571.662,
     1573.422,
     1575.582,
     1577.339,
     1585.499,
     1590.653,
     1676.765,
     1719.545,
     1725.746,
     1739.663,
     1753.749,
     1759.994,
     1764.356,
     1769.203,
     1772.789,
     1774.495,
     1789.375,
     1799.695,
     1806.489,
     1807.958,
     1811.606,
     1827.784,
     1830.718,
     1832.275,
     1833.667,
     1838.671,
     1848.166,
     1848.502,
     1855.067,
     1865.252,
     1868.349,
     1870.101,
     1870.422,
     1874.685,
     1878.521,
     1881.239,
     1883.776,
     1885.133,
     1888.807,
     1899.86,
     1902.591,
     1915.569,
     1920.083,
     1933.363,
     1937.723,
     1939.146,
     1941.786,
     1944.826,
     1947.546,
     1949.576,
     1950.21,
     1954.868,
     1957.57,
     1961.894,
     1963.912,
     1967.104,
     1973.818,
     1977.043,
     1978.012,
     1978.994,
     1980.337,
     1984.443,
     1992.464,
     1998.209,
     2004.268,
     2016.854,
     2023.039,
     2028.918,
     2058.359,
     2076.517,
     2090.599,
     2135.927,
     2159.921,
     2179.554,
     2193.024,
     2209.084,
     2224.56,
     2231.708,
     2243.567,
     2279.297,
     2342.864,
     2353.561,
     2403.14,
     2429.902,
     2464.351,
     2476.528,
     2488.81,
     2490.705,
     2493.028,
     2494.87,
     2496.851,
     2500.851,
     2502.291,
     2506.531,
     2511.811,
     2513.331,
     2516.851,
     2519.171,
     2524.211,
     2526.771,
     2528.635,
     2529.841,
     2534.278,
     2535.009,
     2537.489,
     2538.642,
     2540.317,
     2541.332,
     2543.05,
     2543.43,
     2544.341,
     2545.017,
     2548.535,
     2554.229,
     2560.073,
     2564.344,
     2565.346,
     2566.249,
     2567.532,
     2570.035,
     2572.692,
     2576.01,
     2585.041,
     2595.941,
     2603.934,
     2608.169,
     2614.511,
     2620.801,
     2628.316,
     2632.852,
     2636.212,
     2638.749,
     2640.625,
     2643.404,
     2648.393,
     2651.607,
     2652.651,
     2653.71,
     2654.99,
     2655.791,
     2656.431,
     2657.231,
     2659.852,
     2664.193,
     2669.916,
     2675.038,
     2676.202,
     2677.609,
     2678.237,
     2681.242,
     2682.417,
     2684.674,
     2686.514,
     2693.266,
     2697.873,
     2701.362,
     2705.458,
     2708.293,
     2709.754,
     2714.814,
     2718.173,
     2722.021,
     2733.105,
     2737.507,
     2745.461,
     2747.709,
     2752.52,
     2761.726,
     2771.601,
     2778.839,
     2785.728,
     2799.956,
     2807.289,
     2811.248,
     2816.667,
     2826.245,
     2848.698,
     2853.94,
     2858.002,
     2866.895,
     2875.928,
     2913.687,
     2919.935,
     2926.489,
     2931.342,
     2933.642,
     2935.381,
     2939.115,
     2942.083,
     2947.115,
     2951.167,
     2954.766,
     2964.877,
     2972.204,
     2983.09,
     2991.786,
     2995.366,
     2999.215,
     3002.581,
     3009.901,
     3014.011,
     3046.828,
     3049.246,
     3055.608,
     3058.68,
     3067.144,
     3074.854,
     3077.212,
     3080.403,
     3088.621,
     3091.702,
     3094.156,
     3096.228,
     3098.336,
     3100.526,
     3104.027,
     3106.713,
     3108.138,
     3109.453,
     3113.621,
     3119.875,
     3124.492,
     3128.268,
     3142.223,
     3152.019,
     3153.775,
     3161.247,
     3170.634,
     3174.707,
     3178.978,
     3180.021,
     3183.558,
     3185.632,
     3187.139,
     3189.248,
     3189.527,
     3190.17,
     3191.218,
     3193.066,
     3194.323,
     3194.859,
     3199.995,
     3204.212,
     3211.366,
     3219.71,
     3221.784,
     3232.243,
     3247.589,
     3271.588,
     3280.609,
     3282.602,
     3292.75,
     3308.38,
     3311.483,
     3314.491,
     3318.618,
     3321.246,
     3322.848,
     3324.526,
     3327.312,
     3330.06,
     3331.713,
     3335.378,
     3336.345,
     3340.32,
     3341.685,
     3342.652,
     3344.087,
     3344.87,
     3348.825,
     3351.388,
     3363.702,
     3364.484,
     3366.56,
     3368.669,
     3370.577,
     3374.199,
     3378.512,
     3381.258,
     3384.987,
     3388.862,
     3392.823,
     3397.262,
     3400.787,
     3403.024,
     3412.902,
     3418.345,
     3425.429,
     3428.562,
     3432.906,
     3449.917,
     3454.438,
     3458.163,
     3460.7,
     3469.958,
     3536.77,
     3546.69,
     3558.537,
     3582.582,
     3646.402,
     3657.721,
     3684.975,
     3687.721,
     3690.244,
     3695.605,
     3706.277,
     3711.347,
     3714.986,
     3718.014,
     3719.851,
     3725.885,
     3734.232,
     3765.679,
     3768.914,
     3771.869,
     3774.026,
     3777.526,
     3787.672,
     3790.388,
     3792.557,
     3794.029,
     3796.088,
     3800.687,
     3821.901,
     3843.245,
     3858.52,
     3863.935,
     3869.635,
     3885.854,
     3895.134,
     3905.917,
     3912.304,
     3926.628,
     3944.437,
     3972.115,
     4027.814,
     4038.555,
     4054.41,
     4056.862,
     4060.697,
     4063.783,
     4068.286,
     4080.485,
     4083.252,
     4085.379,
     4086.955,
     4088.574,
     4090.788,
     4093.188,
     4097.508,
     4098.308,
     4099.268,
     4102.788,
     4103.828,
     4104.948,
     4111.028,
     4112.572,
     4114.841,
     4118.314,
     4119.949,
     4129.466,
     4137.531,
     4149.482,
     4155.277,
     4158.995,
     4166.635,
     4181.343,
     4185.136,
     4187.269,
     4188.443,
     4192.686,
     4200.63,
     4205.152,
     4207.098,
     4221.178,
     4228.332,
     4235.426,
     4244.439,
     4284.692,
     4287.044,
     4304.299,
     4313.169,
     4323.368,
     4327.262,
     4333.681,
     4337.281,
     4340.721,
     4341.762,
     4348.961,
     4358.481,
     4360.881,
     4363.682,
     4366.481,
     4367.921,
     4375.122,
     4380.401,
     4389.042,
     4414.802,
     4417.265,
     4421.452,
     4423.72,
     4428.152,
     4430.4,
     4432.8,
     4436.88,
     4446.641,
     4450.815,
     4453.244,
     4455.998,
     4458.379,
     4463.139,
     4467.971,
     4469.939,
     4471.379,
     4472.74,
     4473.961,
     4488.906,
     4512.26,
     4523.174,
     4534.36,
     4540.563,
     4545.919,
     4566,
     4577.03,
     4582.652,
     4589.056,
     4594.035,
     4594.929,
     4596.289,
     4598.769,
     4605.249,
     4620.935,
     4629.704,
     4663.145,
     4673.309,
     4686.165,
     4715.221,
     4744.26,
     4791.894,
     4875.501,
     4905.209,
     4938.463,
     4988.842,
     4996.864,
     5003.621,
     5009.608,
     5013.312,
     5017,
     5019.968,
     5105.032,
     5142.296,
     5149.212,
     5158.287,
     5221.939,
     5293.969,
     5335.001,
     5343.928,
     5354.179,
     5369.436,
     5390.988,
     5401.09,
     5413.486,
     5492.546,
     5502.572,
     5518.178,
     5555.396,
     5568.689,
     5578.358,
     5583.274,
     5586.474,
     5600.729,
     5612.399,
     5620.188,
     5626.775
    ]
   },
   "geometry": {
    "type": "LineString",
    "coordinates": [
     [
      15.968121,
      49.643916,
      658.0
     ],
     [
      15.967435,
      49.644152,
      659.75
     ],
     [
      15.966793,
      49.644313,
      660.5
     ],
     [
      15.966364,
      49.643848,
      655.5
     ],
     [
      15.965254,
      49.642601,
      658.25
     ],
     [
      15.964978,
      49.64229,
      661.25
     ],
     [
      15.965125,
      49.64213,
      662.75
     ],
     [
      15.965235,
      49.642068,
      663.5
     ],
     [
      15.965323,
      49.642097,
      663.25
     ],
     [
      15.969681,
      49.642305,
      668.25
     ],
     [
      15.970633,
      49.642262,
      671.75
     ],
     [
      15.971912,
      49.641938,
      677.75
     ],
     [
      15.972927,
      49.641563,
      683.25
     ],
     [
      15.973698,
      49.641291,
      686.75
     ],
     [
      15.974199,
      49.641226,
      688.0
     ],
     [
      15.97498,
      49.641247,
      689.0
     ],
     [
      15.979124,
      49.641535,
      693.75
     ],
     [
      15.980501,
      49.641851,
      695.0
     ],
     [
      15.981073,
      49.641898,
      696.0
     ],
     [
      15.981445,
      49.641916,
      696.0
     ],
     [
      15.981665,
      49.641926,
      696.0
     ],
     [
      15.981919,
      49.641937,
      696.75
     ],
     [
      15.982239,
      49.641971,
      696.75
     ],
     [
      15.982429,
      49.642029,
      697.0
     ],
     [
      15.982523,
      49.64207,
      697.0
     ],
     [
      15.982654,
      49.642149,
      697.25
     ],
     [
      15.983713,
      49.643098,
      704.75
     ],
     [
      15.983989,
      49.643342,
      707.25
     ],
     [
      15.985111,
      49.64422,
      713.5
     ],
     [
      15.985965,
      49.64484,
      718.5
     ],
     [
      15.986363,
      49.645084,
      720.75
     ],
     [
      15.987065,
      49.645476,
      721.0
     ],
     [
      15.987563,
      49.645664,
      720.0
     ],
     [
      15.988082,
      49.645814,
      722.0
     ],
     [
      15.988382,
      49.645863,
      722.0
     ],
     [
      15.988606,
      49.645872,
      723.5
     ],
     [
      15.98896,
      49.645835,
      725.0
     ],
     [
      15.989049,
      49.64582,
      725.5
     ],
     [
      15.989297,
      49.645748,
      727.0
     ],
     [
      15.989529,
      49.645664,
      728.25
     ],
     [
      15.990748,
      49.645119,
      736.0
     ],
     [
      15.991128,
      49.645037,
      737.5
     ],
     [
      15.992346,
      49.644844,
      744.25
     ],
     [
      15.993616,
      49.644464,
      751.5
     ],
     [
      15.996094,
      49.643586,
      768.25
     ],
     [
      15.996225,
      49.643546,
      769.0
     ],
     [
      15.996404,
      49.6435,
      769.5
     ],
     [
      15.996558,
      49.643469,
      770.75
     ],
     [
      15.99666,
      49.643454,
      771.5
     ],
     [
      15.996917,
      49.643438,
      773.25
     ],
     [
      15.997118,
      49.643443,
      775.0
     ],
     [
      15.997386,
      49.643462,
      776.5
     ],
     [
      15.997654,
      49.64349,
      777.25
     ],
     [
      15.997822,
      49.643498,
      777.75
     ],
     [
      15.998195,
      49.643481,
      779.25
     ],
     [
      15.998349,
      49.643458,
      780.0
     ],
     [
      15.998657,
      49.643382,
      780.75
     ],
     [
      15.999081,
      49.64323,
      782.5
     ],
     [
      15.999285,
      49.643449,
      780.75
     ],
     [
      15.999344,
      49.643642,
      778.75
     ],
     [
      15.999384,
      49.643698,
      778.5
     ],
     [
      15.999447,
      49.643864,
      778.0
     ],
     [
      15.999384,
      49.643698,
      778.5
     ],
     [
      15.999344,
      49.643642,
      778.75
     ],
     [
      15.999285,
      49.643449,
      780.75
     ],
     [
      15.999081,
      49.64323,
      782.5
     ],
     [
      16.000121,
      49.642829,
      784.5
     ],
     [
      16.00379,
      49.641398,
      788.0
     ],
     [
      16.003736,
      49.641307,
      787.5
     ],
     [
      16.00379,
      49.641398,
      788.0
     ],
     [
      16.005339,
      49.640611,
      785.0
     ],
     [
      16.00601,
      49.640305,
      782.75
     ],
     [
      16.006689,
      49.640067,
      779.0
     ],
     [
      16.007771,
      49.63971,
      773.75
     ],
     [
      16.007926,
      49.639661,
      773.0
     ],
     [
      16.008096,
      49.639604,
      772.25
     ],
     [
      16.008374,
      49.639566,
      770.5
     ],
     [
      16.008619,
      49.639555,
      769.75
     ],
     [
      16.008925,
      49.639571,
      769.0
     ],
     [
      16.009267,
      49.639658,
      768.0
     ],
     [
      16.009486,
      49.639753,
      768.5
     ],
     [
      16.010285,
      49.640102,
      772.0
     ],
     [
      16.0107,
      49.64023,
      772.75
     ],
     [
      16.013991,
      49.640641,
      783.5
     ],
     [
      16.015608,
      49.64083,
      787.75
     ],
     [
      16.016,
      49.640791,
      787.25
     ],
     [
      16.016622,
      49.640633,
      786.0
     ],
     [
      16.01769,
      49.639867,
      779.25
     ],
     [
      16.018383,
      49.639464,
      776.0
     ],
     [
      16.018962,
      49.639219,
      773.75
     ],
     [
      16.019712,
      49.639017,
      771.25
     ],
     [
      16.020249,
      49.638891,
      770.0
     ],
     [
      16.020498,
      49.638833,
      769.25
     ],
     [
      16.022803,
      49.638082,
      761.0
     ],
     [
      16.024393,
      49.637563,
      755.25
     ],
     [
      16.025204,
      49.637294,
      754.25
     ],
     [
      16.025361,
      49.637237,
      754.0
     ],
     [
      16.025737,
      49.637051,
      753.25
     ],
     [
      16.027771,
      49.635946,
      746.75
     ],
     [
      16.028092,
      49.635818,
      745.75
     ],
     [
      16.028278,
      49.635769,
      745.5
     ],
     [
      16.028435,
      49.635739,
      745.5
     ],
     [
      16.029045,
      49.635681,
      744.75
     ],
     [
      16.030286,
      49.635605,
      743.0
     ],
     [
      16.030314,
      49.635604,
      743.0
     ],
     [
      16.030943,
      49.635273,
      740.75
     ],
     [
      16.031804,
      49.634765,
      737.0
     ],
     [
      16.032059,
      49.634587,
      736.0
     ],
     [
      16.032182,
      49.634454,
      735.0
     ],
     [
      16.032204,
      49.63443,
      735.0
     ],
     [
      16.032361,
      49.634046,
      733.75
     ],
     [
      16.032441,
      49.633704,
      733.0
     ],
     [
      16.032566,
      49.63348,
      732.5
     ],
     [
      16.032756,
      49.633295,
      731.75
     ],
     [
      16.032883,
      49.63321,
      731.5
     ],
     [
      16.033263,
      49.633099,
      732.0
     ],
     [
      16.034292,
      49.632903,
      732.25
     ],
     [
      16.034543,
      49.632833,
      731.75
     ],
     [
      16.036311,
      49.632175,
      726.25
     ],
     [
      16.036841,
      49.632023,
      725.25
     ],
     [
      16.038916,
      49.631386,
      716.75
     ],
     [
      16.039559,
      49.631133,
      713.5
     ],
     [
      16.039656,
      49.630998,
      712.5
     ],
     [
      16.039883,
      49.63074,
      710.5
     ],
     [
      16.040106,
      49.630428,
      708.75
     ],
     [
      16.040114,
      49.630122,
      707.25
     ],
     [
      16.040228,
      49.62992,
      707.0
     ],
     [
      16.040255,
      49.629862,
      707.0
     ],
     [
      16.04045,
      49.629507,
      707.75
     ],
     [
      16.040601,
      49.629369,
      708.5
     ],
     [
      16.040948,
      49.629569,
      707.75
     ],
     [
      16.041101,
      49.629655,
      707.75
     ],
     [
      16.041297,
      49.629767,
      707.75
     ],
     [
      16.04184,
      49.630059,
      706.5
     ],
     [
      16.042127,
      49.630172,
      706.25
     ],
     [
      16.042219,
      49.630198,
      706.25
     ],
     [
      16.042303,
      49.630221,
      706.25
     ],
     [
      16.042431,
      49.630243,
      706.0
     ],
     [
      16.042772,
      49.630282,
      706.75
     ],
     [
      16.043017,
      49.630042,
      708.5
     ],
     [
      16.043245,
      49.62985,
      711.25
     ],
     [
      16.043463,
      49.62971,
      712.5
     ],
     [
      16.043835,
      49.629546,
      714.75
     ],
     [
      16.044002,
      49.62946,
      715.75
     ],
     [
      16.044138,
      49.629377,
      716.75
     ],
     [
      16.044502,
      49.629066,
      721.25
     ],
     [
      16.044694,
      49.628881,
      724.0
     ],
     [
      16.044801,
      49.628723,
      725.75
     ],
     [
      16.044977,
      49.628306,
      731.25
     ],
     [
      16.045066,
      49.628041,
      733.0
     ],
     [
      16.045153,
      49.627827,
      735.0
     ],
     [
      16.045247,
      49.627663,
      735.75
     ],
     [
      16.04541,
      49.627473,
      736.75
     ],
     [
      16.045617,
      49.6273,
      738.0
     ],
     [
      16.045699,
      49.627209,
      738.5
     ],
     [
      16.045798,
      49.627049,
      739.75
     ],
     [
      16.046021,
      49.626622,
      743.25
     ],
     [
      16.046396,
      49.625958,
      749.5
     ],
     [
      16.04645,
      49.625819,
      751.25
     ],
     [
      16.046557,
      49.625269,
      756.0
     ],
     [
      16.04667,
      49.624899,
      757.75
     ],
     [
      16.047082,
      49.624031,
      757.0
     ],
     [
      16.04728,
      49.62369,
      755.0
     ],
     [
      16.047728,
      49.623027,
      749.75
     ],
     [
      16.047822,
      49.622904,
      748.75
     ],
     [
      16.04798,
      49.622735,
      747.5
     ],
     [
      16.048134,
      49.622591,
      746.5
     ],
     [
      16.04834,
      49.622428,
      745.0
     ],
     [
      16.048794,
      49.62209,
      740.0
     ],
     [
      16.048935,
      49.621953,
      738.75
     ],
     [
      16.049264,
      49.621527,
      734.25
     ],
     [
      16.049719,
      49.621015,
      728.5
     ],
     [
      16.04983,
      49.620857,
      726.25
     ],
     [
      16.050048,
      49.620485,
      723.5
     ],
     [
      16.050207,
      49.620248,
      722.5
     ],
     [
      16.05061,
      49.619746,
      719.25
     ],
     [
      16.050798,
      49.619488,
      719.0
     ],
     [
      16.050914,
      49.619307,
      718.5
     ],
     [
      16.050975,
      49.619185,
      718.0
     ],
     [
      16.051116,
      49.618707,
      716.25
     ],
     [
      16.05111,
      49.618637,
      716.0
     ],
     [
      16.051119,
      49.618361,
      714.0
     ],
     [
      16.05114,
      49.618239,
      713.5
     ],
     [
      16.051233,
      49.618073,
      713.0
     ],
     [
      16.051327,
      49.617979,
      712.5
     ],
     [
      16.051499,
      49.617851,
      712.5
     ],
     [
      16.051546,
      49.617826,
      712.5
     ],
     [
      16.051635,
      49.617768,
      712.75
     ],
     [
      16.051705,
      49.617723,
      712.25
     ],
     [
      16.052104,
      49.617527,
      711.75
     ],
     [
      16.0526,
      49.617218,
      711.75
     ],
     [
      16.053063,
      49.616941,
      711.75
     ],
     [
      16.053371,
      49.616735,
      711.5
     ],
     [
      16.053463,
      49.616672,
      712.75
     ],
     [
      16.053542,
      49.616618,
      713.25
     ],
     [
      16.053641,
      49.616559,
      713.75
     ],
     [
      16.053828,
      49.616488,
      714.5
     ],
     [
      16.053994,
      49.616446,
      715.5
     ],
     [
      16.054152,
      49.61642,
      716.75
     ],
     [
      16.054622,
      49.616405,
      720.0
     ],
     [
      16.055042,
      49.616416,
      722.0
     ],
     [
      16.05534,
      49.616416,
      722.75
     ],
     [
      16.055523,
      49.616398,
      722.75
     ],
     [
      16.055761,
      49.616338,
      723.5
     ],
     [
      16.056003,
      49.61625,
      723.5
     ],
     [
      16.056316,
      49.616115,
      723.75
     ],
     [
      16.056003,
      49.61625,
      723.5
     ],
     [
      16.055761,
      49.616338,
      723.5
     ],
     [
      16.055523,
      49.616398,
      722.75
     ],
     [
      16.05534,
      49.616416,
      722.75
     ],
     [
      16.055042,
      49.616416,
      722.0
     ],
     [
      16.054622,
      49.616405,
      720.0
     ],
     [
      16.054152,
      49.61642,
      716.75
     ],
     [
      16.053994,
      49.616446,
      715.5
     ],
     [
      16.053828,
      49.616488,
      714.5
     ],
     [
      16.053641,
      49.616559,
      713.75
     ],
     [
      16.053542,
      49.616618,
      713.25
     ],
     [
      16.053463,
      49.616672,
      712.75
     ],
     [
      16.053371,
      49.616735,
      711.5
     ],
     [
      16.053063,
      49.616941,
      711.75
     ],
     [
      16.0526,
      49.617218,
      711.75
     ],
     [
      16.052104,
      49.617527,
      711.75
     ],
     [
      16.051705,
      49.617723,
      712.25
     ],
     [
      16.051635,
      49.617768,
      712.75
     ],
     [
      16.051546,
      49.617826,
      712.5
     ],
     [
      16.051499,
      49.617851,
      712.5
     ],
     [
      16.051327,
      49.617979,
      712.5
     ],
     [
      16.051233,
      49.618073,
      713.0
     ],
     [
      16.05114,
      49.618239,
      713.5
     ],
     [
      16.051119,
      49.618361,
      714.0
     ],
     [
      16.05111,
      49.618637,
      716.0
     ],
     [
      16.050782,
      49.618611,
      715.75
     ],
     [
      16.05045,
      49.61856,
      714.5
     ],
     [
      16.05,
      49.618474,
      713.5
     ],
     [
      16.049664,
      49.6184,
      712.5
     ],
     [
      16.049503,
      49.618378,
      712.75
     ],
     [
      16.049051,
      49.618192,
      712.75
     ],
     [
      16.04881,
      49.618063,
      713.0
     ],
     [
      16.048673,
      49.617839,
      712.75
     ],
     [
      16.048394,
      49.617531,
      715.5
     ],
     [
      16.048248,
      49.617444,
      716.5
     ],
     [
      16.047858,
      49.617271,
      718.75
     ],
     [
      16.047738,
      49.617333,
      718.5
     ],
     [
      16.047486,
      49.617405,
      719.25
     ],
     [
      16.047077,
      49.617569,
      720.0
     ],
     [
      16.04666,
      49.617712,
      721.0
     ],
     [
      16.04632,
      49.617806,
      721.25
     ],
     [
      16.046044,
      49.617831,
      722.75
     ],
     [
      16.045514,
      49.61782,
      724.0
     ],
     [
      16.045256,
      49.61779,
      725.0
     ],
     [
      16.04512,
      49.617723,
      724.75
     ],
     [
      16.04489,
      49.617646,
      724.5
     ],
     [
      16.044327,
      49.617508,
      724.0
     ],
     [
      16.043283,
      49.617121,
      725.5
     ],
     [
      16.0431,
      49.616996,
      726.5
     ],
     [
      16.043017,
      49.616885,
      727.0
     ],
     [
      16.042885,
      49.616658,
      728.0
     ],
     [
      16.042813,
      49.616417,
      728.75
     ],
     [
      16.042692,
      49.615114,
      726.5
     ],
     [
      16.042606,
      49.614647,
      724.0
     ],
     [
      16.042436,
      49.614265,
      721.5
     ],
     [
      16.042036,
      49.613867,
      718.0
     ],
     [
      16.041878,
      49.613681,
      717.25
     ],
     [
      16.041674,
      49.61359,
      716.75
     ],
     [
      16.041324,
      49.613368,
      716.75
     ],
     [
      16.041078,
      49.613242,
      717.25
     ],
     [
      16.040636,
      49.612956,
      719.0
     ],
     [
      16.040473,
      49.612753,
      720.25
     ],
     [
      16.0404,
      49.612618,
      721.5
     ],
     [
      16.040314,
      49.612302,
      722.75
     ],
     [
      16.040194,
      49.612026,
      722.5
     ],
     [
      16.039847,
      49.611672,
      723.0
     ],
     [
      16.039541,
      49.611454,
      724.0
     ],
     [
      16.039415,
      49.611364,
      724.25
     ],
     [
      16.039332,
      49.611249,
      724.75
     ],
     [
      16.039308,
      49.611137,
      724.75
     ],
     [
      16.039105,
      49.61131,
      725.75
     ],
     [
      16.03895,
      49.611476,
      727.25
     ],
     [
      16.038311,
      49.612194,
      731.25
     ],
     [
      16.038212,
      49.612223,
      731.75
     ],
     [
      16.037997,
      49.612303,
      732.75
     ],
     [
      16.037888,
      49.612319,
      733.5
     ],
     [
      16.037626,
      49.61232,
      734.75
     ],
     [
      16.037391,
      49.612264,
      735.25
     ],
     [
      16.037316,
      49.612242,
      735.25
     ],
     [
      16.037208,
      49.612277,
      735.0
     ],
     [
      16.036998,
      49.61243,
      735.5
     ],
     [
      16.03694,
      49.612499,
      735.75
     ],
     [
      16.036924,
      49.612566,
      735.5
     ],
     [
      16.036878,
      49.612627,
      735.0
     ],
     [
      16.036806,
      49.612689,
      734.75
     ],
     [
      16.036696,
      49.61272,
      735.0
     ],
     [
      16.036495,
      49.612749,
      735.0
     ],
     [
      16.036398,
      49.612662,
      735.0
     ],
     [
      16.036361,
      49.612608,
      734.75
     ],
     [
      16.036302,
      49.612554,
      734.5
     ],
     [
      16.036171,
      49.612488,
      734.0
     ],
     [
      16.035949,
      49.61237,
      733.75
     ],
     [
      16.035797,
      49.612264,
      734.0
     ],
     [
      16.035684,
      49.612149,
      733.75
     ],
     [
      16.035187,
      49.611564,
      733.0
     ],
     [
      16.034852,
      49.61115,
      733.25
     ],
     [
      16.034776,
      49.611086,
      733.5
     ],
     [
      16.034456,
      49.610848,
      734.0
     ],
     [
      16.03394,
      49.610408,
      732.75
     ],
     [
      16.033731,
      49.610116,
      731.0
     ],
     [
      16.033596,
      49.609878,
      729.0
     ],
     [
      16.033536,
      49.609822,
      728.25
     ],
     [
      16.033264,
      49.609541,
      726.0
     ],
     [
      16.033148,
      49.609351,
      724.75
     ],
     [
      16.033104,
      49.609204,
      724.0
     ],
     [
      16.033086,
      49.608986,
      723.25
     ],
     [
      16.033073,
      49.608959,
      723.25
     ],
     [
      16.033043,
      49.608898,
      723.0
     ],
     [
      16.032896,
      49.608881,
      723.0
     ],
     [
      16.033043,
      49.608898,
      723.0
     ],
     [
      16.033073,
      49.608959,
      723.25
     ],
     [
      16.033086,
      49.608986,
      723.25
     ],
     [
      16.033104,
      49.609204,
      724.0
     ],
     [
      16.033148,
      49.609351,
      724.75
     ],
     [
      16.033264,
      49.609541,
      726.0
     ],
     [
      16.033536,
      49.609822,
      728.25
     ],
     [
      16.033596,
      49.609878,
      729.0
     ],
     [
      16.033731,
      49.610116,
      731.0
     ],
     [
      16.03394,
      49.610408,
      732.75
     ],
     [
      16.034456,
      49.610848,
      734.0
     ],
     [
      16.034776,
      49.611086,
      733.5
     ],
     [
      16.034852,
      49.61115,
      733.25
     ],
     [
      16.035187,
      49.611564,
      733.0
     ],
     [
      16.035684,
      49.612149,
      733.75
     ],
     [
      16.035797,
      49.612264,
      734.0
     ],
     [
      16.035949,
      49.61237,
      733.75
     ],
     [
      16.036171,
      49.612488,
      734.0
     ],
     [
      16.036302,
      49.612554,
      734.5
     ],
     [
      16.036361,
      49.612608,
      734.75
     ],
     [
      16.036398,
      49.612662,
      735.0
     ],
     [
      16.036495,
      49.612749,
      735.0
     ],
     [
      16.036461,
      49.612889,
      734.0
     ],
     [
      16.036468,
      49.612934,
      733.5
     ],
     [
      16.036568,
      49.613061,
      732.25
     ],
     [
      16.036564,
      49.613105,
      731.75
     ],
     [
      16.036328,
      49.613305,
      730.5
     ],
     [
      16.036281,
      49.613396,
      729.75
     ],
     [
      16.036191,
      49.613431,
      729.25
     ],
     [
      16.036281,
      49.613396,
      729.75
     ],
     [
      16.036257,
      49.613442,
      729.25
     ],
     [
      16.035966,
      49.613567,
      729.25
     ],
     [
      16.035783,
      49.613666,
      729.0
     ],
     [
      16.035144,
      49.614273,
      728.75
     ],
     [
      16.035113,
      49.614316,
      728.75
     ],
     [
      16.035047,
      49.614431,
      728.5
     ],
     [
      16.034998,
      49.614552,
      728.5
     ],
     [
      16.034985,
      49.61468,
      728.0
     ],
     [
      16.035007,
      49.614888,
      728.5
     ],
     [
      16.035051,
      49.615132,
      728.5
     ],
     [
      16.035035,
      49.615276,
      728.75
     ],
     [
      16.034994,
      49.615436,
      729.5
     ],
     [
      16.03494,
      49.615587,
      730.0
     ],
     [
      16.034848,
      49.615704,
      730.75
     ],
     [
      16.034719,
      49.615802,
      731.75
     ],
     [
      16.034608,
      49.615852,
      732.5
     ],
     [
      16.034462,
      49.61591,
      733.25
     ],
     [
      16.034055,
      49.616027,
      735.5
     ],
     [
      16.033883,
      49.616096,
      736.75
     ],
     [
      16.033723,
      49.6162,
      738.25
     ],
     [
      16.033673,
      49.616252,
      738.75
     ],
     [
      16.033641,
      49.616329,
      739.5
     ],
     [
      16.033595,
      49.616576,
      742.0
     ],
     [
      16.033495,
      49.616615,
      742.5
     ],
     [
      16.033407,
      49.616628,
      742.5
     ],
     [
      16.033344,
      49.616625,
      742.5
     ],
     [
      16.033058,
      49.616585,
      742.25
     ],
     [
      16.030958,
      49.616157,
      746.0
     ],
     [
      16.030576,
      49.616118,
      747.75
     ],
     [
      16.030195,
      49.616104,
      749.5
     ],
     [
      16.029576,
      49.616115,
      752.5
     ],
     [
      16.028189,
      49.616209,
      758.25
     ],
     [
      16.027852,
      49.616241,
      759.25
     ],
     [
      16.026808,
      49.616369,
      759.75
     ],
     [
      16.026671,
      49.616372,
      759.75
     ],
     [
      16.02655,
      49.61637,
      760.0
     ],
     [
      16.02632,
      49.61635,
      760.75
     ],
     [
      16.025793,
      49.616283,
      760.75
     ],
     [
      16.025521,
      49.616228,
      760.75
     ],
     [
      16.025338,
      49.616171,
      761.0
     ],
     [
      16.02517,
      49.616101,
      760.75
     ],
     [
      16.025059,
      49.616045,
      760.25
     ],
     [
      16.024885,
      49.615927,
      759.75
     ],
     [
      16.024602,
      49.615701,
      759.25
     ],
     [
      16.022973,
      49.614173,
      754.0
     ],
     [
      16.022835,
      49.614006,
      753.75
     ],
     [
      16.022745,
      49.613834,
      753.5
     ],
     [
      16.022705,
      49.613694,
      753.0
     ],
     [
      16.022664,
      49.613471,
      753.0
     ],
     [
      16.022597,
      49.612888,
      753.25
     ],
     [
      16.022548,
      49.612728,
      753.0
     ],
     [
      16.022471,
      49.612606,
      752.75
     ],
     [
      16.022394,
      49.612532,
      752.75
     ],
     [
      16.022259,
      49.612451,
      753.0
     ],
     [
      16.021915,
      49.612267,
      752.5
     ],
     [
      16.020377,
      49.61156,
      752.5
     ],
     [
      16.018694,
      49.610798,
      754.5
     ],
     [
      16.01772,
      49.610333,
      758.0
     ],
     [
      16.017444,
      49.610223,
      759.25
     ],
     [
      16.017213,
      49.610142,
      760.5
     ],
     [
      16.016718,
      49.609987,
      762.75
     ],
     [
      16.016449,
      49.609928,
      764.25
     ],
     [
      16.016168,
      49.609877,
      766.0
     ],
     [
      16.016011,
      49.609852,
      767.0
     ],
     [
      16.015677,
      49.609827,
      768.75
     ],
     [
      16.015273,
      49.60981,
      770.5
     ],
     [
      16.014645,
      49.609801,
      772.75
     ],
     [
      16.013072,
      49.609799,
      775.5
     ],
     [
      16.012617,
      49.609775,
      776.0
     ],
     [
      16.011726,
      49.609702,
      775.75
     ],
     [
      16.011551,
      49.609697,
      775.25
     ],
     [
      16.011398,
      49.609702,
      774.75
     ],
     [
      16.011262,
      49.609728,
      774.5
     ],
     [
      16.010959,
      49.609803,
      773.0
     ],
     [
      16.009904,
      49.61009,
      768.75
     ],
     [
      16.00963,
      49.610158,
      768.0
     ],
     [
      16.009384,
      49.610185,
      767.25
     ],
     [
      16.009191,
      49.610196,
      766.75
     ],
     [
      16.008978,
      49.610187,
      766.25
     ],
     [
      16.008655,
      49.610158,
      764.75
     ],
     [
      16.008247,
      49.610088,
      762.5
     ],
     [
      16.007579,
      49.609876,
      758.0
     ],
     [
      16.007448,
      49.60986,
      757.0
     ],
     [
      16.007284,
      49.60985,
      755.75
     ],
     [
      16.006682,
      49.6099,
      752.5
     ],
     [
      16.006501,
      49.609894,
      751.5
     ],
     [
      16.006314,
      49.609848,
      750.25
     ],
     [
      16.005433,
      49.609476,
      747.25
     ],
     [
      16.005673,
      49.609458,
      748.5
     ],
     [
      16.005433,
      49.609476,
      747.25
     ],
     [
      16.005111,
      49.609388,
      747.25
     ],
     [
      16.005114,
      49.609518,
      746.25
     ],
     [
      16.00513,
      49.61017,
      743.25
     ],
     [
      16.004635,
      49.610829,
      740.25
     ],
     [
      16.00365,
      49.611738,
      737.25
     ],
     [
      16.003231,
      49.612039,
      737.25
     ],
     [
      16.002852,
      49.612261,
      738.25
     ],
     [
      16.002217,
      49.612537,
      739.25
     ],
     [
      16.000855,
      49.612719,
      739.0
     ],
     [
      16.000487,
      49.612773,
      738.5
     ],
     [
      16.000246,
      49.612753,
      737.5
     ],
     [
      16.000118,
      49.612727,
      737.25
     ],
     [
      15.999705,
      49.612642,
      734.75
     ],
     [
      15.998644,
      49.6127,
      732.25
     ],
     [
      15.997961,
      49.612691,
      730.0
     ],
     [
      15.99764,
      49.612705,
      728.25
     ],
     [
      15.995423,
      49.613355,
      722.25
     ],
     [
      15.994533,
      49.613668,
      720.25
     ],
     [
      15.994075,
      49.613991,
      721.25
     ],
     [
      15.993218,
      49.614314,
      720.0
     ],
     [
      15.990024,
      49.615382,
      720.0
     ],
     [
      15.989849,
      49.615441,
      720.0
     ],
     [
      15.988468,
      49.615792,
      719.75
     ],
     [
      15.9881,
      49.616036,
      721.25
     ],
     [
      15.987443,
      49.616235,
      721.0
     ],
     [
      15.987145,
      49.616342,
      720.25
     ],
     [
      15.986663,
      49.615806,
      713.5
     ],
     [
      15.986282,
      49.615482,
      709.75
     ],
     [
      15.985789,
      49.615267,
      706.75
     ],
     [
      15.985612,
      49.615249,
      706.75
     ],
     [
      15.984362,
      49.615194,
      700.25
     ],
     [
      15.982774,
      49.614919,
      691.5
     ],
     [
      15.982415,
      49.614784,
      689.75
     ],
     [
      15.982173,
      49.614513,
      687.25
     ],
     [
      15.982034,
      49.614207,
      685.0
     ],
     [
      15.981851,
      49.614099,
      683.0
     ],
     [
      15.98065,
      49.614314,
      674.0
     ],
     [
      15.979781,
      49.614495,
      670.5
     ],
     [
      15.978363,
      49.614816,
      668.25
     ],
     [
      15.974225,
      49.615894,
      654.0
     ],
     [
      15.973999,
      49.616002,
      653.25
     ],
     [
      15.973667,
      49.61628,
      652.0
     ],
     [
      15.973334,
      49.616273,
      650.5
     ],
     [
      15.97268,
      49.616022,
      647.75
     ],
     [
      15.972336,
      49.615922,
      646.5
     ],
     [
      15.971934,
      49.615845,
      645.0
     ],
     [
      15.971231,
      49.615824,
      643.25
     ],
     [
      15.969552,
      49.615675,
      638.0
     ],
     [
      15.968876,
      49.615602,
      636.0
     ],
     [
      15.968495,
      49.615512,
      634.5
     ],
     [
      15.968061,
      49.615393,
      633.0
     ],
     [
      15.967801,
      49.615209,
      632.25
     ],
     [
      15.967339,
      49.614931,
      632.75
     ],
     [
      15.966851,
      49.614716,
      632.25
     ],
     [
      15.966583,
      49.614639,
      630.5
     ],
     [
      15.966331,
      49.614649,
      628.5
     ],
     [
      15.966119,
      49.614721,
      627.0
     ],
     [
      15.965969,
      49.614811,
      627.25
     ],
     [
      15.964961,
      49.615363,
      630.5
     ],
     [
      15.96342,
      49.616152,
      633.5
     ],
     [
      15.962737,
      49.616435,
      634.0
     ],
     [
      15.961849,
      49.616754,
      633.25
     ],
     [
      15.961393,
      49.616968,
      633.0
     ],
     [
      15.960991,
      49.617182,
      632.5
     ],
     [
      15.958404,
      49.618686,
      612.0
     ],
     [
      15.957342,
      49.619303,
      610.25
     ],
     [
      15.956846,
      49.619565,
      609.75
     ],
     [
      15.956332,
      49.619952,
      608.5
     ],
     [
      15.955708,
      49.620288,
      605.0
     ],
     [
      15.95557,
      49.620333,
      603.5
     ],
     [
      15.95541,
      49.620448,
      601.0
     ],
     [
      15.955119,
      49.620657,
      600.25
     ],
     [
      15.954345,
      49.620133,
      596.5
     ],
     [
      15.955119,
      49.620657,
      600.25
     ],
     [
      15.95549,
      49.620877,
      601.5
     ],
     [
      15.956288,
      49.621348,
      605.75
     ],
     [
      15.956553,
      49.621504,
      607.0
     ],
     [
      15.956729,
      49.621704,
      609.25
     ],
     [
      15.956812,
      49.622092,
      613.25
     ],
     [
      15.95698,
      49.622463,
      616.25
     ],
     [
      15.957284,
      49.622985,
      621.25
     ],
     [
      15.957974,
      49.624169,
      626.25
     ],
     [
      15.95881,
      49.624991,
      626.5
     ],
     [
      15.959878,
      49.625797,
      628.75
     ],
     [
      15.961642,
      49.627037,
      631.5
     ],
     [
      15.961993,
      49.627342,
      631.5
     ],
     [
      15.962147,
      49.627493,
      631.0
     ],
     [
      15.962306,
      49.627731,
      629.5
     ],
     [
      15.962425,
      49.627937,
      628.5
     ],
     [
      15.962552,
      49.628236,
      626.5
     ],
     [
      15.962621,
      49.628501,
      625.25
     ],
     [
      15.962996,
      49.632269,
      630.25
     ],
     [
      15.963236,
      49.633297,
      637.25
     ],
     [
      15.963261,
      49.633482,
      638.75
     ],
     [
      15.963261,
      49.6337,
      640.0
     ],
     [
      15.963183,
      49.634906,
      645.0
     ],
     [
      15.963171,
      49.636124,
      652.0
     ],
     [
      15.963157,
      49.636741,
      657.5
     ],
     [
      15.963132,
      49.636903,
      658.5
     ],
     [
      15.963091,
      49.637066,
      660.25
     ],
     [
      15.963004,
      49.637273,
      662.25
     ],
     [
      15.962847,
      49.637545,
      664.5
     ],
     [
      15.962798,
      49.637679,
      666.0
     ],
     [
      15.962764,
      49.63783,
      667.75
     ],
     [
      15.962741,
      49.638576,
      675.5
     ],
     [
      15.962761,
      49.638711,
      676.25
     ],
     [
      15.962843,
      49.638931,
      677.0
     ],
     [
      15.963732,
      49.640458,
      673.25
     ],
     [
      15.964171,
      49.641212,
      669.25
     ],
     [
      15.964591,
      49.641856,
      664.75
     ],
     [
      15.964978,
      49.64229,
      661.25
     ],
     [
      15.965254,
      49.642601,
      658.25
     ],
     [
      15.966364,
      49.643848,
      655.5
     ],
     [
      15.966793,
      49.644313,
      660.5
     ],
     [
      15.967435,
      49.644152,
      659.75
     ],
     [
      15.968121,
      49.643916,
      658.0
     ]
    ]
   }
  }
 ]
}