{
 "type": "FeatureCollection",
 "features": [
  {
   "type": "Feature",
   "properties": {
    "creator": "BRouter-1.7.10",
    "name": "brouter_trekking_0",
    "track-length": "18899",
    "filtered ascend": "301",
    "plain-ascend": "0",
    "total-time": "4670",
    "total-energy": "450193",
    "cost": "49006",
    "messages": [
     [
      "Longitude",
      "Latitude",
      "Elevation",
      "Distance",
      "CostPerKm",
      "ElevCost",
      "TurnCost",
      "NodeCost",
      "InitialCost",
      "WayTags",
      "NodeTags",
      "Time",
      "Energy"
     ],
     [
      "15966793",
      "49644313",
      "660",
      "106",
      "1550",
      "0",
      "0",
      "0",
      "0",
      "reversedirection=yes highway=residential surface=unpaved oneway:bicycle=no",
      "estimated_crossing_class=1",
      "26",
      "2602"
     ],
     [
      "15966364",
      "49643848",
      "655",
      "60",
      "1650",
      "0",
      "74",
      "0",
      "0",
      "reversedirection=yes highway=secondary surface=asphalt cycleway:both=no",
      "estimated_crossing_class=1",
      "34",
      "3444"
     ],
     [
      "15965254",
      "49642601",
      "658",
      "160",
      "1650",
      "0",
      "0",
      "0",
      "0",
      "reversedirection=yes highway=secondary surface=asphalt",
      "estimated_crossing_class=1",
      "58",
      "5875"
     ],
     [
      "15964978",
      "49642290",
      "661",
      "40",
      "1650",
      "0",
      "0",
      "0",
      "0",
      "reversedirection=yes highway=secondary surface=asphalt",
      "estimated_crossing_class=1",
      "71",
      "7146"
     ],
     [
      "15965235",
      "49642068",
      "663",
      "32",
      "1050",
      "0",
      "50",
      "0",
      "0",
      "highway=track surface=paved tracktype=grade1 foot=yes bicycle=yes",
      "",
      "77",
      "7782"
     ],
     [
      "15965323",
      "49642097",
      "663",
      "7",
      "1050",
      "0",
      "56",
      "0",
      "0",
      "highway=track surface=asphalt tracktype=grade1 foot=yes bicycle=yes",
      "barrier=lift_gate motor_vehicle=agricultural",
      "79",
      "7925"
     ],
     [
      "15985965",
      "49644840",
      "718",
      "1676",
      "1050",
      "0",
      "29",
      "0",
      "0",
      "highway=track surface=asphalt tracktype=grade1 foot=yes bicycle=yes",
      "",
      "729",
      "72965"
     ],
     [
      "15999081",
      "49643230",
      "782",
      "1058",
      "1050",
      "0",
      "15",
      "0",
      "0",
      "highway=track surface=paved tracktype=grade1 foot=yes bicycle=yes",
      "",
      "1384",
      "138445"
     ],
     [
      "15999447",
      "49643864",
      "778",
      "76",
      "5050",
      "0",
      "94",
      "0",
      "0",
      "highway=path",
      "",
      "1405",
      "140558"
     ],
     [
      "15999081",
      "49643230",
      "782",
      "76",
      "5050",
      "0",
      "8",
      "0",
      "0",
      "reversedirection=yes highway=path",
      "",
      "1423",
      "142339"
     ],
     [
      "16000470",
      "49648331",
      "771",
      "1349",
      "1050",
      "0",
      "238",
      "0",
      "0",
      "highway=track surface=paved tracktype=grade1 foot=yes bicycle=yes",
      "",
      "1654",
      "165497"
     ],
     [
      "15998109",
      "49652684",
      "776",
      "732",
      "1050",
      "0",
      "43",
      "0",
      "0",
      "highway=track surface=asphalt tracktype=grade1 foot=yes bicycle=yes",
      "",
      "1769",
      "176990"
     ],
     [
      "15998647",
      "49654417",
      "777",
      "209",
      "3050",
      "0",
      "18",
      "0",
      "0",
      "highway=track surface=compacted tracktype=grade3",
      "",
      "1834",
      "183487"
     ],
     [
      "15998908",
      "49654403",
      "775",
      "20",
      "5050",
      "0",
      "116",
      "0",
      "0",
      "reversedirection=yes highway=path",
      "",
      "1837",
      "183742"
     ],
     [
      "15998647",
      "49654417",
      "777",
      "20",
      "5050",
      "0",
      "9",
      "0",
      "0",
      "highway=path",
      "",
      "1842",
      "184266"
     ],
     [
      "15996485",
      "49657885",
      "769",
      "432",
      "3050",
      "0",
      "148",
      "0",
      "0",
      "highway=track surface=compacted tracktype=grade3",
      "",
      "1911",
      "191141"
     ],
     [
      "15996360",
      "49657869",
      "772",
      "9",
      "5050",
      "0",
      "81",
      "0",
      "0",
      "highway=path foot=yes",
      "",
      "1912",
      "191280"
     ],
     [
      "15996485",
      "49657885",
      "769",
      "9",
      "5050",
      "0",
      "0",
      "0",
      "0",
      "reversedirection=yes highway=path foot=yes",
      "",
      "1913",
      "191393"
     ],
     [
      "15998109",
      "49652684",
      "776",
      "641",
      "3050",
      "0",
      "155",
      "0",
      "0",
      "reversedirection=yes highway=track surface=compacted tracktype=grade3",
      "",
      "2056",
      "205697"
     ],
     [
      "15994228",
      "49652024",
      "765",
      "295",
      "1050",
      "0",
      "15",
      "0",
      "0",
      "reversedirection=yes highway=track surface=asphalt tracktype=grade1 foot=yes bicycle=yes",
      "",
      "2091",
      "209228"
     ],
     [
      "15974427",
      "49660476",
      "685",
      "1713",
      "1050",
      "3238",
      "10",
      "0",
      "0",
      "highway=track surface=asphalt tracktype=grade1 foot=yes bicycle=yes",
      "barrier=lift_gate motor_vehicle=agricultural",
      "2231",
      "216400"
     ],
     [
      "15974162",
      "49660575",
      "684",
      "22",
      "1050",
      "25",
      "0",
      "0",
      "0",
      "highway=track surface=asphalt tracktype=grade1 foot=yes bicycle=yes",
      "",
      "2234",
      "216645"
     ],
     [
      "15973243",
      "49660230",
      "681",
      "80",
      "1050",
      "152",
      "32",
      "0",
      "0",
      "reversedirection=yes highway=track surface=paved tracktype=grade1",
      "estimated_crossing_class=1",
      "2241",
      "217380"
     ],
     [
      "15968093",
      "49654165",
      "694",
      "770",
      "1650",
      "42",
      "19",
      "0",
      "0",
      "reversedirection=yes highway=secondary surface=asphalt",
      "estimated_crossing_class=1",
      "2425",
      "235806"
     ],
     [
      "15969278",
      "49653791",
      "693",
      "95",
      "2050",
      "0",
      "85",
      "0",
      "0",
      "highway=track tracktype=grade2",
      "",
      "2450",
      "238219"
     ],
     [
      "15968093",
      "49654165",
      "694",
      "95",
      "2050",
      "0",
      "0",
      "0",
      "0",
      "reversedirection=yes highway=track tracktype=grade2",
      "estimated_crossing_class=1",
      "2471",
      "240408"
     ],
     [
      "15967664",
      "49652846",
      "704",
      "151",
      "1650",
      "0",
      "97",
      "0",
      "0",
      "reversedirection=yes highway=secondary surface=asphalt",
      "estimated_crossing_class=1",
      "2527",
      "245946"
     ],
     [
      "15967052",
      "49652871",
      "705",
      "44",
      "1050",
      "0",
      "90",
      "0",
      "0",
      "reversedirection=yes highway=track surface=asphalt tracktype=grade1",
      "barrier=lift_gate bicycle=yes foot=yes",
      "2545",
      "247724"
     ],
     [
      "15945096",
      "49658465",
      "753",
      "1741",
      "1050",
      "0",
      "11",
      "0",
      "0",
      "reversedirection=yes highway=track surface=asphalt tracktype=grade1 foot=yes bicycle=yes",
      "",
      "3180",
      "311299"
     ],
     [
      "15942620",
      "49668241",
      "789",
      "1144",
      "2050",
      "0",
      "186",
      "0",
      "0",
      "highway=track tracktype=grade2",
      "",
      "3617",
      "355009"
     ],
     [
      "15941649",
      "49668563",
      "788",
      "84",
      "5050",
      "0",
      "25",
      "0",
      "0",
      "highway=track surface=unpaved tracktype=grade5",
      "",
      "3639",
      "357153"
     ],
     [
      "15938687",
      "49671815",
      "768",
      "463",
      "5050",
      "258",
      "102",
      "0",
      "0",
      "reversedirection=yes highway=path surface=unpaved",
      "",
      "3695",
      "361804"
     ],
     [
      "15937938",
      "49671587",
      "767",
      "67",
      "5050",
      "0",
      "173",
      "0",
      "0",
      "highway=path surface=unpaved",
      "",
      "3701",
      "362415"
     ],
     [
      "15938687",
      "49671815",
      "768",
      "67",
      "5050",
      "0",
      "57",
      "0",
      "0",
      "reversedirection=yes highway=path surface=unpaved",
      "",
      "3714",
      "363665"
     ],
     [
      "15941649",
      "49668563",
      "788",
      "463",
      "5050",
      "0",
      "210",
      "0",
      "0",
      "highway=path surface=unpaved",
      "",
      "3904",
      "382713"
     ],
     [
      "15942620",
      "49668241",
      "789",
      "84",
      "5050",
      "0",
      "26",
      "0",
      "0",
      "reversedirection=yes highway=track surface=unpaved tracktype=grade5",
      "",
      "3928",
      "385083"
     ],
     [
      "15945096",
      "49658465",
      "753",
      "1144",
      "2050",
      "612",
      "112",
      "0",
      "0",
      "reversedirection=yes highway=track tracktype=grade2",
      "",
      "4051",
      "396612"
     ],
     [
      "15944465",
      "49658429",
      "753",
      "46",
      "1050",
      "0",
      "78",
      "0",
      "0",
      "reversedirection=yes highway=track surface=asphalt tracktype=grade1 foot=yes bicycle=yes",
      "",
      "4057",
      "397174"
     ],
     [
      "15943432",
      "49657119",
      "753",
      "166",
      "1050",
      "0",
      "37",
      "0",
      "0",
      "reversedirection=yes highway=track surface=concrete tracktype=grade1 foot=yes bicycle=yes",
      "",
      "4076",
      "399151"
     ],
     [
      "15948332",
      "49655099",
      "759",
      "420",
      "3050",
      "0",
      "62",
      "0",
      "0",
      "highway=track surface=unpaved tracktype=grade3",
      "",
      "4170",
      "408539"
     ],
     [
      "15948701",
      "49652646",
      "780",
      "287",
      "5050",
      "0",
      "106",
      "0",
      "0",
      "highway=track tracktype=grade5",
      "",
      "4325",
      "423978"
     ],
     [
      "15949285",
      "49651974",
      "787",
      "86",
      "5050",
      "0",
      "1",
      "0",
      "0",
      "highway=path",
      "",
      "4392",
      "430731"
     ],
     [
      "15950806",
      "49652409",
      "778",
      "128",
      "5050",
      "0",
      "98",
      "0",
      "0",
      "reversedirection=yes highway=path surface=unpaved",
      "",
      "4413",
      "432604"
     ],
     [
      "15951593",
      "49652877",
      "767",
      "77",
      "5050",
      "529",
      "0",
      "0",
      "0",
      "highway=path tracktype=grade4",
      "",
      "4419",
      "432604"
     ],
     [
      "15954253",
      "49654022",
      "736",
      "236",
      "5050",
      "1630",
      "20",
      "0",
      "0",
      "reversedirection=yes highway=track tracktype=grade4",
      "",
      "4438",
      "432604"
     ],
     [
      "15955938",
      "49655239",
      "721",
      "184",
      "5050",
      "733",
      "18",
      "0",
      "0",
      "highway=track tracktype=grade5",
      "",
      "4452",
      "432604"
     ],
     [
      "15967052",
      "49652871",
      "705",
      "871",
      "1050",
      "612",
      "72",
      "0",
      "0",
      "highway=track surface=asphalt tracktype=grade1 foot=yes bicycle=yes",
      "barrier=lift_gate bicycle=yes foot=yes",
      "4545",
      "440754"
     ],
     [
      "15967664",
      "49652846",
      "704",
      "44",
      "1050",
      "0",
      "0",
      "0",
      "0",
      "highway=track surface=asphalt tracktype=grade1",
      "estimated_crossing_class=1",
      "4551",
      "441324"
     ],
     [
      "15969031",
      "49647465",
      "681",
      "610",
      "1650",
      "426",
      "81",
      "0",
      "0",
      "reversedirection=yes highway=secondary surface=asphalt",
      "estimated_crossing_class=1",
      "4623",
      "446641"
     ],
     [
      "15967409",
      "49645041",
      "667",
      "297",
      "1650",
      "586",
      "2",
      "0",
      "0",
      "reversedirection=yes highway=secondary",
      "estimated_crossing_class=1",
      "4647",
      "447923"
     ],
     [
      "15967326",
      "49645077",
      "667",
      "7",
      "1150",
      "0",
      "105",
      "0",
      "0",
      "reversedirection=yes highway=residential surface=asphalt",
      "",
      "4648",
      "447987"
     ],
     [
      "15967409",
      "49645041",
      "667",
      "7",
      "1150",
      "0",
      "0",
      "0",
      "0",
      "highway=residential surface=asphalt",
      "estimated_crossing_class=1",
      "4649",
      "448105"
     ],
     [
      "15966793",
      "49644313",
      "660",
      "93",
      "1650",
      "0",
      "80",
      "0",
      "0",
      "reversedirection=yes highway=secondary surface=asphalt cycleway:both=no",
      "estimated_crossing_class=1",
      "4659",
      "449133"
     ],
     [
      "15968121",
      "49643916",
      "658",
      "106",
      "1550",
      "0",
      "105",
      "0",
      "0",
      "highway=residential surface=unpaved oneway:bicycle=no",
      "",
      "4670",
      "450193"
     ]
    ],
    "times": [
     0,
     13.678,
     26.015,
     34.431,
     58.749,
     71.452,
     75.355,
     77.814,
     79.24,
     164.751,
     188.597,
     241.804,
     292.026,
     327.49,
     344.922,
     367.624,
     462.395,
     485.7,
     495.781,
     501.612,
     504.9,
     509.246,
     514.44,
     517.873,
     519.642,
     522.631,
     590.107,
     605.76,
     679.334,
     729.53,
     748.861,
     772.376,
     781.123,
     793.528,
     799.237,
     804.733,
     815.394,
     818.232,
     827.901,
     837.676,
     917.429,
     932.74,
     998.997,
     1073.797,
     1253.682,
     1257.633,
     1263.271,
     1268.869,
     1272.82,
     1283.886,
     1293.609,
     1306.564,
     1319.33,
     1326.526,
     1343.447,
     1350.01,
     1363.839,
     1384.294,
     1393.552,
     1397.412,
     1399.883,
     1405.419,
     1409.038,
     1410.443,
     1417.438,
     1423.222,
     1447.064,
     1524.285,
     1558.473,
     1564.535,
     1570.205,
     1604.952,
     1609.146,
     1613.65,
     1618.477,
     1620.931,
     1623.39,
     1625.742,
     1628.032,
     1630.224,
     1634.225,
     1638.016,
     1654.749,
     1661.973,
     1666.88,
     1670.032,
     1672.853,
     1674.789,
     1676.837,
     1683.886,
     1699.685,
     1725.339,
     1728.171,
     1731.53,
     1734.229,
     1737.904,
     1743.153,
     1764.201,
     1769.661,
     1786.568,
     1801.743,
     1808.568,
     1811.85,
     1818.17,
     1824.74,
     1834.617,
     1836.413,
     1837.16,
     1838.237,
     1842.406,
     1848.636,
     1861.001,
     1867.734,
     1871.047,
     1879.563,
     1881.506,
     1893.636,
     1896.899,
     1899.287,
     1902.513,
     1904.984,
     1908.46,
     1911.141,
     1912.535,
     1913.665,
     1917.143,
     1924.166,
     1926.967,
     1932.747,
     1935.904,
     1941.453,
     1957.38,
     1959.842,
     1972.026,
     1977.746,
     1983.829,
     1997.169,
     2002.768,
     2019.234,
     2027.527,
     2033.437,
     2036.056,
     2040.751,
     2049.136,
     2056.675,
     2059.715,
     2073.948,
     2076.836,
     2083.436,
     2090.255,
     2091.97,
     2098.531,
     2117.25,
     2119.033,
     2129.368,
     2145.768,
     2153.702,
     2157.328,
     2179.808,
     2202.448,
     2214.506,
     2215.528,
     2231.928,
     2234.379,
     2237.259,
     2239.382,
     2241.728,
     2243.433,
     2244.834,
     2271.192,
     2272.128,
     2324.194,
     2419.842,
     2425.94,
     2450.064,
     2471.95,
     2483.948,
     2501.458,
     2527.313,
     2545.09,
     2592.759,
     2622.197,
     2628.542,
     2649.153,
     2672.228,
     2682.825,
     2688.962,
     2703.602,
     2738.169,
     2756.39,
     2774.251,
     2793.023,
     2901.525,
     2922.816,
     3016.872,
     3057.927,
     3144.937,
     3168.031,
     3180.736,
     3198.287,
     3211.608,
     3216.549,
     3221.739,
     3225.795,
     3234.752,
     3256.99,
     3270.469,
     3285.515,
     3293.527,
     3298.059,
     3303.075,
     3309.868,
     3314.528,
     3324.613,
     3331.355,
     3346.1,
     3362.853,
     3369.709,
     3383.119,
     3413.108,
     3431.588,
     3508.037,
     3526.71,
     3617.757,
     3626.252,
     3633.71,
     3639.183,
     3649.284,
     3661.547,
     3667.521,
     3675.088,
     3679.02,
     3681.748,
     3683.006,
     3686.926,
     3687.583,
     3690.543,
     3693.103,
     3695.583,
     3696.469,
     3697.487,
     3698.595,
     3699.859,
     3700.838,
     3701.495,
     3701.687,
     3702.022,
     3703.366,
     3705.396,
     3707.981,
     3710.171,
     3712.339,
     3714.188,
     3722.111,
     3727.529,
     3738.614,
     3741.039,
     3764.061,
     3769.68,
     3781.312,
     3800.13,
     3833.009,
     3859.023,
     3894.364,
     3904.635,
     3909.729,
     3920.883,
     3928.334,
     3958.545,
     3964.231,
     3984.535,
     3988.596,
     3992.408,
     3994.436,
     3995.556,
     3998.276,
     4001.076,
     4002.916,
     4006.044,
     4007.543,
     4009.93,
     4011.416,
     4012.773,
     4015.125,
     4020.072,
     4023.073,
     4027.552,
     4030.272,
     4032.357,
     4035.383,
     4038.672,
     4044.134,
     4051.498,
     4057.11,
     4059.356,
     4064.65,
     4072.683,
     4076.882,
     4099.372,
     4130.866,
     4170.738,
     4180.181,
     4198.682,
     4219.933,
     4239.9,
     4325.114,
     4392.648,
     4399.165,
     4402.03,
     4404.837,
     4406.711,
     4409.794,
     4411.377,
     4413.217,
     4419.377,
     4426.337,
     4429.217,
     4432.497,
     4436.977,
     4438.257,
     4440.897,
     4446.097,
     4452.977,
     4456.577,
     4460.577,
     4464.257,
     4470.84,
     4473.628,
     4475.141,
     4477.701,
     4483.781,
     4492.329,
     4495.377,
     4509.953,
     4545.47,
     4551.174,
     4557.105,
     4604.328,
     4618.968,
     4623.128,
     4632.568,
     4634.968,
     4641.425,
     4645.067,
     4647.771,
     4648.416,
     4649.592,
     4658.123,
     4659.876,
     4665.061,
     4670.471
    ]
   },
   "geometry": {
    "type": "LineString",
    "coordinates": [
     [
      15.968121,
      49.643916,
      658.0
     ],
     [
      15.967435,
      49.644152,
      659.75
     ],
     [
      15.966793,
      49.644313,
      660.5
     ],
     [
      15.966364,
      49.643848,
      655.5
     ],
     [
      15.965254,
      49.642601,
      658.25
     ],
     [
      15.964978,
      49.64229,
      661.25
     ],
     [
      15.965125,
      49.64213,
      662.75
     ],
     [
      15.965235,
      49.642068,
      663.5
     ],
     [
      15.965323,
      49.642097,
      663.25
     ],
     [
      15.969681,
      49.642305,
      668.25
     ],
     [
      15.970633,
      49.642262,
      671.75
     ],
     [
      15.971912,
      49.641938,
      677.75
     ],
     [
      15.972927,
      49.641563,
      683.25
     ],
     [
      15.973698,
      49.641291,
      686.75
     ],
     [
      15.974199,
      49.641226,
      688.0
     ],
     [
      15.97498,
      49.641247,
      689.0
     ],
     [
      15.979124,
      49.641535,
      693.75
     ],
     [
      15.980501,
      49.641851,
      695.0
     ],
     [
      15.981073,
      49.641898,
      696.0
     ],
     [
      15.981445,
      49.641916,
      696.0
     ],
     [
      15.981665,
      49.641926,
      696.0
     ],
     [
      15.981919,
      49.641937,
      696.75
     ],
     [
      15.982239,
      49.641971,
      696.75
     ],
     [
      15.982429,
      49.642029,
      697.0
     ],
     [
      15.982523,
      49.64207,
      697.0
     ],
     [
      15.982654,
      49.642149,
      697.25
     ],
     [
      15.983713,
      49.643098,
      704.75
     ],
     [
      15.983989,
      49.643342,
      707.25
     ],
     [
      15.985111,
      49.64422,
      713.5
     ],
     [
      15.985965,
      49.64484,
      718.5
     ],
     [
      15.986363,
      49.645084,
      720.75
     ],
     [
      15.987065,
      49.645476,
      721.0
     ],
     [
      15.987563,
      49.645664,
      720.0
     ],
     [
      15.988082,
      49.645814,
      722.0
     ],
     [
      15.988382,
      49.645863,
      722.0
     ],
     [
      15.988606,
      49.645872,
      723.5
     ],
     [
      15.98896,
      49.645835,
      725.0
     ],
     [
      15.989049,
      49.64582,
      725.5
     ],
     [
      15.989297,
      49.645748,
      727.0
     ],
     [
      15.989529,
      49.645664,
      728.25
     ],
     [
      15.990748,
      49.645119,
      736.0
     ],
     [
      15.991128,
      49.645037,
      737.5
     ],
     [
      15.992346,
      49.644844,
      744.25
     ],
     [
      15.993616,
      49.644464,
      751.5
     ],
     [
      15.996094,
      49.643586,
      768.25
     ],
     [
      15.996225,
      49.643546,
      769.0
     ],
     [
      15.996404,
      49.6435,
      769.5
     ],
     [
      15.996558,
      49.643469,
      770.75
     ],
     [
      15.99666,
      49.643454,
      771.5
     ],
     [
      15.996917,
      49.643438,
      773.25
     ],
     [
      15.997118,
      49.643443,
      775.0
     ],
     [
      15.997386,
      49.643462,
      776.5
     ],
     [
      15.997654,
      49.64349,
      777.25
     ],
     [
      15.997822,
      49.643498,
      777.75
     ],
     [
      15.998195,
      49.643481,
      779.25
     ],
     [
      15.998349,
      49.643458,
      780.0
     ],
     [
      15.998657,
      49.643382,
      780.75
     ],
     [
      15.999081,
      49.64323,
      782.5
     ],
     [
      15.999285,
      49.643449,
      780.75
     ],
     [
      15.999344,
      49.643642,
      778.75
     ],
     [
      15.999384,
      49.643698,
      778.5
     ],
     [
      15.999447,
      49.643864,
      778.0
     ],
     [
      15.999384,
      49.643698,
      778.5
     ],
     [
      15.999344,
      49.643642,
      778.75
     ],
     [
      15.999285,
      49.643449,
      780.75
     ],
     [
      15.999081,
      49.64323,
      782.5
     ],
     [
      16.000121,
      49.642829,
      784.5
     ],
     [
      16.00379,
      49.641398,
      788.0
     ],
     [
      16.003797,
      49.643017,
      785.75
     ],
     [
      16.003845,
      49.643424,
      784.5
     ],
     [
      16.00389,
      49.643812,
      784.0
     ],
     [
      16.004614,
      49.646013,
      779.75
     ],
     [
      16.004675,
      49.646271,
      779.25
     ],
     [
      16.00465,
      49.646536,
      779.25
     ],
     [
      16.004449,
      49.646852,
      778.25
     ],
     [
      16.004319,
      49.647013,
      777.75
     ],
     [
      16.004142,
      49.647147,
      777.5
     ],
     [
      16.003946,
      49.647279,
      777.0
     ],
     [
      16.003705,
      49.647386,
      776.25
     ],
     [
      16.003443,
      49.647485,
      775.25
     ],
     [
      16.002947,
      49.647638,
      774.5
     ],
     [
      16.002475,
      49.647767,
      773.75
     ],
     [
      16.00047,
      49.648331,
      771.5
     ],
     [
      15.999812,
      49.648507,
      771.5
     ],
     [
      15.999423,
      49.648628,
      771.75
     ],
     [
      15.999044,
      49.648768,
      772.25
     ],
     [
      15.998794,
      49.648873,
      773.0
     ],
     [
      15.998618,
      49.648967,
      772.5
     ],
     [
      15.998453,
      49.64907,
      772.25
     ],
     [
      15.997936,
      49.649468,
      771.75
     ],
     [
      15.997054,
      49.650232,
      769.0
     ],
     [
      15.99566,
      49.651497,
      768.25
     ],
     [
      15.995775,
      49.651731,
      769.0
     ],
     [
      15.995989,
      49.651889,
      770.25
     ],
     [
      15.99614,
      49.651976,
      771.0
     ],
     [
      15.996324,
      49.652068,
      771.75
     ],
     [
      15.996581,
      49.652165,
      772.5
     ],
     [
      15.997812,
      49.652583,
      775.5
     ],
     [
      15.998109,
      49.652684,
      776.25
     ],
     [
      15.998525,
      49.653089,
      778.25
     ],
     [
      15.998761,
      49.653367,
      781.0
     ],
     [
      15.998876,
      49.653522,
      781.0
     ],
     [
      15.998881,
      49.653615,
      781.0
     ],
     [
      15.998855,
      49.6538,
      781.0
     ],
     [
      15.9988,
      49.654032,
      780.75
     ],
     [
      15.998647,
      49.654417,
      777.75
     ],
     [
      15.998835,
      49.654424,
      775.75
     ],
     [
      15.998908,
      49.654403,
      775.5
     ],
     [
      15.998835,
      49.654424,
      775.75
     ],
     [
      15.998647,
      49.654417,
      777.75
     ],
     [
      15.998592,
      49.654652,
      777.25
     ],
     [
      15.998223,
      49.655182,
      776.75
     ],
     [
      15.997887,
      49.655352,
      777.5
     ],
     [
      15.997718,
      49.655512,
      776.25
     ],
     [
      15.99716,
      49.655911,
      775.75
     ],
     [
      15.997053,
      49.656009,
      775.75
     ],
     [
      15.996846,
      49.656694,
      772.75
     ],
     [
      15.996767,
      49.656902,
      772.0
     ],
     [
      15.996695,
      49.65704,
      772.25
     ],
     [
      15.996704,
      49.657278,
      771.25
     ],
     [
      15.996577,
      49.657398,
      772.0
     ],
     [
      15.996577,
      49.657677,
      770.25
     ],
     [
      15.996485,
      49.657885,
      769.75
     ],
     [
      15.99636,
      49.657869,
      772.0
     ],
     [
      15.996485,
      49.657885,
      769.75
     ],
     [
      15.996577,
      49.657677,
      770.25
     ],
     [
      15.996577,
      49.657398,
      772.0
     ],
     [
      15.996704,
      49.657278,
      771.25
     ],
     [
      15.996695,
      49.65704,
      772.25
     ],
     [
      15.996767,
      49.656902,
      772.0
     ],
     [
      15.996846,
      49.656694,
      772.75
     ],
     [
      15.997053,
      49.656009,
      775.75
     ],
     [
      15.99716,
      49.655911,
      775.75
     ],
     [
      15.997718,
      49.655512,
      776.25
     ],
     [
      15.997887,
      49.655352,
      777.5
     ],
     [
      15.998223,
      49.655182,
      776.75
     ],
     [
      15.998592,
      49.654652,
      777.25
     ],
     [
      15.998647,
      49.654417,
      777.75
     ],
     [
      15.9988,
      49.654032,
      780.75
     ],
     [
      15.998855,
      49.6538,
      781.0
     ],
     [
      15.998881,
      49.653615,
      781.0
     ],
     [
      15.998876,
      49.653522,
      781.0
     ],
     [
      15.998761,
      49.653367,
      781.0
     ],
     [
      15.998525,
      49.653089,
      778.25
     ],
     [
      15.998109,
      49.652684,
      776.25
     ],
     [
      15.997812,
      49.652583,
      775.5
     ],
     [
      15.996581,
      49.652165,
      772.5
     ],
     [
      15.996295,
      49.652136,
      772.0
     ],
     [
      15.995552,
      49.652091,
      771.0
     ],
     [
      15.994499,
      49.652033,
      767.5
     ],
     [
      15.994228,
      49.652024,
      765.75
     ],
     [
      15.993199,
      49.652332,
      762.25
     ],
     [
      15.990429,
      49.653431,
      750.25
     ],
     [
      15.990256,
      49.65352,
      749.75
     ],
     [
      15.988984,
      49.654131,
      746.25
     ],
     [
      15.986761,
      49.655284,
      738.25
     ],
     [
      15.985706,
      49.655796,
      733.75
     ],
     [
      15.985199,
      49.656009,
      731.25
     ],
     [
      15.981914,
      49.657363,
      714.75
     ],
     [
      15.978611,
      49.658725,
      699.75
     ],
     [
      15.976923,
      49.659419,
      693.75
     ],
     [
      15.976809,
      49.659468,
      693.0
     ],
     [
      15.974427,
      49.660476,
      685.5
     ],
     [
      15.974162,
      49.660575,
      684.75
     ],
     [
      15.973759,
      49.660525,
      683.25
     ],
     [
      15.973502,
      49.660402,
      682.25
     ],
     [
      15.973243,
      49.66023,
      681.0
     ],
     [
      15.973199,
      49.66006,
      680.5
     ],
     [
      15.973106,
      49.659925,
      679.75
     ],
     [
      15.971265,
      49.657852,
      675.75
     ],
     [
      15.971192,
      49.657773,
      676.25
     ],
     [
      15.970006,
      49.65644,
      686.5
     ],
     [
      15.968234,
      49.654384,
      694.0
     ],
     [
      15.968093,
      49.654165,
      694.75
     ],
     [
      15.969278,
      49.653791,
      693.0
     ],
     [
      15.968093,
      49.654165,
      694.75
     ],
     [
      15.967886,
      49.653844,
      696.75
     ],
     [
      15.967715,
      49.65336,
      701.0
     ],
     [
      15.967664,
      49.652846,
      704.5
     ],
     [
      15.967052,
      49.652871,
      705.75
     ],
     [
      15.964019,
      49.653121,
      702.25
     ],
     [
      15.962186,
      49.65328,
      703.75
     ],
     [
      15.961769,
      49.653274,
      704.25
     ],
     [
      15.960358,
      49.653441,
      707.5
     ],
     [
      15.95934,
      49.653617,
      710.25
     ],
     [
      15.958939,
      49.653744,
      711.75
     ],
     [
      15.95871,
      49.653817,
      712.5
     ],
     [
      15.958331,
      49.654005,
      714.5
     ],
     [
      15.957513,
      49.654499,
      716.75
     ],
     [
      15.95701,
      49.654749,
      718.5
     ],
     [
      15.95646,
      49.655023,
      719.5
     ],
     [
      15.955938,
      49.655239,
      721.75
     ],
     [
      15.953372,
      49.655816,
      730.75
     ],
     [
      15.952612,
      49.656062,
      732.75
     ],
     [
      15.949832,
      49.657338,
      739.25
     ],
     [
      15.948765,
      49.657663,
      745.0
     ],
     [
      15.946873,
      49.658257,
      752.75
     ],
     [
      15.945934,
      49.658391,
      754.0
     ],
     [
      15.945096,
      49.658465,
      753.25
     ],
     [
      15.945135,
      49.659082,
      754.75
     ],
     [
      15.945041,
      49.659506,
      756.0
     ],
     [
      15.944897,
      49.659707,
      755.25
     ],
     [
      15.944772,
      49.659952,
      755.0
     ],
     [
      15.944772,
      49.660156,
      755.0
     ],
     [
      15.944911,
      49.660452,
      756.75
     ],
     [
      15.944754,
      49.660946,
      759.75
     ],
     [
      15.944777,
      49.661236,
      761.5
     ],
     [
      15.944628,
      49.661635,
      761.5
     ],
     [
      15.944611,
      49.661859,
      762.25
     ],
     [
      15.944635,
      49.66198,
      762.75
     ],
     [
      15.944569,
      49.662108,
      763.25
     ],
     [
      15.944387,
      49.662285,
      763.0
     ],
     [
      15.944204,
      49.662379,
      763.25
     ],
     [
      15.94386,
      49.662655,
      763.5
     ],
     [
      15.943753,
      49.662852,
      764.5
     ],
     [
      15.943828,
      49.663167,
      767.0
     ],
     [
      15.944125,
      49.663403,
      769.25
     ],
     [
      15.944158,
      49.66353,
      770.25
     ],
     [
      15.944142,
      49.663753,
      771.75
     ],
     [
      15.944305,
      49.664152,
      775.25
     ],
     [
      15.944207,
      49.664448,
      776.25
     ],
     [
      15.94351,
      49.666127,
      779.5
     ],
     [
      15.94333,
      49.666588,
      782.0
     ],
     [
      15.94262,
      49.668241,
      789.5
     ],
     [
      15.942342,
      49.668468,
      790.0
     ],
     [
      15.94187,
      49.668562,
      789.5
     ],
     [
      15.941649,
      49.668563,
      788.75
     ],
     [
      15.941218,
      49.668693,
      788.75
     ],
     [
      15.940614,
      49.669291,
      786.5
     ],
     [
      15.940108,
      49.669634,
      784.5
     ],
     [
      15.939652,
      49.670081,
      781.25
     ],
     [
      15.939381,
      49.670384,
      779.25
     ],
     [
      15.939544,
      49.6706,
      778.5
     ],
     [
      15.939643,
      49.670699,
      777.75
     ],
     [
      15.939727,
      49.67114,
      774.5
     ],
     [
      15.939664,
      49.671198,
      774.0
     ],
     [
      15.939312,
      49.671434,
      771.5
     ],
     [
      15.938944,
      49.671597,
      769.75
     ],
     [
      15.938687,
      49.671815,
      768.0
     ],
     [
      15.938597,
      49.671734,
      768.25
     ],
     [
      15.938451,
      49.671681,
      768.25
     ],
     [
      15.938346,
      49.671596,
      768.5
     ],
     [
      15.938187,
      49.671542,
      768.5
     ],
     [
      15.938046,
      49.671542,
      768.25
     ],
     [
      15.937954,
      49.671569,
      767.75
     ],
     [
      15.937938,
      49.671587,
      767.75
     ],
     [
      15.937954,
      49.671569,
      767.75
     ],
     [
      15.938046,
      49.671542,
      768.25
     ],
     [
      15.938187,
      49.671542,
      768.5
     ],
     [
      15.938346,
      49.671596,
      768.5
     ],
     [
      15.938451,
      49.671681,
      768.25
     ],
     [
      15.938597,
      49.671734,
      768.25
     ],
     [
      15.938687,
      49.671815,
      768.0
     ],
     [
      15.938944,
      49.671597,
      769.75
     ],
     [
      15.939312,
      49.671434,
      771.5
     ],
     [
      15.939664,
      49.671198,
      774.0
     ],
     [
      15.939727,
      49.67114,
      774.5
     ],
     [
      15.939643,
      49.670699,
      777.75
     ],
     [
      15.939544,
      49.6706,
      778.5
     ],
     [
      15.939381,
      49.670384,
      779.25
     ],
     [
      15.939652,
      49.670081,
      781.25
     ],
     [
      15.940108,
      49.669634,
      784.5
     ],
     [
      15.940614,
      49.669291,
      786.5
     ],
     [
      15.941218,
      49.668693,
      788.75
     ],
     [
      15.941649,
      49.668563,
      788.75
     ],
     [
      15.94187,
      49.668562,
      789.5
     ],
     [
      15.942342,
      49.668468,
      790.0
     ],
     [
      15.94262,
      49.668241,
      789.5
     ],
     [
      15.94333,
      49.666588,
      782.0
     ],
     [
      15.94351,
      49.666127,
      779.5
     ],
     [
      15.944207,
      49.664448,
      776.25
     ],
     [
      15.944305,
      49.664152,
      775.25
     ],
     [
      15.944142,
      49.663753,
      771.75
     ],
     [
      15.944158,
      49.66353,
      770.25
     ],
     [
      15.944125,
      49.663403,
      769.25
     ],
     [
      15.943828,
      49.663167,
      767.0
     ],
     [
      15.943753,
      49.662852,
      764.5
     ],
     [
      15.94386,
      49.662655,
      763.5
     ],
     [
      15.944204,
      49.662379,
      763.25
     ],
     [
      15.944387,
      49.662285,
      763.0
     ],
     [
      15.944569,
      49.662108,
      763.25
     ],
     [
      15.944635,
      49.66198,
      762.75
     ],
     [
      15.944611,
      49.661859,
      762.25
     ],
     [
      15.944628,
      49.661635,
      761.5
     ],
     [
      15.944777,
      49.661236,
      761.5
     ],
     [
      15.944754,
      49.660946,
      759.75
     ],
     [
      15.944911,
      49.660452,
      756.75
     ],
     [
      15.944772,
      49.660156,
      755.0
     ],
     [
      15.944772,
      49.659952,
      755.0
     ],
     [
      15.944897,
      49.659707,
      755.25
     ],
     [
      15.945041,
      49.659506,
      756.0
     ],
     [
      15.945135,
      49.659082,
      754.75
     ],
     [
      15.945096,
      49.658465,
      753.25
     ],
     [
      15.944465,
      49.658429,
      753.0
     ],
     [
      15.944342,
      49.658303,
      753.0
     ],
     [
      15.944037,
      49.658023,
      753.0
     ],
     [
      15.943572,
      49.657425,
      753.75
     ],
     [
      15.943432,
      49.657119,
      753.25
     ],
     [
      15.944441,
      49.656666,
      756.75
     ],
     [
      15.94648,
      49.65587,
      759.5
     ],
     [
      15.948332,
      49.655099,
      759.25
     ],
     [
      15.948026,
      49.654761,
      762.75
     ],
     [
      15.947997,
      49.654275,
      765.5
     ],
     [
      15.948172,
      49.65387,
      768.5
     ],
     [
      15.948189,
      49.653553,
      771.75
     ],
     [
      15.948701,
      49.652646,
      780.25
     ],
     [
      15.949285,
      49.651974,
      787.5
     ],
     [
      15.949438,
      49.65197,
      788.5
     ],
     [
      15.949657,
      49.651928,
      789.0
     ],
     [
      15.949886,
      49.651978,
      788.5
     ],
     [
      15.949998,
      49.652089,
      787.25
     ],
     [
      15.950299,
      49.652253,
      783.25
     ],
     [
      15.950546,
      49.652287,
      781.25
     ],
     [
      15.950806,
      49.652409,
      778.0
     ],
     [
      15.951593,
      49.652877,
      767.5
     ],
     [
      15.952553,
      49.653349,
      752.25
     ],
     [
      15.952833,
      49.65362,
      747.5
     ],
     [
      15.953329,
      49.653796,
      742.5
     ],
     [
      15.954067,
      49.653942,
      738.0
     ],
     [
      15.954253,
      49.654022,
      736.75
     ],
     [
      15.954447,
      49.654294,
      734.5
     ],
     [
      15.955068,
      49.654711,
      729.25
     ],
     [
      15.955938,
      49.655239,
      721.75
     ],
     [
      15.95646,
      49.655023,
      719.5
     ],
     [
      15.95701,
      49.654749,
      718.5
     ],
     [
      15.957513,
      49.654499,
      716.75
     ],
     [
      15.958331,
      49.654005,
      714.5
     ],
     [
      15.95871,
      49.653817,
      712.5
     ],
     [
      15.958939,
      49.653744,
      711.75
     ],
     [
      15.95934,
      49.653617,
      710.25
     ],
     [
      15.960358,
      49.653441,
      707.5
     ],
     [
      15.961769,
      49.653274,
      704.25
     ],
     [
      15.962186,
      49.65328,
      703.75
     ],
     [
      15.964019,
      49.653121,
      702.25
     ],
     [
      15.967052,
      49.652871,
      705.75
     ],
     [
      15.967664,
      49.652846,
      704.5
     ],
     [
      15.967713,
      49.652504,
      705.0
     ],
     [
      15.968814,
      49.649557,
      699.75
     ],
     [
      15.969163,
      49.647923,
      686.0
     ],
     [
      15.969031,
      49.647465,
      681.5
     ],
     [
      15.96859,
      49.646446,
      673.25
     ],
     [
      15.968458,
      49.646193,
      671.25
     ],
     [
      15.96788,
      49.645609,
      670.25
     ],
     [
      15.967593,
      49.645302,
      669.0
     ],
     [
      15.967409,
      49.645041,
      667.25
     ],
     [
      15.967326,
      49.645077,
      667.25
     ],
     [
      15.967409,
      49.645041,
      667.25
     ],
     [
      15.966914,
      49.644443,
      661.75
     ],
     [
      15.966793,
      49.644313,
      660.5
     ],
     [
      15.967435,
      49.644152,
      659.75
     ],
     [
      15.968121,
      49.643916,
      658.0
     ]
    ]
   }
  }
 ]
}