{
 "type": "FeatureCollection",
 "features": [
  {
   "type": "Feature",
   "properties": {
    "creator": "BRouter-1.7.10",
    "name": "brouter_trekking_0",
    "track-length": "8944",
    "filtered ascend": "21",
    "plain-ascend": "-55",
    "total-time": "1372",
    "total-energy": "137225",
    "cost": "9075",
    "messages": [
     [
      "Longitude",
      "Latitude",
      "Elevation",
      "Distance",
      "CostPerKm",
      "ElevCost",
      "TurnCost",
      "NodeCost",
      "InitialCost",
      "WayTags",
      "NodeTags",
      "Time",
      "Energy"
     ],
     [
      "15815988",
      "49551514",
      "480",
      "2811",
      "1000",
      "0",
      "0",
      "0",
      "0",
      "reversedirection=yes highway=cycleway surface=asphalt foot=designated bicycle=designated smoothness=excellent route_bicycle_ncn=yes route_bicycle_lcn=yes",
      "",
      "391",
      "39123"
     ],
     [
      "15815374",
      "49551902",
      "477",
      "62",
      "1000",
      "0",
      "0",
      "0",
      "0",
      "reversedirection=yes highway=cycleway surface=wood foot=designated bicycle=designated smoothness=excellent route_bicycle_ncn=yes route_bicycle_lcn=yes",
      "",
      "399",
      "39910"
     ],
     [
      "15804508",
      "49557432",
      "474",
      "1071",
      "1000",
      "0",
      "0",
      "0",
      "0",
      "reversedirection=yes highway=cycleway surface=asphalt foot=designated bicycle=designated smoothness=excellent route_bicycle_ncn=yes route_bicycle_lcn=yes",
      "",
      "570",
      "57086"
     ],
     [
      "15804248",
      "49557552",
      "476",
      "23",
      "1000",
      "0",
      "0",
      "0",
      "0",
      "reversedirection=yes highway=cycleway surface=unknown foot=designated bicycle=designated smoothness=excellent route_bicycle_ncn=yes route_bicycle_lcn=yes",
      "",
      "573",
      "57395"
     ],
     [
      "15784545",
      "49563946",
      "463",
      "1920",
      "1000",
      "130",
      "0",
      "0",
      "0",
      "reversedirection=yes highway=cycleway surface=asphalt foot=designated bicycle=designated smoothness=excellent route_bicycle_ncn=yes route_bicycle_lcn=yes",
      "",
      "883",
      "88382"
     ],
     [
      "15784161",
      "49563932",
      "464",
      "28",
      "1000",
      "0",
      "0",
      "0",
      "0",
      "reversedirection=yes highway=cycleway surface=unknown foot=designated bicycle=designated smoothness=excellent route_bicycle_ncn=yes route_bicycle_lcn=yes",
      "",
      "886",
      "88675"
     ],
     [
      "15781383",
      "49563107",
      "462",
      "224",
      "1000",
      "0",
      "0",
      "0",
      "0",
      "reversedirection=yes highway=cycleway surface=asphalt foot=designated bicycle=designated smoothness=excellent route_bicycle_ncn=yes route_bicycle_lcn=yes",
      "",
      "929",
      "92947"
     ],
     [
      "15780994",
      "49563061",
      "464",
      "29",
      "1000",
      "0",
      "0",
      "0",
      "0",
      "reversedirection=yes highway=cycleway surface=unknown foot=designated bicycle=designated smoothness=excellent route_bicycle_ncn=yes route_bicycle_lcn=yes",
      "",
      "932",
      "93254"
     ],
     [
      "15769840",
      "49568068",
      "462",
      "1036",
      "1000",
      "0",
      "0",
      "0",
      "0",
      "reversedirection=yes highway=cycleway surface=asphalt foot=designated bicycle=designated smoothness=excellent route_bicycle_ncn=yes route_bicycle_lcn=yes",
      "",
      "1106",
      "110673"
     ],
     [
      "15769756",
      "49568174",
      "462",
      "13",
      "1000",
      "0",
      "0",
      "0",
      "0",
      "reversedirection=yes highway=cycleway surface=unknown foot=designated bicycle=designated smoothness=excellent route_bicycle_ncn=yes route_bicycle_lcn=yes",
      "",
      "1108",
      "110862"
     ],
     [
      "15769126",
      "49568953",
      "456",
      "98",
      "1000",
      "0",
      "0",
      "0",
      "0",
      "reversedirection=yes highway=cycleway surface=asphalt foot=designated bicycle=designated smoothness=excellent route_bicycle_ncn=yes route_bicycle_lcn=yes",
      "",
      "1120",
      "112114"
     ],
     [
      "15768920",
      "49569112",
      "457",
      "23",
      "1000",
      "0",
      "0",
      "0",
      "0",
      "reversedirection=yes highway=cycleway surface=unknown foot=designated bicycle=designated smoothness=excellent route_bicycle_ncn=yes route_bicycle_lcn=yes",
      "",
      "1124",
      "112453"
     ],
     [
      "15754149",
      "49568741",
      "453",
      "1137",
      "1000",
      "0",
      "0",
      "0",
      "0",
      "reversedirection=yes highway=cycleway surface=asphalt foot=designated bicycle=designated smoothness=excellent route_bicycle_ncn=yes route_bicycle_lcn=yes",
      "",
      "1300",
      "130035"
     ],
     [
      "15753851",
      "49568819",
      "452",
      "23",
      "1000",
      "0",
      "0",
      "0",
      "0",
      "reversedirection=yes highway=cycleway foot=designated bicycle=designated smoothness=excellent route_bicycle_ncn=yes route_bicycle_lcn=yes",
      "",
      "1303",
      "130366"
     ],
     [
      "15747889",
      "49569449",
      "454",
      "446",
      "1000",
      "0",
      "0",
      "0",
      "0",
      "reversedirection=yes highway=cycleway surface=asphalt foot=designated bicycle=designated smoothness=excellent route_bicycle_ncn=yes route_bicycle_lcn=yes",
      "",
      "1372",
      "137225"
     ]
    ],
    "times": [
     0,
     1.628,
     5.263,
     6.11,
     9.784,
     12.762,
     17.143,
     23.375,
     31.421,
     37.61,
     42.116,
     46.998,
     50.904,
     53.22,
     58.433,
     68.631,
     69.539,
     72.931,
     75.228,
     77.93,
     80.871,
     82.804,
     85.731,
     90.654,
     95.232,
     99.247,
     103.095,
     109.409,
     118.112,
     122.442,
     125.784,
     131.044,
     134.64,
     141.963,
     144.597,
     146.432,
     147.869,
     150.498,
     153.907,
     164.532,
     169.236,
     173.968,
     176.989,
     179.841,
     181.585,
     183.421,
     186.683,
     189.227,
     190.744,
     193.288,
     197.46,
     202.755,
     209.242,
     211.601,
     241.599,
     244.889,
     250.364,
     253.814,
     256.963,
     260.442,
     264.558,
     272.53,
     275.561,
     277.162,
     279.621,
     284.948,
     288.551,
     312.02,
     328.22,
     331.768,
     337.669,
     340.849,
     343.371,
     346.161,
     349.526,
     352.291,
     354.894,
     363.371,
     369.06,
     372.606,
     375.987,
     380.347,
     384.271,
     387.168,
     391.161,
     394.586,
     399.036,
     408.764,
     410.541,
     418.845,
     423.187,
     431.495,
     437.256,
     442.206,
     452.741,
     458.371,
     462.197,
     470.547,
     474.485,
     478.148,
     490.791,
     496.663,
     501.51,
     506.601,
     512.939,
     518.523,
     521.731,
     524.589,
     530.847,
     536.437,
     557.012,
     560.834,
     563.543,
     565.827,
     567.351,
     568.887,
     570.768,
     573.855,
     577.867,
     581.804,
     587.215,
     594.783,
     601.635,
     605.982,
     608.716,
     615.212,
     621.61,
     627.846,
     633.889,
     640.498,
     644.896,
     650.927,
     653.548,
     656.706,
     659.486,
     661.51,
     663.423,
     665.073,
     666.786,
     668.719,
     670.912,
     673.51,
     680.406,
     684.064,
     687.378,
     690.644,
     692.829,
     696.69,
     700.013,
     705.137,
     720.36,
     725.513,
     729.642,
     733.393,
     735.894,
     740.191,
     744.7,
     748.35,
     752.343,
     756.417,
     765.507,
     787.01,
     800.194,
     806.39,
     812.928,
     817.91,
     821.197,
     824.491,
     827.284,
     830.262,
     833.302,
     836.253,
     840.024,
     861.534,
     864.918,
     868.436,
     871.486,
     874.433,
     876.512,
     878.97,
     881.023,
     883.677,
     886.606,
     889.083,
     891.776,
     893.678,
     896.167,
     902.301,
     920.532,
     926.423,
     929.315,
     932.38,
     938.283,
     945.323,
     954.113,
     959.45,
     965.822,
     969.979,
     972.444,
     974.319,
     976.495,
     979.219,
     985.918,
     989.572,
     991.869,
     994.31,
     1007.524,
     1023.599,
     1028.495,
     1033.506,
     1039.452,
     1044.281,
     1051.765,
     1056.242,
     1062.793,
     1068.79,
     1073.917,
     1078.597,
     1082.579,
     1085.349,
     1088.502,
     1089.928,
     1094.564,
     1106.009,
     1106.535,
     1108.427,
     1118.035,
     1120.944,
     1124.332,
     1127.452,
     1130.949,
     1135.276,
     1139.826,
     1144.742,
     1147.534,
     1161.664,
     1166.647,
     1201.513,
     1214.977,
     1220.955,
     1225.298,
     1229.686,
     1233.097,
     1241.305,
     1250.9,
     1270.429,
     1276.41,
     1278.902,
     1280.063,
     1282.316,
     1284.919,
     1287.368,
     1290.783,
     1293.422,
     1300.131,
     1303.436,
     1308.454,
     1318.187,
     1329.249,
     1334.723,
     1342.336,
     1347.889,
     1353.42,
     1357.994,
     1359.408,
     1360.124,
     1362.155,
     1368.459,
     1372.02
    ]
   },
   "geometry": {
    "type": "LineString",
    "coordinates": [
     [
      15.848594,
      49.552838,
      509.5
     ],
     [
      15.848426,
      49.55274,
      507.0
     ],
     [
      15.848017,
      49.552587,
      503.75
     ],
     [
      15.847906,
      49.55255,
      505.5
     ],
     [
      15.847657,
      49.552488,
      508.75
     ],
     [
      15.847408,
      49.552434,
      508.0
     ],
     [
      15.847058,
      49.552389,
      508.25
     ],
     [
      15.846723,
      49.552375,
      510.0
     ],
     [
      15.846349,
      49.552403,
      511.0
     ],
     [
      15.846012,
      49.55246,
      510.75
     ],
     [
      15.845736,
      49.552517,
      510.5
     ],
     [
      15.845468,
      49.552599,
      511.0
     ],
     [
      15.845196,
      49.552706,
      510.0
     ],
     [
      15.844984,
      49.552805,
      508.5
     ],
     [
      15.844618,
      49.553046,
      508.75
     ],
     [
      15.843893,
      49.553624,
      504.5
     ],
     [
      15.843835,
      49.553669,
      504.25
     ],
     [
      15.843641,
      49.55384,
      504.5
     ],
     [
      15.843427,
      49.553972,
      503.0
     ],
     [
      15.843203,
      49.55409,
      503.5
     ],
     [
      15.842932,
      49.554209,
      503.0
     ],
     [
      15.842751,
      49.554276,
      503.0
     ],
     [
      15.842446,
      49.554358,
      505.5
     ],
     [
      15.841984,
      49.554431,
      506.0
     ],
     [
      15.841655,
      49.554447,
      507.0
     ],
     [
      15.841331,
      49.554433,
      506.75
     ],
     [
      15.840994,
      49.554403,
      506.25
     ],
     [
      15.840618,
      49.554356,
      510.75
     ],
     [
      15.840286,
      49.554269,
      509.75
     ],
     [
      15.839924,
      49.554103,
      503.5
     ],
     [
      15.83958,
      49.553892,
      501.25
     ],
     [
      15.839192,
      49.553598,
      501.75
     ],
     [
      15.838962,
      49.553453,
      502.5
     ],
     [
      15.838363,
      49.553174,
      501.75
     ],
     [
      15.838106,
      49.553076,
      500.75
     ],
     [
      15.837905,
      49.553025,
      500.25
     ],
     [
      15.837741,
      49.552991,
      500.25
     ],
     [
      15.837503,
      49.552951,
      501.0
     ],
     [
      15.8371,
      49.552914,
      499.75
     ],
     [
      15.835931,
      49.552833,
      502.25
     ],
     [
      15.835282,
      49.552778,
      497.0
     ],
     [
      15.834752,
      49.552715,
      497.25
     ],
     [
      15.834456,
      49.552646,
      497.25
     ],
     [
      15.834143,
      49.552544,
      496.25
     ],
     [
      15.833912,
      49.552449,
      494.0
     ],
     [
      15.833695,
      49.552339,
      493.75
     ],
     [
      15.833459,
      49.552189,
      495.5
     ],
     [
      15.833293,
      49.552056,
      495.25
     ],
     [
      15.833205,
      49.551976,
      495.25
     ],
     [
      15.833081,
      49.551836,
      495.25
     ],
     [
      15.832903,
      49.551563,
      494.5
     ],
     [
      15.832596,
      49.551038,
      490.75
     ],
     [
      15.832351,
      49.550722,
      493.25
     ],
     [
      15.832148,
      49.550559,
      493.75
     ],
     [
      15.830166,
      49.549372,
      492.0
     ],
     [
      15.829829,
      49.549176,
      492.25
     ],
     [
      15.82947,
      49.548989,
      491.25
     ],
     [
      15.829212,
      49.548882,
      491.0
     ],
     [
      15.828939,
      49.548814,
      490.75
     ],
     [
      15.828613,
      49.548765,
      490.5
     ],
     [
      15.828266,
      49.548724,
      490.75
     ],
     [
      15.827556,
      49.548689,
      490.5
     ],
     [
      15.827199,
      49.548687,
      489.0
     ],
     [
      15.82698,
      49.548699,
      487.75
     ],
     [
      15.826689,
      49.54874,
      488.0
     ],
     [
      15.826113,
      49.548889,
      490.75
     ],
     [
      15.825812,
      49.548998,
      491.25
     ],
     [
      15.823876,
      49.549965,
      489.75
     ],
     [
      15.822441,
      49.550697,
      487.75
     ],
     [
      15.822129,
      49.550829,
      487.25
     ],
     [
      15.821584,
      49.551013,
      487.0
     ],
     [
      15.821238,
      49.551097,
      486.0
     ],
     [
      15.820953,
      49.551146,
      485.75
     ],
     [
      15.82062,
      49.551189,
      485.0
     ],
     [
      15.820223,
      49.551207,
      481.75
     ],
     [
      15.81983,
      49.551203,
      480.25
     ],
     [
      15.819514,
      49.55119,
      483.5
     ],
     [
      15.818755,
      49.551112,
      484.5
     ],
     [
      15.81818,
      49.551078,
      483.75
     ],
     [
      15.817826,
      49.55108,
      483.5
     ],
     [
      15.817474,
      49.55109,
      483.25
     ],
     [
      15.817116,
      49.551137,
      484.0
     ],
     [
      15.81682,
      49.55119,
      484.25
     ],
     [
      15.816518,
      49.551273,
      482.5
     ],
     [
      15.815988,
      49.551514,
      480.25
     ],
     [
      15.815643,
      49.551719,
      478.75
     ],
     [
      15.815374,
      49.551902,
      477.75
     ],
     [
      15.814757,
      49.552296,
      477.75
     ],
     [
      15.814576,
      49.552408,
      478.25
     ],
     [
      15.814143,
      49.552659,
      484.25
     ],
     [
      15.813898,
      49.552792,
      484.25
     ],
     [
      15.81358,
      49.552942,
      486.25
     ],
     [
      15.813214,
      49.553096,
      484.75
     ],
     [
      15.812876,
      49.553223,
      484.75
     ],
     [
      15.812345,
      49.553395,
      483.25
     ],
     [
      15.811945,
      49.553503,
      482.5
     ],
     [
      15.811595,
      49.553589,
      481.5
     ],
     [
      15.810628,
      49.553791,
      479.75
     ],
     [
      15.810264,
      49.55384,
      480.25
     ],
     [
      15.809943,
      49.55387,
      480.5
     ],
     [
      15.808595,
      49.553942,
      479.0
     ],
     [
      15.808128,
      49.554001,
      479.75
     ],
     [
      15.80779,
      49.554058,
      480.25
     ],
     [
      15.80753,
      49.554139,
      481.25
     ],
     [
      15.807267,
      49.554246,
      482.25
     ],
     [
      15.806974,
      49.554388,
      481.5
     ],
     [
      15.806786,
      49.554503,
      480.75
     ],
     [
      15.806625,
      49.554629,
      480.5
     ],
     [
      15.806327,
      49.55494,
      480.25
     ],
     [
      15.806093,
      49.555317,
      479.0
     ],
     [
      15.805394,
      49.556575,
      478.5
     ],
     [
      15.805263,
      49.556789,
      478.25
     ],
     [
      15.805144,
      49.556943,
      478.0
     ],
     [
      15.804991,
      49.557098,
      476.75
     ],
     [
      15.804855,
      49.557204,
      475.75
     ],
     [
      15.804702,
      49.557311,
      475.0
     ],
     [
      15.804508,
      49.557432,
      474.75
     ],
     [
      15.804248,
      49.557552,
      476.0
     ],
     [
      15.80401,
      49.557639,
      477.5
     ],
     [
      15.803764,
      49.557705,
      477.75
     ],
     [
      15.803446,
      49.557778,
      478.25
     ],
     [
      15.803108,
      49.557832,
      479.75
     ],
     [
      15.80265,
      49.557849,
      478.75
     ],
     [
      15.802305,
      49.557824,
      478.25
     ],
     [
      15.802026,
      49.557784,
      477.0
     ],
     [
      15.801516,
      49.55769,
      478.0
     ],
     [
      15.801161,
      49.557649,
      479.5
     ],
     [
      15.800807,
      49.557643,
      479.75
     ],
     [
      15.800528,
      49.55765,
      481.0
     ],
     [
      15.800176,
      49.557707,
      480.75
     ],
     [
      15.799794,
      49.557781,
      479.0
     ],
     [
      15.799452,
      49.557886,
      483.5
     ],
     [
      15.799196,
      49.557993,
      478.0
     ],
     [
      15.799001,
      49.558105,
      479.25
     ],
     [
      15.798756,
      49.558269,
      477.25
     ],
     [
      15.798576,
      49.558411,
      473.25
     ],
     [
      15.79842,
      49.558571,
      472.0
     ],
     [
      15.798295,
      49.558725,
      471.0
     ],
     [
      15.798203,
      49.558902,
      469.75
     ],
     [
      15.79813,
      49.559108,
      468.75
     ],
     [
      15.798095,
      49.559315,
      469.25
     ],
     [
      15.79809,
      49.559523,
      469.75
     ],
     [
      15.798144,
      49.560172,
      467.5
     ],
     [
      15.798145,
      49.560475,
      467.0
     ],
     [
      15.798107,
      49.560682,
      468.0
     ],
     [
      15.798021,
      49.560926,
      469.75
     ],
     [
      15.797934,
      49.561097,
      469.0
     ],
     [
      15.797744,
      49.561311,
      470.0
     ],
     [
      15.797581,
      49.561455,
      470.5
     ],
     [
      15.797323,
      49.561652,
      470.75
     ],
     [
      15.796487,
      49.562171,
      471.0
     ],
     [
      15.796203,
      49.562307,
      471.5
     ],
     [
      15.795928,
      49.562403,
      471.25
     ],
     [
      15.795576,
      49.562503,
      470.0
     ],
     [
      15.795383,
      49.562544,
      470.75
     ],
     [
      15.795105,
      49.562579,
      471.75
     ],
     [
      15.7948,
      49.562595,
      471.75
     ],
     [
      15.794508,
      49.562593,
      471.25
     ],
     [
      15.794153,
      49.562562,
      470.75
     ],
     [
      15.793806,
      49.562499,
      470.75
     ],
     [
      15.793326,
      49.562369,
      472.5
     ],
     [
      15.792277,
      49.56207,
      473.75
     ],
     [
      15.790911,
      49.561661,
      470.5
     ],
     [
      15.790527,
      49.561588,
      472.25
     ],
     [
      15.790153,
      49.561561,
      473.0
     ],
     [
      15.789775,
      49.561546,
      472.25
     ],
     [
      15.789457,
      49.561572,
      471.25
     ],
     [
      15.789105,
      49.561631,
      470.5
     ],
     [
      15.788793,
      49.5617,
      469.75
     ],
     [
      15.788478,
      49.561797,
      469.5
     ],
     [
      15.788191,
      49.561926,
      469.25
     ],
     [
      15.787941,
      49.562084,
      468.75
     ],
     [
      15.787655,
      49.562288,
      468.5
     ],
     [
      15.786724,
      49.563243,
      469.75
     ],
     [
      15.786545,
      49.563383,
      469.75
     ],
     [
      15.786276,
      49.563534,
      468.75
     ],
     [
      15.785998,
      49.563674,
      468.0
     ],
     [
      15.785659,
      49.563806,
      466.5
     ],
     [
      15.785381,
      49.56387,
      465.75
     ],
     [
      15.785082,
      49.56392,
      466.0
     ],
     [
      15.784792,
      49.56393,
      464.75
     ],
     [
      15.784545,
      49.563946,
      463.5
     ],
     [
      15.784161,
      49.563932,
      464.5
     ],
     [
      15.783912,
      49.563913,
      465.5
     ],
     [
      15.783626,
      49.563877,
      465.0
     ],
     [
      15.783421,
      49.563842,
      464.75
     ],
     [
      15.783231,
      49.563777,
      465.5
     ],
     [
      15.782918,
      49.563646,
      467.0
     ],
     [
      15.782069,
      49.563273,
      468.0
     ],
     [
      15.78171,
      49.56317,
      468.0
     ],
     [
      15.781383,
      49.563107,
      462.5
     ],
     [
      15.780994,
      49.563061,
      464.5
     ],
     [
      15.780674,
      49.563062,
      471.0
     ],
     [
      15.780446,
      49.563075,
      473.5
     ],
     [
      15.780146,
      49.563118,
      474.0
     ],
     [
      15.779936,
      49.563155,
      473.75
     ],
     [
      15.779632,
      49.563242,
      470.25
     ],
     [
      15.779333,
      49.563359,
      465.75
     ],
     [
      15.779063,
      49.563491,
      466.25
     ],
     [
      15.77887,
      49.563613,
      465.5
     ],
     [
      15.778662,
      49.563756,
      465.0
     ],
     [
      15.778441,
      49.563963,
      464.25
     ],
     [
      15.777946,
      49.564402,
      464.0
     ],
     [
      15.777701,
      49.564566,
      464.75
     ],
     [
      15.777543,
      49.564689,
      464.0
     ],
     [
      15.777303,
      49.564814,
      463.0
     ],
     [
      15.776206,
      49.565336,
      463.25
     ],
     [
      15.774866,
      49.565848,
      462.75
     ],
     [
      15.774516,
      49.565955,
      463.25
     ],
     [
      15.774191,
      49.566009,
      464.0
     ],
     [
      15.773779,
      49.566044,
      464.0
     ],
     [
      15.773403,
      49.566057,
      463.75
     ],
     [
      15.772609,
      49.566064,
      462.25
     ],
     [
      15.772277,
      49.566124,
      463.25
     ],
     [
      15.77203,
      49.566186,
      466.0
     ],
     [
      15.771764,
      49.566277,
      465.5
     ],
     [
      15.771485,
      49.566406,
      464.75
     ],
     [
      15.771208,
      49.566568,
      464.25
     ],
     [
      15.770959,
      49.566739,
      463.75
     ],
     [
      15.770762,
      49.5669,
      462.5
     ],
     [
      15.770541,
      49.567112,
      461.75
     ],
     [
      15.770455,
      49.567212,
      461.25
     ],
     [
      15.770231,
      49.567526,
      461.25
     ],
     [
      15.769857,
      49.568044,
      462.75
     ],
     [
      15.76984,
      49.568068,
      462.75
     ],
     [
      15.769756,
      49.568174,
      462.0
     ],
     [
      15.76934,
      49.568732,
      458.5
     ],
     [
      15.769126,
      49.568953,
      456.25
     ],
     [
      15.76892,
      49.569112,
      457.75
     ],
     [
      15.768695,
      49.569256,
      457.25
     ],
     [
      15.768398,
      49.569392,
      460.0
     ],
     [
      15.768052,
      49.569525,
      460.25
     ],
     [
      15.767688,
      49.569606,
      460.5
     ],
     [
      15.767285,
      49.56967,
      460.5
     ],
     [
      15.767033,
      49.569688,
      460.25
     ],
     [
      15.765469,
      49.569745,
      458.5
     ],
     [
      15.765068,
      49.56977,
      459.25
     ],
     [
      15.762587,
      49.569986,
      460.25
     ],
     [
      15.76182,
      49.570075,
      461.75
     ],
     [
      15.761182,
      49.570112,
      459.5
     ],
     [
      15.760714,
      49.570108,
      459.0
     ],
     [
      15.760279,
      49.570074,
      459.0
     ],
     [
      15.759934,
      49.57004,
      458.75
     ],
     [
      15.759322,
      49.569924,
      459.75
     ],
     [
      15.758622,
      49.569676,
      459.5
     ],
     [
      15.757005,
      49.568872,
      457.75
     ],
     [
      15.756484,
      49.568679,
      457.25
     ],
     [
      15.756231,
      49.56862,
      456.75
     ],
     [
      15.756096,
      49.568594,
      456.0
     ],
     [
      15.755882,
      49.568567,
      456.75
     ],
     [
      15.755602,
      49.568548,
      456.25
     ],
     [
      15.755343,
      49.568542,
      456.0
     ],
     [
      15.75501,
      49.568567,
      456.25
     ],
     [
      15.754749,
      49.5686,
      456.0
     ],
     [
      15.754149,
      49.568741,
      453.0
     ],
     [
      15.753851,
      49.568819,
      452.75
     ],
     [
      15.753249,
      49.568978,
      453.75
     ],
     [
      15.752517,
      49.569129,
      455.5
     ],
     [
      15.751785,
      49.569271,
      456.25
     ],
     [
      15.751399,
      49.569332,
      456.25
     ],
     [
      15.750658,
      49.569407,
      455.0
     ],
     [
      15.750147,
      49.569451,
      455.0
     ],
     [
      15.749533,
      49.569482,
      453.75
     ],
     [
      15.749134,
      49.569497,
      454.5
     ],
     [
      15.749021,
      49.569451,
      454.0
     ],
     [
      15.748967,
      49.569423,
      454.0
     ],
     [
      15.748781,
      49.569412,
      454.0
     ],
     [
      15.748209,
      49.569442,
      454.0
     ],
     [
      15.747889,
      49.569449,
      454.0
     ]
    ]
   }
  }
 ]
}