{
 "type": "FeatureCollection",
 "features": [
  {
   "type": "Feature",
   "properties": {
    "creator": "BRouter-1.7.10",
    "name": "brouter_trekking_0",
    "track-length": "29851",
    "filtered ascend": "187",
    "plain-ascend": "0",
    "total-time": "5635",
    "total-energy": "559729",
    "cost": "45410",
    "messages": [
     [
      "Longitude",
      "Latitude",
      "Elevation",
      "Distance",
      "CostPerKm",
      "ElevCost",
      "TurnCost",
      "NodeCost",
      "InitialCost",
      "WayTags",
      "NodeTags",
      "Time",
      "Energy"
     ],
     [
      "15966793",
      "49644313",
      "660",
      "106",
      "1550",
      "0",
      "0",
      "0",
      "0",
      "reversedirection=yes highway=residential surface=unpaved oneway:bicycle=no",
      "estimated_crossing_class=1",
      "26",
      "2602"
     ],
     [
      "15966364",
      "49643848",
      "655",
      "60",
      "1650",
      "0",
      "74",
      "0",
      "0",
      "reversedirection=yes highway=secondary surface=asphalt cycleway:both=no",
      "estimated_crossing_class=1",
      "34",
      "3444"
     ],
     [
      "15963712",
      "49647133",
      "668",
      "415",
      "1150",
      "0",
      "125",
      "0",
      "0",
      "reversedirection=yes highway=residential surface=paved",
      "",
      "144",
      "14457"
     ],
     [
      "15962766",
      "49647942",
      "674",
      "117",
      "1150",
      "0",
      "6",
      "0",
      "0",
      "reversedirection=yes highway=residential surface=asphalt",
      "",
      "189",
      "18947"
     ],
     [
      "15959676",
      "49647268",
      "686",
      "251",
      "2050",
      "0",
      "24",
      "0",
      "0",
      "reversedirection=yes highway=track surface=gravel tracktype=grade2",
      "",
      "326",
      "32617"
     ],
     [
      "15958800",
      "49647725",
      "691",
      "86",
      "1150",
      "0",
      "60",
      "0",
      "0",
      "reversedirection=yes highway=track tracktype=grade2 foot=yes bicycle=yes",
      "",
      "368",
      "36845"
     ],
     [
      "15947115",
      "49645581",
      "688",
      "910",
      "1150",
      "0",
      "56",
      "0",
      "0",
      "reversedirection=yes highway=track surface=fine_gravel tracktype=grade2 foot=yes bicycle=yes",
      "",
      "555",
      "55582"
     ],
     [
      "15937085",
      "49645186",
      "675",
      "736",
      "2050",
      "0",
      "6",
      "0",
      "0",
      "highway=track surface=unpaved tracktype=grade2 foot=yes bicycle=yes",
      "",
      "635",
      "63582"
     ],
     [
      "15928315",
      "49636629",
      "653",
      "1217",
      "2050",
      "0",
      "75",
      "0",
      "0",
      "highway=track tracktype=grade2",
      "",
      "810",
      "81051"
     ],
     [
      "15925510",
      "49636694",
      "656",
      "225",
      "1150",
      "0",
      "76",
      "0",
      "0",
      "reversedirection=yes highway=residential surface=asphalt",
      "",
      "840",
      "84085"
     ],
     [
      "15927292",
      "49628232",
      "639",
      "948",
      "1450",
      "0",
      "115",
      "0",
      "0",
      "reversedirection=yes highway=tertiary surface=asphalt",
      "",
      "961",
      "96208"
     ],
     [
      "15926950",
      "49628202",
      "639",
      "25",
      "1350",
      "0",
      "91",
      "0",
      "0",
      "highway=service surface=asphalt",
      "",
      "965",
      "96573"
     ],
     [
      "15927292",
      "49628232",
      "639",
      "25",
      "1350",
      "0",
      "0",
      "0",
      "0",
      "reversedirection=yes highway=service surface=asphalt",
      "",
      "970",
      "97019"
     ],
     [
      "15926303",
      "49632779",
      "646",
      "510",
      "1450",
      "0",
      "91",
      "0",
      "0",
      "highway=tertiary surface=asphalt",
      "",
      "1091",
      "109126"
     ],
     [
      "15922741",
      "49633151",
      "652",
      "321",
      "1150",
      "0",
      "172",
      "0",
      "0",
      "reversedirection=yes highway=residential surface=asphalt",
      "",
      "1165",
      "116596"
     ],
     [
      "15922020",
      "49633085",
      "649",
      "53",
      "1150",
      "0",
      "81",
      "0",
      "0",
      "highway=residential surface=asphalt",
      "highway=stop direction=forward",
      "1176",
      "117631"
     ],
     [
      "15921804",
      "49633081",
      "649",
      "16",
      "1150",
      "0",
      "0",
      "0",
      "0",
      "highway=residential surface=asphalt",
      "estimated_crossing_class=2",
      "1178",
      "117894"
     ],
     [
      "15921615",
      "49633084",
      "648",
      "14",
      "1050",
      "0",
      "0",
      "0",
      "0",
      "highway=track surface=asphalt tracktype=grade1",
      "highway=stop direction=backward",
      "1180",
      "118099"
     ],
     [
      "15901556",
      "49631769",
      "616",
      "1483",
      "1050",
      "648",
      "29",
      "0",
      "0",
      "highway=track surface=asphalt tracktype=grade1",
      "",
      "1348",
      "133381"
     ],
     [
      "15902313",
      "49624659",
      "617",
      "821",
      "1000",
      "0",
      "0",
      "0",
      "0",
      "reversedirection=yes highway=track surface=paved tracktype=grade1 bicycle=yes smoothness=intermediate route_bicycle_icn=yes",
      "",
      "1495",
      "148104"
     ],
     [
      "15903470",
      "49617718",
      "601",
      "844",
      "1000",
      "0",
      "0",
      "0",
      "0",
      "reversedirection=yes highway=track tracktype=grade2 bicycle=yes smoothness=intermediate route_bicycle_icn=yes",
      "",
      "1605",
      "159167"
     ],
     [
      "15908496",
      "49610227",
      "591",
      "980",
      "1000",
      "0",
      "0",
      "0",
      "0",
      "reversedirection=yes highway=track surface=paved tracktype=grade1 bicycle=yes smoothness=intermediate route_bicycle_icn=yes",
      "",
      "1740",
      "172636"
     ],
     [
      "15915808",
      "49607413",
      "590",
      "629",
      "1000",
      "0",
      "0",
      "0",
      "0",
      "reversedirection=yes highway=residential route_bicycle_icn=yes",
      "",
      "1851",
      "183773"
     ],
     [
      "15915965",
      "49607571",
      "588",
      "21",
      "1000",
      "0",
      "0",
      "0",
      "0",
      "reversedirection=yes highway=tertiary surface=asphalt route_bicycle_icn=yes route_bicycle_rcn=yes",
      "",
      "1853",
      "183983"
     ],
     [
      "15916280",
      "49607299",
      "586",
      "38",
      "1000",
      "0",
      "0",
      "0",
      "0",
      "reversedirection=yes highway=tertiary surface=asphalt cycleway:both=no route_bicycle_icn=yes route_bicycle_rcn=yes",
      "",
      "1858",
      "184442"
     ],
     [
      "15918341",
      "49606630",
      "580",
      "175",
      "1000",
      "0",
      "0",
      "0",
      "0",
      "reversedirection=yes highway=tertiary surface=asphalt smoothness=good cycleway:both=no route_bicycle_icn=yes route_bicycle_rcn=yes",
      "",
      "1875",
      "186114"
     ],
     [
      "15918573",
      "49606655",
      "580",
      "17",
      "1000",
      "0",
      "0",
      "0",
      "0",
      "reversedirection=yes highway=tertiary surface=asphalt cycleway:both=no route_bicycle_icn=yes route_bicycle_rcn=yes",
      "",
      "1877",
      "186319"
     ],
     [
      "15923471",
      "49604353",
      "579",
      "459",
      "1000",
      "0",
      "0",
      "0",
      "0",
      "reversedirection=yes highway=tertiary surface=asphalt smoothness=intermediate route_bicycle_icn=yes route_bicycle_rcn=yes",
      "",
      "1937",
      "192375"
     ],
     [
      "15921883",
      "49603149",
      "578",
      "177",
      "1000",
      "0",
      "0",
      "0",
      "0",
      "reversedirection=yes highway=service surface=asphalt route_bicycle_icn=yes route_bicycle_rcn=yes",
      "",
      "1964",
      "195051"
     ],
     [
      "15930419",
      "49590322",
      "578",
      "1670",
      "1000",
      "0",
      "0",
      "0",
      "0",
      "highway=cycleway surface=asphalt foot=designated bicycle=designated route_bicycle_icn=yes route_bicycle_rcn=yes",
      "",
      "2244",
      "223054"
     ],
     [
      "15930982",
      "49589743",
      "582",
      "94",
      "9050",
      "0",
      "146",
      "0",
      "0",
      "reversedirection=yes highway=footway surface=compacted",
      "",
      "2267",
      "225359"
     ],
     [
      "15930419",
      "49590322",
      "578",
      "94",
      "9050",
      "0",
      "136",
      "0",
      "0",
      "highway=footway surface=compacted",
      "",
      "2277",
      "226386"
     ],
     [
      "15931248",
      "49588494",
      "578",
      "233",
      "1000",
      "0",
      "0",
      "0",
      "0",
      "highway=cycleway surface=asphalt foot=designated bicycle=designated route_bicycle_icn=yes route_bicycle_rcn=yes",
      "",
      "2311",
      "229715"
     ],
     [
      "15933168",
      "49588794",
      "582",
      "143",
      "1150",
      "0",
      "89",
      "0",
      "0",
      "reversedirection=yes highway=residential surface=asphalt",
      "",
      "2342",
      "232849"
     ],
     [
      "15933170",
      "49588787",
      "576",
      "1",
      "1450",
      "0",
      "95",
      "0",
      "0",
      "reversedirection=yes highway=tertiary surface=asphalt smoothness=good cycleway:both=no",
      "",
      "2342",
      "232875"
     ],
     [
      "15933168",
      "49588794",
      "582",
      "1",
      "1450",
      "0",
      "0",
      "0",
      "0",
      "highway=tertiary surface=asphalt smoothness=good cycleway:both=no",
      "",
      "2343",
      "232893"
     ],
     [
      "15931248",
      "49588494",
      "578",
      "143",
      "1150",
      "0",
      "97",
      "0",
      "0",
      "highway=residential surface=asphalt",
      "",
      "2360",
      "234686"
     ],
     [
      "15930521",
      "49587911",
      "576",
      "87",
      "1000",
      "0",
      "0",
      "0",
      "0",
      "highway=residential surface=asphalt route_bicycle_icn=yes route_bicycle_rcn=yes",
      "",
      "2369",
      "235576"
     ],
     [
      "15932888",
      "49585329",
      "569",
      "432",
      "1000",
      "0",
      "0",
      "0",
      "0",
      "reversedirection=yes highway=cycleway route_bicycle_icn=yes route_bicycle_rcn=yes",
      "",
      "2426",
      "241209"
     ],
     [
      "15933214",
      "49584295",
      "569",
      "117",
      "1000",
      "0",
      "0",
      "0",
      "0",
      "reversedirection=yes highway=cycleway surface=asphalt route_bicycle_icn=yes route_bicycle_rcn=yes",
      "",
      "2442",
      "242852"
     ],
     [
      "15935227",
      "49583548",
      "570",
      "174",
      "1150",
      "0",
      "95",
      "0",
      "0",
      "reversedirection=yes highway=residential",
      "highway=crossing crossing=unmarked kerb=lowered",
      "2468",
      "245455"
     ],
     [
      "15935467",
      "49583002",
      "569",
      "64",
      "5050",
      "0",
      "32",
      "0",
      "0",
      "reversedirection=yes highway=footway surface=asphalt",
      "",
      "2476",
      "246234"
     ],
     [
      "15935227",
      "49583548",
      "570",
      "64",
      "5050",
      "0",
      "4",
      "0",
      "0",
      "highway=footway surface=asphalt",
      "highway=crossing crossing=unmarked kerb=lowered",
      "2489",
      "247540"
     ],
     [
      "15933214",
      "49584295",
      "569",
      "174",
      "1150",
      "0",
      "44",
      "0",
      "0",
      "highway=residential",
      "",
      "2516",
      "250291"
     ],
     [
      "15932888",
      "49585329",
      "569",
      "117",
      "1000",
      "0",
      "0",
      "0",
      "0",
      "highway=cycleway surface=asphalt route_bicycle_icn=yes route_bicycle_rcn=yes",
      "",
      "2538",
      "252414"
     ],
     [
      "15930521",
      "49587911",
      "576",
      "432",
      "1000",
      "0",
      "0",
      "0",
      "0",
      "highway=cycleway route_bicycle_icn=yes route_bicycle_rcn=yes",
      "",
      "2625",
      "261119"
     ],
     [
      "15931248",
      "49588494",
      "578",
      "87",
      "1000",
      "0",
      "0",
      "0",
      "0",
      "reversedirection=yes highway=residential surface=asphalt route_bicycle_icn=yes route_bicycle_rcn=yes",
      "",
      "2649",
      "263575"
     ],
     [
      "15933168",
      "49588794",
      "582",
      "143",
      "1150",
      "0",
      "8",
      "0",
      "0",
      "reversedirection=yes highway=residential surface=asphalt",
      "",
      "2691",
      "267793"
     ],
     [
      "15933170",
      "49588787",
      "576",
      "1",
      "1450",
      "0",
      "95",
      "0",
      "0",
      "reversedirection=yes highway=tertiary surface=asphalt smoothness=good cycleway:both=no",
      "",
      "2692",
      "267823"
     ],
     [
      "15933168",
      "49588794",
      "582",
      "1",
      "1450",
      "0",
      "0",
      "0",
      "0",
      "highway=tertiary surface=asphalt smoothness=good cycleway:both=no",
      "",
      "2692",
      "267841"
     ],
     [
      "15931248",
      "49588494",
      "578",
      "143",
      "1150",
      "0",
      "97",
      "0",
      "0",
      "highway=residential surface=asphalt",
      "",
      "2710",
      "269634"
     ],
     [
      "15930419",
      "49590322",
      "578",
      "233",
      "1000",
      "0",
      "0",
      "0",
      "0",
      "reversedirection=yes highway=cycleway surface=asphalt foot=designated bicycle=designated route_bicycle_icn=yes route_bicycle_rcn=yes",
      "",
      "2743",
      "272989"
     ],
     [
      "15930982",
      "49589743",
      "582",
      "94",
      "9050",
      "0",
      "306",
      "0",
      "0",
      "reversedirection=yes highway=footway surface=compacted",
      "",
      "2767",
      "275357"
     ],
     [
      "15930419",
      "49590322",
      "578",
      "94",
      "9050",
      "0",
      "136",
      "0",
      "0",
      "highway=footway surface=compacted",
      "",
      "2777",
      "276384"
     ],
     [
      "15921883",
      "49603149",
      "578",
      "1670",
      "1000",
      "0",
      "0",
      "0",
      "0",
      "reversedirection=yes highway=cycleway surface=asphalt foot=designated bicycle=designated route_bicycle_icn=yes route_bicycle_rcn=yes",
      "",
      "3051",
      "303777"
     ],
     [
      "15923471",
      "49604353",
      "579",
      "177",
      "1000",
      "0",
      "0",
      "0",
      "0",
      "highway=service surface=asphalt route_bicycle_icn=yes route_bicycle_rcn=yes",
      "",
      "3086",
      "307273"
     ],
     [
      "15918573",
      "49606655",
      "580",
      "459",
      "1000",
      "0",
      "0",
      "0",
      "0",
      "highway=tertiary surface=asphalt smoothness=intermediate route_bicycle_icn=yes route_bicycle_rcn=yes",
      "",
      "3174",
      "316091"
     ],
     [
      "15918341",
      "49606630",
      "580",
      "17",
      "1000",
      "0",
      "0",
      "0",
      "0",
      "highway=tertiary surface=asphalt cycleway:both=no route_bicycle_icn=yes route_bicycle_rcn=yes",
      "",
      "3177",
      "316338"
     ],
     [
      "15916280",
      "49607299",
      "586",
      "175",
      "1000",
      "0",
      "0",
      "0",
      "0",
      "highway=tertiary surface=asphalt smoothness=good cycleway:both=no route_bicycle_icn=yes route_bicycle_rcn=yes",
      "",
      "3210",
      "319616"
     ],
     [
      "15915808",
      "49607413",
      "590",
      "36",
      "1150",
      "0",
      "14",
      "0",
      "0",
      "reversedirection=yes highway=residential",
      "",
      "3228",
      "321409"
     ],
     [
      "15908496",
      "49610227",
      "591",
      "629",
      "1000",
      "0",
      "0",
      "0",
      "0",
      "highway=residential route_bicycle_icn=yes",
      "",
      "3351",
      "333728"
     ],
     [
      "15903470",
      "49617718",
      "601",
      "980",
      "1000",
      "0",
      "0",
      "0",
      "0",
      "highway=track surface=paved tracktype=grade1 bicycle=yes smoothness=intermediate route_bicycle_icn=yes",
      "",
      "3566",
      "355278"
     ],
     [
      "15902313",
      "49624659",
      "617",
      "844",
      "1000",
      "0",
      "0",
      "0",
      "0",
      "highway=track tracktype=grade2 bicycle=yes smoothness=intermediate route_bicycle_icn=yes",
      "",
      "3783",
      "376977"
     ],
     [
      "15901556",
      "49631769",
      "616",
      "821",
      "1000",
      "0",
      "0",
      "0",
      "0",
      "highway=track surface=paved tracktype=grade1 bicycle=yes smoothness=intermediate route_bicycle_icn=yes",
      "",
      "3942",
      "392878"
     ],
     [
      "15921615",
      "49633084",
      "648",
      "1483",
      "1050",
      "0",
      "29",
      "0",
      "0",
      "reversedirection=yes highway=track surface=asphalt tracktype=grade1",
      "highway=stop direction=backward",
      "4353",
      "433973"
     ],
     [
      "15921804",
      "49633081",
      "649",
      "14",
      "1050",
      "0",
      "0",
      "0",
      "0",
      "reversedirection=yes highway=track surface=asphalt tracktype=grade1",
      "estimated_crossing_class=2",
      "4362",
      "434829"
     ],
     [
      "15922020",
      "49633085",
      "649",
      "16",
      "1150",
      "0",
      "0",
      "0",
      "0",
      "reversedirection=yes highway=residential surface=asphalt",
      "highway=stop direction=forward",
      "4371",
      "435759"
     ],
     [
      "15922741",
      "49633151",
      "652",
      "53",
      "1150",
      "0",
      "0",
      "0",
      "0",
      "reversedirection=yes highway=residential surface=asphalt",
      "",
      "4403",
      "439010"
     ],
     [
      "15926303",
      "49632779",
      "646",
      "321",
      "1150",
      "0",
      "162",
      "0",
      "0",
      "highway=residential surface=asphalt",
      "",
      "4474",
      "446122"
     ],
     [
      "15927292",
      "49628232",
      "639",
      "510",
      "1450",
      "0",
      "91",
      "0",
      "0",
      "reversedirection=yes highway=tertiary surface=asphalt",
      "",
      "4546",
      "453291"
     ],
     [
      "15926950",
      "49628202",
      "639",
      "25",
      "1350",
      "0",
      "91",
      "0",
      "0",
      "highway=service surface=asphalt",
      "",
      "4550",
      "453658"
     ],
     [
      "15927292",
      "49628232",
      "639",
      "25",
      "1350",
      "0",
      "0",
      "0",
      "0",
      "reversedirection=yes highway=service surface=asphalt",
      "",
      "4554",
      "454104"
     ],
     [
      "15925510",
      "49636694",
      "656",
      "948",
      "1450",
      "0",
      "91",
      "0",
      "0",
      "highway=tertiary surface=asphalt",
      "",
      "4787",
      "477398"
     ],
     [
      "15928315",
      "49636629",
      "653",
      "225",
      "1150",
      "0",
      "188",
      "0",
      "0",
      "highway=residential surface=asphalt",
      "",
      "4817",
      "480348"
     ],
     [
      "15937085",
      "49645186",
      "675",
      "1217",
      "2050",
      "0",
      "73",
      "0",
      "0",
      "reversedirection=yes highway=track tracktype=grade2",
      "",
      "5132",
      "511856"
     ],
     [
      "15947115",
      "49645581",
      "688",
      "736",
      "2050",
      "0",
      "11",
      "0",
      "0",
      "reversedirection=yes highway=track surface=unpaved tracktype=grade2 foot=yes bicycle=yes",
      "",
      "5331",
      "531794"
     ],
     [
      "15958800",
      "49647725",
      "691",
      "910",
      "1150",
      "0",
      "9",
      "0",
      "0",
      "highway=track surface=fine_gravel tracktype=grade2 foot=yes bicycle=yes",
      "",
      "5511",
      "549839"
     ],
     [
      "15959676",
      "49647268",
      "686",
      "86",
      "1150",
      "0",
      "96",
      "0",
      "0",
      "highway=track tracktype=grade2 foot=yes bicycle=yes",
      "",
      "5521",
      "550843"
     ],
     [
      "15962766",
      "49647942",
      "674",
      "251",
      "2050",
      "101",
      "35",
      "0",
      "0",
      "highway=track surface=gravel tracktype=grade2",
      "",
      "5547",
      "553142"
     ],
     [
      "15963712",
      "49647133",
      "668",
      "117",
      "1150",
      "238",
      "6",
      "0",
      "0",
      "highway=residential surface=asphalt",
      "",
      "5557",
      "553142"
     ],
     [
      "15964597",
      "49645748",
      "660",
      "167",
      "1150",
      "314",
      "0",
      "0",
      "0",
      "highway=residential surface=paved",
      "",
      "5570",
      "553290"
     ],
     [
      "15965869",
      "49645676",
      "666",
      "93",
      "1050",
      "0",
      "58",
      "0",
      "0",
      "highway=track surface=concrete tracktype=grade1",
      "",
      "5586",
      "554915"
     ],
     [
      "15967409",
      "49645041",
      "667",
      "132",
      "1150",
      "0",
      "4",
      "0",
      "0",
      "highway=residential surface=asphalt",
      "estimated_crossing_class=1",
      "5613",
      "557585"
     ],
     [
      "15966793",
      "49644313",
      "660",
      "93",
      "1650",
      "0",
      "80",
      "0",
      "0",
      "reversedirection=yes highway=secondary surface=asphalt cycleway:both=no",
      "estimated_crossing_class=1",
      "5624",
      "558655"
     ],
     [
      "15968121",
      "49643916",
      "658",
      "106",
      "1550",
      "0",
      "105",
      "0",
      "0",
      "highway=residential surface=unpaved oneway:bicycle=no",
      "",
      "5634",
      "559729"
     ]
    ],
    "times": [
     0,
     13.678,
     26.015,
     34.431,
     45.407,
     51.699,
     57.054,
     71.78,
     139.537,
     144.55,
     167.057,
     173.818,
     183.13,
     189.441,
     195.074,
     205.727,
     214.396,
     223.948,
     243.809,
     260.134,
     273.882,
     281.88,
     297.523,
     308.167,
     319.53,
     322.731,
     326.129,
     328.912,
     332.655,
     358.864,
     368.403,
     375.539,
     382.203,
     460.264,
     475.476,
     483.211,
     492.869,
     503.74,
     513.331,
     541.054,
     555.744,
     621.052,
     621.724,
     628.638,
     633.499,
     635.735,
     642.443,
     646.446,
     656.359,
     671.382,
     691.368,
     695.21,
     700.342,
     706.592,
     711.845,
     715.271,
     719.855,
     719.969,
     723.331,
     728.707,
     733.481,
     738.842,
     752.886,
     756.588,
     762.728,
     765.615,
     767.953,
     770.658,
     771.54,
     773.697,
     777.268,
     789.374,
     795.68,
     799.378,
     802.258,
     804.389,
     806.985,
     808.592,
     810.408,
     813.467,
     816.188,
     820.884,
     824.367,
     827.983,
     840.744,
     858.823,
     865.1,
     870.53,
     874.632,
     876.842,
     878.338,
     890.342,
     900.117,
     901.858,
     908.668,
     933.176,
     961.959,
     965.604,
     970.065,
     1036.703,
     1074.817,
     1091.103,
     1106.103,
     1126.75,
     1151.381,
     1165.795,
     1176.139,
     1178.768,
     1180.813,
     1186.691,
     1188.389,
     1191.882,
     1194.122,
     1197.802,
     1200.682,
     1203.642,
     1206.842,
     1209.642,
     1213.082,
     1219.137,
     1221.083,
     1225.795,
     1231.121,
     1233.206,
     1235.424,
     1238.91,
     1240.939,
     1245.939,
     1249.669,
     1253.009,
     1270.418,
     1274.378,
     1282.283,
     1287.564,
     1289.385,
     1293.245,
     1300.387,
     1308.091,
     1316.492,
     1325.628,
     1343.846,
     1346.067,
     1346.865,
     1348.059,
     1349.515,
     1353.655,
     1358.863,
     1371.986,
     1381.061,
     1384.62,
     1389.997,
     1394.556,
     1399.05,
     1413.351,
     1417.693,
     1421.193,
     1426.149,
     1426.777,
     1434.651,
     1446.322,
     1455.486,
     1460.301,
     1464.802,
     1469.297,
     1473.928,
     1478.37,
     1495.271,
     1502.76,
     1508.166,
     1512.143,
     1515.13,
     1518.813,
     1522.57,
     1544.64,
     1548.788,
     1554.815,
     1557.536,
     1561.552,
     1568.453,
     1572.654,
     1576.255,
     1587.637,
     1592.463,
     1596.346,
     1601.871,
     1605.882,
     1608.369,
     1611.243,
     1618.545,
     1621.295,
     1622.361,
     1623.258,
     1626.029,
     1629.065,
     1632.908,
     1636.441,
     1641.958,
     1647.17,
     1650.015,
     1661.287,
     1665.242,
     1676.022,
     1683.827,
     1688.64,
     1692.459,
     1698.439,
     1702.39,
     1711.259,
     1716.477,
     1722.977,
     1726.256,
     1728.087,
     1731.166,
     1734.688,
     1736.708,
     1738.881,
     1740.535,
     1742.987,
     1745.191,
     1752.529,
     1761.053,
     1767.998,
     1778.515,
     1810.098,
     1816.931,
     1824.984,
     1832.138,
     1836.218,
     1838.062,
     1840.365,
     1845.104,
     1845.911,
     1847.487,
     1847.804,
     1850.692,
     1851.883,
     1853.987,
     1858.575,
     1860.232,
     1862.991,
     1864.147,
     1867.285,
     1869.602,
     1874.485,
     1875.299,
     1877.348,
     1877.844,
     1881.55,
     1883.816,
     1886.735,
     1889.841,
     1894.369,
     1901.295,
     1912.562,
     1917.736,
     1929.519,
     1932.619,
     1935.425,
     1937.888,
     1955.167,
     1961.239,
     1964.643,
     1976.769,
     1980.08,
     1983.494,
     1989.478,
     1993.113,
     1997.774,
     2004.121,
     2008.702,
     2020.293,
     2022.684,
     2025.777,
     2029.413,
     2047.844,
     2058.518,
     2063.071,
     2067.592,
     2083.174,
     2085.118,
     2091.79,
     2101.122,
     2104.673,
     2107.376,
     2124.626,
     2151.6,
     2163.945,
     2165.962,
     2168.344,
     2178.179,
     2191.463,
     2194.986,
     2197.048,
     2199.447,
     2206.965,
     2209.107,
     2216.584,
     2216.986,
     2218.778,
     2220.25,
     2224.275,
     2226.035,
     2238.97,
     2242.588,
     2244.668,
     2248.297,
     2252.559,
     2254.728,
     2256.067,
     2258.204,
     2263.65,
     2264.295,
     2264.932,
     2267.712,
     2268.898,
     2269.196,
     2269.495,
     2271.356,
     2272.198,
     2272.795,
     2273.925,
     2276.04,
     2277.979,
     2283.364,
     2284.573,
     2286.146,
     2295.628,
     2296.935,
     2298.257,
     2304.502,
     2306.718,
     2309.291,
     2311.27,
     2318.871,
     2322.085,
     2325.394,
     2328.213,
     2331.175,
     2334.238,
     2334.975,
     2337.033,
     2342.598,
     2342.859,
     2343.039,
     2345.871,
     2347.011,
     2347.418,
     2348.953,
     2350.711,
     2352.641,
     2354.772,
     2356.63,
     2360.972,
     2365.384,
     2369.867,
     2374.949,
     2378.199,
     2383.42,
     2389.363,
     2391.076,
     2396.924,
     2402.565,
     2404.059,
     2405.769,
     2406.953,
     2408.115,
     2409.49,
     2421.913,
     2423.658,
     2426.178,
     2442.603,
     2444.442,
     2448.07,
     2451.344,
     2455.709,
     2462.425,
     2463.9,
     2465.386,
     2468.637,
     2470.963,
     2474.386,
     2476.425,
     2479.466,
     2485.613,
     2489.486,
     2493.746,
     2496.283,
     2498.369,
     2504.494,
     2508.356,
     2511.747,
     2515.123,
     2516.991,
     2538.222,
     2541.186,
     2543.407,
     2556.664,
     2558.717,
     2560.54,
     2562.349,
     2565.841,
     2568.646,
     2577.018,
     2585.557,
     2588.496,
     2597.936,
     2606.353,
     2614.265,
     2625.257,
     2636.319,
     2649.813,
     2662.004,
     2666.596,
     2671.115,
     2674.818,
     2678.562,
     2682.288,
     2683.169,
     2685.598,
     2691.975,
     2692.273,
     2692.453,
     2695.285,
     2696.426,
     2696.832,
     2698.367,
     2700.125,
     2702.055,
     2704.186,
     2706.044,
     2710.386,
     2712.037,
     2714.383,
     2716.173,
     2720.295,
     2721.479,
     2722.686,
     2733.175,
     2734.937,
     2736.424,
     2743.932,
     2747.719,
     2752.133,
     2754.368,
     2755.744,
     2757.933,
     2763.481,
     2764.137,
     2764.786,
     2767.609,
     2768.795,
     2769.093,
     2769.392,
     2771.254,
     2772.096,
     2772.692,
     2773.823,
     2775.937,
     2777.877,
     2779.526,
     2782.26,
     2788.959,
     2790.321,
     2793.429,
     2794.42,
     2795.711,
     2796.019,
     2800.423,
     2801.955,
     2806.587,
     2808.451,
     2810.004,
     2812.96,
     2826.666,
     2836.166,
     2838.627,
     2840.432,
     2851.628,
     2881.301,
     2897.245,
     2899.887,
     2903.364,
     2913.001,
     2918.87,
     2920.567,
     2936.368,
     2940.467,
     2944.947,
     2956.408,
     2976.825,
     2979.963,
     2982.463,
     2984.711,
     2996.949,
     3002.029,
     3007.615,
     3013.958,
     3018.787,
     3024.768,
     3028.682,
     3032.585,
     3051.794,
     3056.719,
     3067.329,
     3086.751,
     3090.102,
     3093.759,
     3098.448,
     3117.816,
     3123.781,
     3137.23,
     3150.425,
     3157.356,
     3161.99,
     3167.218,
     3170.721,
     3174.345,
     3174.917,
     3177.383,
     3178.415,
     3185.394,
     3189.795,
     3197.717,
     3200.79,
     3206.349,
     3210.163,
     3228.092,
     3232.592,
     3241.453,
     3242.506,
     3245.348,
     3246.719,
     3254.089,
     3257.113,
     3259.509,
     3267.794,
     3281.722,
     3287.902,
     3293.263,
     3317.524,
     3327.446,
     3331.494,
     3339.021,
     3346.501,
     3348.574,
     3351.263,
     3353.375,
     3356.268,
     3359.823,
     3366.533,
     3373.546,
     3378.162,
     3387.31,
     3405.948,
     3414.865,
     3430.284,
     3439.983,
     3453.46,
     3460.566,
     3467.262,
     3475.475,
     3486.868,
     3490.913,
     3502.414,
     3505.976,
     3511.724,
     3516.819,
     3522.357,
     3527.956,
     3532.603,
     3537.007,
     3538.471,
     3540.234,
     3544.487,
     3554.257,
     3560.302,
     3566.713,
     3578.696,
     3588.881,
     3597.687,
     3606.48,
     3635.358,
     3644.156,
     3652.032,
     3662.671,
     3673.341,
     3677.865,
     3689.452,
     3698.369,
     3735.45,
     3744.033,
     3751.953,
     3757.53,
     3765.542,
     3776.41,
     3783.644,
     3798.308,
     3805.784,
     3812.85,
     3821.206,
     3827.09,
     3832.952,
     3840.786,
     3851.698,
     3860.557,
     3861.363,
     3871.046,
     3878.593,
     3886.358,
     3902.481,
     3906.452,
     3909.849,
     3913.084,
     3915.313,
     3920.651,
     3931.92,
     3937.489,
     3941.366,
     3942.63,
     3943.675,
     3944.426,
     3946.55,
     3968.336,
     3975.754,
     3985.641,
     3995.375,
     4007.435,
     4013.074,
     4016.213,
     4025.556,
     4041.389,
     4048.97,
     4073.587,
     4079.317,
     4086.779,
     4100.867,
     4105.78,
     4116.185,
     4122.963,
     4129.957,
     4138.758,
     4150.496,
     4154.53,
     4173.476,
     4187.039,
     4200.091,
     4214.607,
     4229.634,
     4248.062,
     4274.111,
     4289.62,
     4316.266,
     4325.58,
     4353.52,
     4362.079,
     4371.373,
     4403.884,
     4424.194,
     4446.423,
     4465.525,
     4474.985,
     4482.058,
     4516.915,
     4546.658,
     4550.333,
     4554.795,
     4621.434,
     4659.547,
     4675.833,
     4679.553,
     4696.817,
     4726.867,
     4729.267,
     4732.711,
     4740.558,
     4753.132,
     4764.569,
     4787.671,
     4794.195,
     4796.918,
     4802.104,
     4807.288,
     4810.847,
     4817.165,
     4821.96,
     4826.144,
     4835.161,
     4838.589,
     4843.524,
     4853.778,
     4876.185,
     4906.376,
     4914.504,
     4919.417,
     4920.674,
     4924.75,
     4928.534,
     4933.895,
     4943.479,
     4949.268,
     4964.277,
     4970.391,
     4979.687,
     4993.671,
     5001.846,
     5002.025,
     5012.888,
     5018.611,
     5026.295,
     5033.576,
     5043.803,
     5050.992,
     5085.963,
     5112.164,
     5122.517,
     5126.726,
     5132.17,
     5133.93,
     5137.49,
     5143.362,
     5144.197,
     5331.487,
     5366.878,
     5392.006,
     5398.174,
     5410.078,
     5423.871,
     5433.571,
     5448.496,
     5502.933,
     5507.735,
     5511.912,
     5515.171,
     5520.312,
     5521.256,
     5521.952,
     5522.875,
     5523.758,
     5526.547,
     5528.604,
     5532.706,
     5534.403,
     5536.982,
     5539.721,
     5542.614,
     5543.908,
     5545.188,
     5546.788,
     5547.748,
     5548.868,
     5550.628,
     5552.148,
     5557.108,
     5558.588,
     5570.508,
     5574.576,
     5586.761,
     5591.744,
     5594.548,
     5613.456,
     5622.362,
     5624.158,
     5629.43,
     5634.889
    ]
   },
   "geometry": {
    "type": "LineString",
    "coordinates": [
     [
      15.968121,
      49.643916,
      658.0
     ],
     [
      15.967435,
      49.644152,
      659.75
     ],
     [
      15.966793,
      49.644313,
      660.5
     ],
     [
      15.966364,
      49.643848,
      655.5
     ],
     [
      15.965547,
      49.644553,
      656.25
     ],
     [
      15.96518,
      49.644851,
      656.75
     ],
     [
      15.964995,
      49.645083,
      657.5
     ],
     [
      15.964597,
      49.645748,
      660.75
     ],
     [
      15.963798,
      49.646981,
      668.25
     ],
     [
      15.963712,
      49.647133,
      668.5
     ],
     [
      15.963362,
      49.647641,
      670.75
     ],
     [
      15.963181,
      49.647762,
      671.75
     ],
     [
      15.962931,
      49.647878,
      673.25
     ],
     [
      15.962766,
      49.647942,
      674.25
     ],
     [
      15.962622,
      49.64799,
      675.0
     ],
     [
      15.962365,
      49.648046,
      676.5
     ],
     [
      15.962146,
      49.64808,
      677.5
     ],
     [
      15.961927,
      49.648063,
      679.0
     ],
     [
      15.96151,
      49.64795,
      680.5
     ],
     [
      15.961152,
      49.647831,
      681.75
     ],
     [
      15.960832,
      49.64775,
      683.0
     ],
     [
      15.960655,
      49.647701,
      684.25
     ],
     [
      15.960335,
      49.64759,
      685.75
     ],
     [
      15.96011,
      49.6475,
      686.5
     ],
     [
      15.959889,
      49.647337,
      686.5
     ],
     [
      15.959803,
      49.647287,
      686.25
     ],
     [
      15.959676,
      49.647268,
      686.25
     ],
     [
      15.959578,
      49.647287,
      686.75
     ],
     [
      15.95951,
      49.647356,
      687.25
     ],
     [
      15.959078,
      49.647707,
      690.0
     ],
     [
      15.9588,
      49.647725,
      691.0
     ],
     [
      15.958652,
      49.647582,
      690.5
     ],
     [
      15.958422,
      49.647425,
      689.75
     ],
     [
      15.953988,
      49.645919,
      691.5
     ],
     [
      15.952976,
      49.645608,
      692.0
     ],
     [
      15.952425,
      49.645516,
      692.25
     ],
     [
      15.9518,
      49.645496,
      693.0
     ],
     [
      15.950979,
      49.645456,
      692.75
     ],
     [
      15.95057,
      49.645436,
      692.25
     ],
     [
      15.948854,
      49.645498,
      692.0
     ],
     [
      15.947115,
      49.645581,
      688.75
     ],
     [
      15.938204,
      49.645569,
      671.5
     ],
     [
      15.938109,
      49.645549,
      671.75
     ],
     [
      15.937503,
      49.645318,
      673.25
     ],
     [
      15.937203,
      49.645215,
      674.5
     ],
     [
      15.937085,
      49.645186,
      675.5
     ],
     [
      15.936872,
      49.645066,
      677.0
     ],
     [
      15.936723,
      49.644895,
      678.0
     ],
     [
      15.936519,
      49.644593,
      676.75
     ],
     [
      15.935538,
      49.643966,
      674.75
     ],
     [
      15.933765,
      49.643349,
      673.5
     ],
     [
      15.933476,
      49.643165,
      672.75
     ],
     [
      15.933051,
      49.642874,
      671.5
     ],
     [
      15.932763,
      49.642547,
      669.25
     ],
     [
      15.932419,
      49.642335,
      669.25
     ],
     [
      15.932319,
      49.642141,
      669.0
     ],
     [
      15.932293,
      49.641776,
      667.25
     ],
     [
      15.93229,
      49.641764,
      666.0
     ],
     [
      15.932235,
      49.641546,
      666.0
     ],
     [
      15.931971,
      49.641182,
      665.0
     ],
     [
      15.931833,
      49.640917,
      665.75
     ],
     [
      15.931729,
      49.640623,
      665.75
     ],
     [
      15.93132,
      49.639969,
      666.25
     ],
     [
      15.931297,
      49.639752,
      665.75
     ],
     [
      15.931485,
      49.639404,
      662.5
     ],
     [
      15.931488,
      49.639202,
      661.75
     ],
     [
      15.931476,
      49.639039,
      661.5
     ],
     [
      15.93144,
      49.638864,
      661.5
     ],
     [
      15.931429,
      49.638812,
      661.75
     ],
     [
      15.931275,
      49.638651,
      662.75
     ],
     [
      15.931057,
      49.638488,
      664.25
     ],
     [
      15.9303,
      49.637804,
      663.0
     ],
     [
      15.929805,
      49.637406,
      661.25
     ],
     [
      15.929506,
      49.637249,
      658.5
     ],
     [
      15.92923,
      49.637126,
      657.75
     ],
     [
      15.929017,
      49.637018,
      656.75
     ],
     [
      15.928747,
      49.636832,
      655.25
     ],
     [
      15.92854,
      49.636754,
      654.75
     ],
     [
      15.928315,
      49.636629,
      653.5
     ],
     [
      15.927842,
      49.636487,
      651.75
     ],
     [
      15.927478,
      49.6363,
      650.25
     ],
     [
      15.927004,
      49.636511,
      651.5
     ],
     [
      15.926567,
      49.636626,
      653.25
     ],
     [
      15.926224,
      49.636628,
      654.5
     ],
     [
      15.92551,
      49.636694,
      656.75
     ],
     [
      15.925707,
      49.635822,
      656.25
     ],
     [
      15.925793,
      49.635445,
      655.5
     ],
     [
      15.925859,
      49.635033,
      654.0
     ],
     [
      15.925929,
      49.6347,
      652.75
     ],
     [
      15.925956,
      49.634577,
      652.75
     ],
     [
      15.925966,
      49.63449,
      652.5
     ],
     [
      15.926152,
      49.63355,
      650.25
     ],
     [
      15.926278,
      49.632906,
      647.0
     ],
     [
      15.926303,
      49.632779,
      646.25
     ],
     [
      15.926426,
      49.632196,
      644.5
     ],
     [
      15.926789,
      49.630487,
      646.5
     ],
     [
      15.927292,
      49.628232,
      639.25
     ],
     [
      15.92695,
      49.628202,
      639.0
     ],
     [
      15.927292,
      49.628232,
      639.25
     ],
     [
      15.926789,
      49.630487,
      646.5
     ],
     [
      15.926426,
      49.632196,
      644.5
     ],
     [
      15.926303,
      49.632779,
      646.25
     ],
     [
      15.925256,
      49.632673,
      649.0
     ],
     [
      15.924192,
      49.632565,
      651.0
     ],
     [
      15.922998,
      49.63246,
      649.75
     ],
     [
      15.922741,
      49.633151,
      652.0
     ],
     [
      15.92202,
      49.633085,
      649.5
     ],
     [
      15.921804,
      49.633081,
      649.0
     ],
     [
      15.921615,
      49.633084,
      648.5
     ],
     [
      15.921069,
      49.633073,
      645.5
     ],
     [
      15.920865,
      49.63306,
      644.0
     ],
     [
      15.920303,
      49.63295,
      641.0
     ],
     [
      15.919955,
      49.632845,
      639.25
     ],
     [
      15.919352,
      49.632712,
      636.5
     ],
     [
      15.918878,
      49.632623,
      633.75
     ],
     [
      15.918363,
      49.63258,
      632.0
     ],
     [
      15.917807,
      49.632594,
      631.0
     ],
     [
      15.917316,
      49.632598,
      629.25
     ],
     [
      15.916725,
      49.632656,
      627.5
     ],
     [
      15.915736,
      49.632739,
      626.0
     ],
     [
      15.915473,
      49.632737,
      626.0
     ],
     [
      15.914795,
      49.632628,
      624.5
     ],
     [
      15.914108,
      49.632475,
      623.75
     ],
     [
      15.913823,
      49.632432,
      622.75
     ],
     [
      15.91351,
      49.632398,
      622.0
     ],
     [
      15.912998,
      49.632367,
      621.0
     ],
     [
      15.912721,
      49.632344,
      620.75
     ],
     [
      15.912071,
      49.632125,
      619.25
     ],
     [
      15.911632,
      49.631964,
      618.75
     ],
     [
      15.911239,
      49.631872,
      618.5
     ],
     [
      15.909529,
      49.631689,
      618.75
     ],
     [
      15.909117,
      49.631733,
      618.0
     ],
     [
      15.908227,
      49.631842,
      617.0
     ],
     [
      15.907668,
      49.631948,
      616.5
     ],
     [
      15.907463,
      49.631969,
      616.0
     ],
     [
      15.907047,
      49.632013,
      616.0
     ],
     [
      15.906226,
      49.632076,
      615.0
     ],
     [
      15.905383,
      49.63209,
      614.5
     ],
     [
      15.904304,
      49.632031,
      615.5
     ],
     [
      15.90354,
      49.63199,
      616.75
     ],
     [
      15.901852,
      49.631897,
      616.0
     ],
     [
      15.901677,
      49.631846,
      616.0
     ],
     [
      15.901623,
      49.631812,
      616.0
     ],
     [
      15.901556,
      49.631769,
      616.25
     ],
     [
      15.901469,
      49.631723,
      616.5
     ],
     [
      15.901298,
      49.631547,
      616.5
     ],
     [
      15.901168,
      49.631267,
      616.0
     ],
     [
      15.900878,
      49.630566,
      616.0
     ],
     [
      15.900621,
      49.630209,
      617.0
     ],
     [
      15.900619,
      49.630065,
      617.5
     ],
     [
      15.900647,
      49.629874,
      618.25
     ],
     [
      15.900634,
      49.629715,
      618.5
     ],
     [
      15.900638,
      49.62954,
      618.5
     ],
     [
      15.900654,
      49.628926,
      618.5
     ],
     [
      15.900674,
      49.628684,
      617.75
     ],
     [
      15.900755,
      49.628437,
      616.5
     ],
     [
      15.900983,
      49.628058,
      615.25
     ],
     [
      15.901006,
      49.628019,
      615.5
     ],
     [
      15.901157,
      49.627569,
      616.25
     ],
     [
      15.901359,
      49.627165,
      618.25
     ],
     [
      15.9015,
      49.626813,
      618.5
     ],
     [
      15.901606,
      49.62659,
      618.0
     ],
     [
      15.901721,
      49.62635,
      617.5
     ],
     [
      15.901872,
      49.625972,
      615.0
     ],
     [
      15.901912,
      49.625711,
      613.5
     ],
     [
      15.901993,
      49.625319,
      613.75
     ],
     [
      15.902313,
      49.624659,
      617.0
     ],
     [
      15.901963,
      49.624478,
      617.75
     ],
     [
      15.901671,
      49.624243,
      616.5
     ],
     [
      15.90149,
      49.624015,
      615.75
     ],
     [
      15.901419,
      49.62382,
      615.5
     ],
     [
      15.901379,
      49.623552,
      614.75
     ],
     [
      15.901389,
      49.623233,
      613.5
     ],
     [
      15.90155,
      49.621706,
      610.0
     ],
     [
      15.90153,
      49.621406,
      609.0
     ],
     [
      15.901248,
      49.621016,
      608.5
     ],
     [
      15.901174,
      49.620852,
      608.75
     ],
     [
      15.901365,
      49.620541,
      610.0
     ],
     [
      15.901784,
      49.620167,
      610.5
     ],
     [
      15.902021,
      49.619955,
      610.5
     ],
     [
      15.902138,
      49.619719,
      609.75
     ],
     [
      15.902722,
      49.619113,
      606.75
     ],
     [
      15.902978,
      49.618851,
      606.25
     ],
     [
      15.903182,
      49.618567,
      604.75
     ],
     [
      15.903395,
      49.618086,
      603.0
     ],
     [
      15.90347,
      49.617718,
      601.75
     ],
     [
      15.903439,
      49.617485,
      600.75
     ],
     [
      15.903303,
      49.617228,
      600.0
     ],
     [
      15.902871,
      49.616793,
      600.75
     ],
     [
      15.902706,
      49.616652,
      600.75
     ],
     [
      15.902701,
      49.616576,
      600.5
     ],
     [
      15.90274,
      49.616517,
      600.25
     ],
     [
      15.902886,
      49.616347,
      600.0
     ],
     [
      15.90307,
      49.616164,
      599.75
     ],
     [
      15.903313,
      49.615941,
      599.5
     ],
     [
      15.903458,
      49.615683,
      598.5
     ],
     [
      15.903585,
      49.615356,
      599.25
     ],
     [
      15.903682,
      49.615019,
      598.75
     ],
     [
      15.903725,
      49.614768,
      599.75
     ],
     [
      15.904196,
      49.614142,
      601.0
     ],
     [
      15.904303,
      49.613981,
      602.0
     ],
     [
      15.904405,
      49.613645,
      603.75
     ],
     [
      15.904546,
      49.613374,
      603.75
     ],
     [
      15.904701,
      49.613189,
      603.5
     ],
     [
      15.904881,
      49.613019,
      602.75
     ],
     [
      15.905366,
      49.612776,
      601.75
     ],
     [
      15.905677,
      49.612556,
      600.75
     ],
     [
      15.906066,
      49.612128,
      598.75
     ],
     [
      15.906468,
      49.611811,
      596.75
     ],
     [
      15.907037,
      49.611414,
      595.5
     ],
     [
      15.907342,
      49.611219,
      594.5
     ],
     [
      15.907498,
      49.61109,
      593.75
     ],
     [
      15.907706,
      49.610842,
      593.0
     ],
     [
      15.907978,
      49.610593,
      592.5
     ],
     [
      15.908173,
      49.610461,
      591.75
     ],
     [
      15.908347,
      49.610316,
      591.75
     ],
     [
      15.908496,
      49.610227,
      591.5
     ],
     [
      15.908721,
      49.610106,
      591.5
     ],
     [
      15.908883,
      49.610001,
      591.75
     ],
     [
      15.909449,
      49.609533,
      593.25
     ],
     [
      15.910155,
      49.609272,
      593.75
     ],
     [
      15.910512,
      49.609101,
      595.25
     ],
     [
      15.911217,
      49.608889,
      595.0
     ],
     [
      15.913,
      49.608307,
      599.5
     ],
     [
      15.913272,
      49.608267,
      599.0
     ],
     [
      15.913582,
      49.608197,
      599.5
     ],
     [
      15.914101,
      49.608061,
      597.5
     ],
     [
      15.914535,
      49.607996,
      596.0
     ],
     [
      15.914667,
      49.607921,
      596.25
     ],
     [
      15.914762,
      49.607802,
      596.5
     ],
     [
      15.915067,
      49.607593,
      596.25
     ],
     [
      15.915125,
      49.607554,
      595.75
     ],
     [
      15.915298,
      49.607502,
      594.75
     ],
     [
      15.915336,
      49.607491,
      594.25
     ],
     [
      15.915683,
      49.607433,
      590.25
     ],
     [
      15.915808,
      49.607413,
      590.25
     ],
     [
      15.915965,
      49.607571,
      588.5
     ],
     [
      15.91628,
      49.607299,
      586.0
     ],
     [
      15.916414,
      49.607183,
      584.75
     ],
     [
      15.916737,
      49.606985,
      582.75
     ],
     [
      15.916874,
      49.606907,
      582.25
     ],
     [
      15.917301,
      49.60674,
      581.25
     ],
     [
      15.917613,
      49.606652,
      580.75
     ],
     [
      15.918247,
      49.606633,
      580.75
     ],
     [
      15.918341,
      49.60663,
      580.75
     ],
     [
      15.918573,
      49.606655,
      580.75
     ],
     [
      15.918628,
      49.606662,
      580.75
     ],
     [
      15.918982,
      49.606693,
      581.25
     ],
     [
      15.919295,
      49.606675,
      582.0
     ],
     [
      15.91968,
      49.606636,
      581.75
     ],
     [
      15.920008,
      49.606546,
      582.0
     ],
     [
      15.920442,
      49.606408,
      582.0
     ],
     [
      15.921101,
      49.606077,
      580.75
     ],
     [
      15.921761,
      49.605511,
      581.0
     ],
     [
      15.922059,
      49.605297,
      581.25
     ],
     [
      15.922911,
      49.604776,
      580.25
     ],
     [
      15.923143,
      49.604628,
      579.75
     ],
     [
      15.923315,
      49.604484,
      579.75
     ],
     [
      15.923471,
      49.604353,
      579.5
     ],
     [
      15.922587,
      49.603579,
      580.0
     ],
     [
      15.922174,
      49.603275,
      579.0
     ],
     [
      15.921883,
      49.603149,
      578.75
     ],
     [
      15.922451,
      49.602374,
      577.75
     ],
     [
      15.922642,
      49.602208,
      577.75
     ],
     [
      15.922886,
      49.602079,
      577.75
     ],
     [
      15.923293,
      49.601913,
      578.25
     ],
     [
      15.923465,
      49.601733,
      577.75
     ],
     [
      15.923696,
      49.601457,
      577.0
     ],
     [
      15.924029,
      49.601198,
      577.75
     ],
     [
      15.924345,
      49.601031,
      577.5
     ],
     [
      15.925221,
      49.600677,
      577.25
     ],
     [
      15.925369,
      49.600587,
      577.25
     ],
     [
      15.925513,
      49.600468,
      577.75
     ],
     [
      15.925633,
      49.60032,
      578.0
     ],
     [
      15.92612,
      49.599371,
      577.5
     ],
     [
      15.926512,
      49.598822,
      577.25
     ],
     [
      15.926597,
      49.598579,
      577.25
     ],
     [
      15.926627,
      49.598343,
      577.5
     ],
     [
      15.92658,
      49.597492,
      577.25
     ],
     [
      15.926599,
      49.597397,
      577.5
     ],
     [
      15.926758,
      49.597092,
      577.75
     ],
     [
      15.926915,
      49.59661,
      577.5
     ],
     [
      15.926996,
      49.596432,
      577.5
     ],
     [
      15.927103,
      49.596311,
      577.5
     ],
     [
      15.927856,
      49.595582,
      577.75
     ],
     [
      15.929271,
      49.594371,
      577.25
     ],
     [
      15.929943,
      49.593902,
      577.5
     ],
     [
      15.930044,
      49.593824,
      577.75
     ],
     [
      15.930132,
      49.593714,
      577.5
     ],
     [
      15.930435,
      49.593231,
      577.5
     ],
     [
      15.931086,
      49.592587,
      577.0
     ],
     [
      15.931219,
      49.592414,
      577.0
     ],
     [
      15.931267,
      49.59231,
      577.25
     ],
     [
      15.931273,
      49.592181,
      577.25
     ],
     [
      15.931146,
      49.591862,
      578.0
     ],
     [
      15.931123,
      49.591768,
      578.0
     ],
     [
      15.931118,
      49.591472,
      578.75
     ],
     [
      15.931108,
      49.591457,
      578.5
     ],
     [
      15.931063,
      49.591385,
      578.5
     ],
     [
      15.931009,
      49.591328,
      578.75
     ],
     [
      15.930795,
      49.591198,
      578.5
     ],
     [
      15.930731,
      49.591115,
      578.25
     ],
     [
      15.930564,
      49.590613,
      579.5
     ],
     [
      15.930487,
      49.590443,
      579.0
     ],
     [
      15.930419,
      49.590322,
      578.25
     ],
     [
      15.930453,
      49.590144,
      579.0
     ],
     [
      15.930452,
      49.589958,
      579.5
     ],
     [
      15.930483,
      49.589863,
      579.5
     ],
     [
      15.930567,
      49.589858,
      580.0
     ],
     [
      15.930666,
      49.589821,
      580.75
     ],
     [
      15.930837,
      49.589732,
      582.0
     ],
     [
      15.930862,
      49.589719,
      582.0
     ],
     [
      15.930887,
      49.589705,
      582.0
     ],
     [
      15.930982,
      49.589743,
      582.5
     ],
     [
      15.930887,
      49.589705,
      582.0
     ],
     [
      15.930862,
      49.589719,
      582.0
     ],
     [
      15.930837,
      49.589732,
      582.0
     ],
     [
      15.930666,
      49.589821,
      580.75
     ],
     [
      15.930567,
      49.589858,
      580.0
     ],
     [
      15.930483,
      49.589863,
      579.5
     ],
     [
      15.930452,
      49.589958,
      579.5
     ],
     [
      15.930453,
      49.590144,
      579.0
     ],
     [
      15.930419,
      49.590322,
      578.25
     ],
     [
      15.930186,
      49.589906,
      578.25
     ],
     [
      15.930153,
      49.589816,
      578.25
     ],
     [
      15.93017,
      49.589712,
      578.5
     ],
     [
      15.930432,
      49.589109,
      578.25
     ],
     [
      15.930501,
      49.589042,
      578.25
     ],
     [
      15.930594,
      49.588989,
      578.25
     ],
     [
      15.930963,
      49.588812,
      579.25
     ],
     [
      15.931076,
      49.588731,
      579.25
     ],
     [
      15.931198,
      49.588606,
      578.75
     ],
     [
      15.931248,
      49.588494,
      578.5
     ],
     [
      15.931768,
      49.588583,
      579.5
     ],
     [
      15.931969,
      49.588618,
      580.0
     ],
     [
      15.932186,
      49.588655,
      580.0
     ],
     [
      15.932393,
      49.58869,
      579.75
     ],
     [
      15.932599,
      49.588725,
      580.0
     ],
     [
      15.932779,
      49.588738,
      580.75
     ],
     [
      15.932816,
      49.58874,
      581.0
     ],
     [
      15.93292,
      49.588749,
      581.25
     ],
     [
      15.933168,
      49.588794,
      582.0
     ],
     [
      15.93317,
      49.588787,
      576.0
     ],
     [
      15.933168,
      49.588794,
      582.0
     ],
     [
      15.93292,
      49.588749,
      581.25
     ],
     [
      15.932816,
      49.58874,
      581.0
     ],
     [
      15.932779,
      49.588738,
      580.75
     ],
     [
      15.932599,
      49.588725,
      580.0
     ],
     [
      15.932393,
      49.58869,
      579.75
     ],
     [
      15.932186,
      49.588655,
      580.0
     ],
     [
      15.931969,
      49.588618,
      580.0
     ],
     [
      15.931768,
      49.588583,
      579.5
     ],
     [
      15.931248,
      49.588494,
      578.5
     ],
     [
      15.930759,
      49.588265,
      577.0
     ],
     [
      15.930521,
      49.587911,
      576.25
     ],
     [
      15.930578,
      49.587514,
      576.0
     ],
     [
      15.930642,
      49.587255,
      575.25
     ],
     [
      15.930695,
      49.58696,
      573.5
     ],
     [
      15.930727,
      49.586454,
      571.0
     ],
     [
      15.93076,
      49.586324,
      570.75
     ],
     [
      15.930909,
      49.585928,
      571.0
     ],
     [
      15.930986,
      49.585592,
      571.25
     ],
     [
      15.931031,
      49.585499,
      570.75
     ],
     [
      15.931168,
      49.585402,
      569.75
     ],
     [
      15.93129,
      49.585361,
      569.75
     ],
     [
      15.931419,
      49.585345,
      569.5
     ],
     [
      15.931589,
      49.585361,
      569.25
     ],
     [
      15.932718,
      49.58556,
      570.0
     ],
     [
      15.932811,
      49.585471,
      569.75
     ],
     [
      15.932888,
      49.585329,
      569.75
     ],
     [
      15.933214,
      49.584295,
      569.0
     ],
     [
      15.933386,
      49.584304,
      569.0
     ],
     [
      15.93368,
      49.584244,
      569.25
     ],
     [
      15.933923,
      49.584141,
      569.0
     ],
     [
      15.934184,
      49.583984,
      569.25
     ],
     [
      15.934545,
      49.583708,
      569.25
     ],
     [
      15.934708,
      49.583646,
      570.0
     ],
     [
      15.934889,
      49.583604,
      569.75
     ],
     [
      15.935227,
      49.583548,
      570.5
     ],
     [
      15.935345,
      49.583408,
      570.25
     ],
     [
      15.935425,
      49.583154,
      569.5
     ],
     [
      15.935467,
      49.583002,
      569.25
     ],
     [
      15.935425,
      49.583154,
      569.5
     ],
     [
      15.935345,
      49.583408,
      570.25
     ],
     [
      15.935227,
      49.583548,
      570.5
     ],
     [
      15.934889,
      49.583604,
      569.75
     ],
     [
      15.934708,
      49.583646,
      570.0
     ],
     [
      15.934545,
      49.583708,
      569.25
     ],
     [
      15.934184,
      49.583984,
      569.25
     ],
     [
      15.933923,
      49.584141,
      569.0
     ],
     [
      15.93368,
      49.584244,
      569.25
     ],
     [
      15.933386,
      49.584304,
      569.0
     ],
     [
      15.933214,
      49.584295,
      569.0
     ],
     [
      15.932888,
      49.585329,
      569.75
     ],
     [
      15.932811,
      49.585471,
      569.75
     ],
     [
      15.932718,
      49.58556,
      570.0
     ],
     [
      15.931589,
      49.585361,
      569.25
     ],
     [
      15.931419,
      49.585345,
      569.5
     ],
     [
      15.93129,
      49.585361,
      569.75
     ],
     [
      15.931168,
      49.585402,
      569.75
     ],
     [
      15.931031,
      49.585499,
      570.75
     ],
     [
      15.930986,
      49.585592,
      571.25
     ],
     [
      15.930909,
      49.585928,
      571.0
     ],
     [
      15.93076,
      49.586324,
      570.75
     ],
     [
      15.930727,
      49.586454,
      571.0
     ],
     [
      15.930695,
      49.58696,
      573.5
     ],
     [
      15.930642,
      49.587255,
      575.25
     ],
     [
      15.930578,
      49.587514,
      576.0
     ],
     [
      15.930521,
      49.587911,
      576.25
     ],
     [
      15.930759,
      49.588265,
      577.0
     ],
     [
      15.931248,
      49.588494,
      578.5
     ],
     [
      15.931768,
      49.588583,
      579.5
     ],
     [
      15.931969,
      49.588618,
      580.0
     ],
     [
      15.932186,
      49.588655,
      580.0
     ],
     [
      15.932393,
      49.58869,
      579.75
     ],
     [
      15.932599,
      49.588725,
      580.0
     ],
     [
      15.932779,
      49.588738,
      580.75
     ],
     [
      15.932816,
      49.58874,
      581.0
     ],
     [
      15.93292,
      49.588749,
      581.25
     ],
     [
      15.933168,
      49.588794,
      582.0
     ],
     [
      15.93317,
      49.588787,
      576.0
     ],
     [
      15.933168,
      49.588794,
      582.0
     ],
     [
      15.93292,
      49.588749,
      581.25
     ],
     [
      15.932816,
      49.58874,
      581.0
     ],
     [
      15.932779,
      49.588738,
      580.75
     ],
     [
      15.932599,
      49.588725,
      580.0
     ],
     [
      15.932393,
      49.58869,
      579.75
     ],
     [
      15.932186,
      49.588655,
      580.0
     ],
     [
      15.931969,
      49.588618,
      580.0
     ],
     [
      15.931768,
      49.588583,
      579.5
     ],
     [
      15.931248,
      49.588494,
      578.5
     ],
     [
      15.931198,
      49.588606,
      578.75
     ],
     [
      15.931076,
      49.588731,
      579.25
     ],
     [
      15.930963,
      49.588812,
      579.25
     ],
     [
      15.930594,
      49.588989,
      578.25
     ],
     [
      15.930501,
      49.589042,
      578.25
     ],
     [
      15.930432,
      49.589109,
      578.25
     ],
     [
      15.93017,
      49.589712,
      578.5
     ],
     [
      15.930153,
      49.589816,
      578.25
     ],
     [
      15.930186,
      49.589906,
      578.25
     ],
     [
      15.930419,
      49.590322,
      578.25
     ],
     [
      15.930453,
      49.590144,
      579.0
     ],
     [
      15.930452,
      49.589958,
      579.5
     ],
     [
      15.930483,
      49.589863,
      579.5
     ],
     [
      15.930567,
      49.589858,
      580.0
     ],
     [
      15.930666,
      49.589821,
      580.75
     ],
     [
      15.930837,
      49.589732,
      582.0
     ],
     [
      15.930862,
      49.589719,
      582.0
     ],
     [
      15.930887,
      49.589705,
      582.0
     ],
     [
      15.930982,
      49.589743,
      582.5
     ],
     [
      15.930887,
      49.589705,
      582.0
     ],
     [
      15.930862,
      49.589719,
      582.0
     ],
     [
      15.930837,
      49.589732,
      582.0
     ],
     [
      15.930666,
      49.589821,
      580.75
     ],
     [
      15.930567,
      49.589858,
      580.0
     ],
     [
      15.930483,
      49.589863,
      579.5
     ],
     [
      15.930452,
      49.589958,
      579.5
     ],
     [
      15.930453,
      49.590144,
      579.0
     ],
     [
      15.930419,
      49.590322,
      578.25
     ],
     [
      15.930487,
      49.590443,
      579.0
     ],
     [
      15.930564,
      49.590613,
      579.5
     ],
     [
      15.930731,
      49.591115,
      578.25
     ],
     [
      15.930795,
      49.591198,
      578.5
     ],
     [
      15.931009,
      49.591328,
      578.75
     ],
     [
      15.931063,
      49.591385,
      578.5
     ],
     [
      15.931108,
      49.591457,
      578.5
     ],
     [
      15.931118,
      49.591472,
      578.75
     ],
     [
      15.931123,
      49.591768,
      578.0
     ],
     [
      15.931146,
      49.591862,
      578.0
     ],
     [
      15.931273,
      49.592181,
      577.25
     ],
     [
      15.931267,
      49.59231,
      577.25
     ],
     [
      15.931219,
      49.592414,
      577.0
     ],
     [
      15.931086,
      49.592587,
      577.0
     ],
     [
      15.930435,
      49.593231,
      577.5
     ],
     [
      15.930132,
      49.593714,
      577.5
     ],
     [
      15.930044,
      49.593824,
      577.75
     ],
     [
      15.929943,
      49.593902,
      577.5
     ],
     [
      15.929271,
      49.594371,
      577.25
     ],
     [
      15.927856,
      49.595582,
      577.75
     ],
     [
      15.927103,
      49.596311,
      577.5
     ],
     [
      15.926996,
      49.596432,
      577.5
     ],
     [
      15.926915,
      49.59661,
      577.5
     ],
     [
      15.926758,
      49.597092,
      577.75
     ],
     [
      15.926599,
      49.597397,
      577.5
     ],
     [
      15.92658,
      49.597492,
      577.25
     ],
     [
      15.926627,
      49.598343,
      577.5
     ],
     [
      15.926597,
      49.598579,
      577.25
     ],
     [
      15.926512,
      49.598822,
      577.25
     ],
     [
      15.92612,
      49.599371,
      577.5
     ],
     [
      15.925633,
      49.60032,
      578.0
     ],
     [
      15.925513,
      49.600468,
      577.75
     ],
     [
      15.925369,
      49.600587,
      577.25
     ],
     [
      15.925221,
      49.600677,
      577.25
     ],
     [
      15.924345,
      49.601031,
      577.5
     ],
     [
      15.924029,
      49.601198,
      577.75
     ],
     [
      15.923696,
      49.601457,
      577.0
     ],
     [
      15.923465,
      49.601733,
      577.75
     ],
     [
      15.923293,
      49.601913,
      578.25
     ],
     [
      15.922886,
      49.602079,
      577.75
     ],
     [
      15.922642,
      49.602208,
      577.75
     ],
     [
      15.922451,
      49.602374,
      577.75
     ],
     [
      15.921883,
      49.603149,
      578.75
     ],
     [
      15.922174,
      49.603275,
      579.0
     ],
     [
      15.922587,
      49.603579,
      580.0
     ],
     [
      15.923471,
      49.604353,
      579.5
     ],
     [
      15.923315,
      49.604484,
      579.75
     ],
     [
      15.923143,
      49.604628,
      579.75
     ],
     [
      15.922911,
      49.604776,
      580.25
     ],
     [
      15.922059,
      49.605297,
      581.25
     ],
     [
      15.921761,
      49.605511,
      581.0
     ],
     [
      15.921101,
      49.606077,
      580.75
     ],
     [
      15.920442,
      49.606408,
      582.0
     ],
     [
      15.920008,
      49.606546,
      582.0
     ],
     [
      15.91968,
      49.606636,
      581.75
     ],
     [
      15.919295,
      49.606675,
      582.0
     ],
     [
      15.918982,
      49.606693,
      581.25
     ],
     [
      15.918628,
      49.606662,
      580.75
     ],
     [
      15.918573,
      49.606655,
      580.75
     ],
     [
      15.918341,
      49.60663,
      580.75
     ],
     [
      15.918247,
      49.606633,
      580.75
     ],
     [
      15.917613,
      49.606652,
      580.75
     ],
     [
      15.917301,
      49.60674,
      581.25
     ],
     [
      15.916874,
      49.606907,
      582.25
     ],
     [
      15.916737,
      49.606985,
      582.75
     ],
     [
      15.916414,
      49.607183,
      584.75
     ],
     [
      15.91628,
      49.607299,
      586.0
     ],
     [
      15.915808,
      49.607413,
      590.25
     ],
     [
      15.915683,
      49.607433,
      594.25
     ],
     [
      15.915336,
      49.607491,
      594.25
     ],
     [
      15.915298,
      49.607502,
      594.75
     ],
     [
      15.915125,
      49.607554,
      595.75
     ],
     [
      15.915067,
      49.607593,
      596.25
     ],
     [
      15.914762,
      49.607802,
      596.5
     ],
     [
      15.914667,
      49.607921,
      596.25
     ],
     [
      15.914535,
      49.607996,
      596.0
     ],
     [
      15.914101,
      49.608061,
      597.5
     ],
     [
      15.913582,
      49.608197,
      599.5
     ],
     [
      15.913272,
      49.608267,
      599.0
     ],
     [
      15.913,
      49.608307,
      599.5
     ],
     [
      15.911217,
      49.608889,
      595.0
     ],
     [
      15.910512,
      49.609101,
      595.25
     ],
     [
      15.910155,
      49.609272,
      593.75
     ],
     [
      15.909449,
      49.609533,
      593.25
     ],
     [
      15.908883,
      49.610001,
      591.75
     ],
     [
      15.908721,
      49.610106,
      591.5
     ],
     [
      15.908496,
      49.610227,
      591.5
     ],
     [
      15.908347,
      49.610316,
      591.75
     ],
     [
      15.908173,
      49.610461,
      591.75
     ],
     [
      15.907978,
      49.610593,
      592.5
     ],
     [
      15.907706,
      49.610842,
      593.0
     ],
     [
      15.907498,
      49.61109,
      593.75
     ],
     [
      15.907342,
      49.611219,
      594.5
     ],
     [
      15.907037,
      49.611414,
      595.5
     ],
     [
      15.906468,
      49.611811,
      596.75
     ],
     [
      15.906066,
      49.612128,
      598.75
     ],
     [
      15.905677,
      49.612556,
      600.75
     ],
     [
      15.905366,
      49.612776,
      601.75
     ],
     [
      15.904881,
      49.613019,
      602.75
     ],
     [
      15.904701,
      49.613189,
      603.5
     ],
     [
      15.904546,
      49.613374,
      603.75
     ],
     [
      15.904405,
      49.613645,
      603.75
     ],
     [
      15.904303,
      49.613981,
      602.0
     ],
     [
      15.904196,
      49.614142,
      601.0
     ],
     [
      15.903725,
      49.614768,
      599.75
     ],
     [
      15.903682,
      49.615019,
      598.75
     ],
     [
      15.903585,
      49.615356,
      599.25
     ],
     [
      15.903458,
      49.615683,
      598.5
     ],
     [
      15.903313,
      49.615941,
      599.5
     ],
     [
      15.90307,
      49.616164,
      599.75
     ],
     [
      15.902886,
      49.616347,
      600.0
     ],
     [
      15.90274,
      49.616517,
      600.25
     ],
     [
      15.902701,
      49.616576,
      600.5
     ],
     [
      15.902706,
      49.616652,
      600.75
     ],
     [
      15.902871,
      49.616793,
      600.75
     ],
     [
      15.903303,
      49.617228,
      600.0
     ],
     [
      15.903439,
      49.617485,
      600.75
     ],
     [
      15.90347,
      49.617718,
      601.75
     ],
     [
      15.903395,
      49.618086,
      603.0
     ],
     [
      15.903182,
      49.618567,
      604.75
     ],
     [
      15.902978,
      49.618851,
      606.25
     ],
     [
      15.902722,
      49.619113,
      606.75
     ],
     [
      15.902138,
      49.619719,
      609.75
     ],
     [
      15.902021,
      49.619955,
      610.5
     ],
     [
      15.901784,
      49.620167,
      610.5
     ],
     [
      15.901365,
      49.620541,
      610.0
     ],
     [
      15.901174,
      49.620852,
      608.75
     ],
     [
      15.901248,
      49.621016,
      608.5
     ],
     [
      15.90153,
      49.621406,
      609.0
     ],
     [
      15.90155,
      49.621706,
      610.0
     ],
     [
      15.901389,
      49.623233,
      613.5
     ],
     [
      15.901379,
      49.623552,
      614.75
     ],
     [
      15.901419,
      49.62382,
      615.5
     ],
     [
      15.90149,
      49.624015,
      615.75
     ],
     [
      15.901671,
      49.624243,
      616.5
     ],
     [
      15.901963,
      49.624478,
      617.75
     ],
     [
      15.902313,
      49.624659,
      617.0
     ],
     [
      15.901993,
      49.625319,
      613.75
     ],
     [
      15.901912,
      49.625711,
      613.5
     ],
     [
      15.901872,
      49.625972,
      615.0
     ],
     [
      15.901721,
      49.62635,
      617.5
     ],
     [
      15.901606,
      49.62659,
      618.0
     ],
     [
      15.9015,
      49.626813,
      618.5
     ],
     [
      15.901359,
      49.627165,
      618.25
     ],
     [
      15.901157,
      49.627569,
      616.25
     ],
     [
      15.901006,
      49.628019,
      615.5
     ],
     [
      15.900983,
      49.628058,
      615.25
     ],
     [
      15.900755,
      49.628437,
      616.5
     ],
     [
      15.900674,
      49.628684,
      617.75
     ],
     [
      15.900654,
      49.628926,
      618.5
     ],
     [
      15.900638,
      49.62954,
      618.5
     ],
     [
      15.900634,
      49.629715,
      618.5
     ],
     [
      15.900647,
      49.629874,
      618.25
     ],
     [
      15.900619,
      49.630065,
      617.5
     ],
     [
      15.900621,
      49.630209,
      617.0
     ],
     [
      15.900878,
      49.630566,
      616.0
     ],
     [
      15.901168,
      49.631267,
      616.0
     ],
     [
      15.901298,
      49.631547,
      616.5
     ],
     [
      15.901469,
      49.631723,
      616.5
     ],
     [
      15.901556,
      49.631769,
      616.25
     ],
     [
      15.901623,
      49.631812,
      616.0
     ],
     [
      15.901677,
      49.631846,
      616.0
     ],
     [
      15.901852,
      49.631897,
      616.0
     ],
     [
      15.90354,
      49.63199,
      616.75
     ],
     [
      15.904304,
      49.632031,
      615.5
     ],
     [
      15.905383,
      49.63209,
      614.5
     ],
     [
      15.906226,
      49.632076,
      615.0
     ],
     [
      15.907047,
      49.632013,
      616.0
     ],
     [
      15.907463,
      49.631969,
      616.0
     ],
     [
      15.907668,
      49.631948,
      616.5
     ],
     [
      15.908227,
      49.631842,
      617.0
     ],
     [
      15.909117,
      49.631733,
      618.0
     ],
     [
      15.909529,
      49.631689,
      618.75
     ],
     [
      15.911239,
      49.631872,
      618.5
     ],
     [
      15.911632,
      49.631964,
      618.75
     ],
     [
      15.912071,
      49.632125,
      619.25
     ],
     [
      15.912721,
      49.632344,
      620.75
     ],
     [
      15.912998,
      49.632367,
      621.0
     ],
     [
      15.91351,
      49.632398,
      622.0
     ],
     [
      15.913823,
      49.632432,
      622.75
     ],
     [
      15.914108,
      49.632475,
      623.75
     ],
     [
      15.914795,
      49.632628,
      624.5
     ],
     [
      15.915473,
      49.632737,
      626.0
     ],
     [
      15.915736,
      49.632739,
      626.0
     ],
     [
      15.916725,
      49.632656,
      627.5
     ],
     [
      15.917316,
      49.632598,
      629.25
     ],
     [
      15.917807,
      49.632594,
      631.0
     ],
     [
      15.918363,
      49.63258,
      632.0
     ],
     [
      15.918878,
      49.632623,
      633.75
     ],
     [
      15.919352,
      49.632712,
      636.5
     ],
     [
      15.919955,
      49.632845,
      639.25
     ],
     [
      15.920303,
      49.63295,
      641.0
     ],
     [
      15.920865,
      49.63306,
      644.0
     ],
     [
      15.921069,
      49.633073,
      645.5
     ],
     [
      15.921615,
      49.633084,
      648.5
     ],
     [
      15.921804,
      49.633081,
      649.0
     ],
     [
      15.92202,
      49.633085,
      649.5
     ],
     [
      15.922741,
      49.633151,
      652.0
     ],
     [
      15.922998,
      49.63246,
      649.75
     ],
     [
      15.924192,
      49.632565,
      651.0
     ],
     [
      15.925256,
      49.632673,
      649.0
     ],
     [
      15.926303,
      49.632779,
      646.25
     ],
     [
      15.926426,
      49.632196,
      644.5
     ],
     [
      15.926789,
      49.630487,
      646.5
     ],
     [
      15.927292,
      49.628232,
      639.25
     ],
     [
      15.92695,
      49.628202,
      639.0
     ],
     [
      15.927292,
      49.628232,
      639.25
     ],
     [
      15.926789,
      49.630487,
      646.5
     ],
     [
      15.926426,
      49.632196,
      644.5
     ],
     [
      15.926303,
      49.632779,
      646.25
     ],
     [
      15.926278,
      49.632906,
      647.0
     ],
     [
      15.926152,
      49.63355,
      650.25
     ],
     [
      15.925966,
      49.63449,
      652.5
     ],
     [
      15.925956,
      49.634577,
      652.75
     ],
     [
      15.925929,
      49.6347,
      654.0
     ],
     [
      15.925859,
      49.635033,
      654.0
     ],
     [
      15.925793,
      49.635445,
      655.5
     ],
     [
      15.925707,
      49.635822,
      656.25
     ],
     [
      15.92551,
      49.636694,
      656.75
     ],
     [
      15.926224,
      49.636628,
      654.5
     ],
     [
      15.926567,
      49.636626,
      653.25
     ],
     [
      15.927004,
      49.636511,
      651.5
     ],
     [
      15.927478,
      49.6363,
      650.25
     ],
     [
      15.927842,
      49.636487,
      651.75
     ],
     [
      15.928315,
      49.636629,
      653.5
     ],
     [
      15.92854,
      49.636754,
      654.75
     ],
     [
      15.928747,
      49.636832,
      655.25
     ],
     [
      15.929017,
      49.637018,
      656.75
     ],
     [
      15.92923,
      49.637126,
      657.75
     ],
     [
      15.929506,
      49.637249,
      658.5
     ],
     [
      15.929805,
      49.637406,
      661.25
     ],
     [
      15.9303,
      49.637804,
      663.0
     ],
     [
      15.931057,
      49.638488,
      664.25
     ],
     [
      15.931275,
      49.638651,
      662.75
     ],
     [
      15.931429,
      49.638812,
      661.75
     ],
     [
      15.93144,
      49.638864,
      661.5
     ],
     [
      15.931476,
      49.639039,
      661.5
     ],
     [
      15.931488,
      49.639202,
      661.75
     ],
     [
      15.931485,
      49.639404,
      662.5
     ],
     [
      15.931297,
      49.639752,
      665.75
     ],
     [
      15.93132,
      49.639969,
      666.25
     ],
     [
      15.931729,
      49.640623,
      665.75
     ],
     [
      15.931833,
      49.640917,
      665.75
     ],
     [
      15.931971,
      49.641182,
      665.0
     ],
     [
      15.932235,
      49.641546,
      666.0
     ],
     [
      15.93229,
      49.641764,
      667.25
     ],
     [
      15.932293,
      49.641776,
      667.25
     ],
     [
      15.932319,
      49.642141,
      669.0
     ],
     [
      15.932419,
      49.642335,
      669.25
     ],
     [
      15.932763,
      49.642547,
      669.25
     ],
     [
      15.933051,
      49.642874,
      671.5
     ],
     [
      15.933476,
      49.643165,
      672.75
     ],
     [
      15.933765,
      49.643349,
      673.5
     ],
     [
      15.935538,
      49.643966,
      674.75
     ],
     [
      15.936519,
      49.644593,
      676.75
     ],
     [
      15.936723,
      49.644895,
      678.0
     ],
     [
      15.936872,
      49.645066,
      677.0
     ],
     [
      15.937085,
      49.645186,
      675.5
     ],
     [
      15.937203,
      49.645215,
      674.5
     ],
     [
      15.937503,
      49.645318,
      673.25
     ],
     [
      15.938109,
      49.645549,
      671.75
     ],
     [
      15.938204,
      49.645569,
      671.5
     ],
     [
      15.947115,
      49.645581,
      688.75
     ],
     [
      15.948854,
      49.645498,
      692.0
     ],
     [
      15.95057,
      49.645436,
      692.25
     ],
     [
      15.950979,
      49.645456,
      692.75
     ],
     [
      15.9518,
      49.645496,
      693.0
     ],
     [
      15.952425,
      49.645516,
      692.25
     ],
     [
      15.952976,
      49.645608,
      692.0
     ],
     [
      15.953988,
      49.645919,
      691.5
     ],
     [
      15.958422,
      49.647425,
      689.75
     ],
     [
      15.958652,
      49.647582,
      690.5
     ],
     [
      15.9588,
      49.647725,
      691.0
     ],
     [
      15.959078,
      49.647707,
      690.0
     ],
     [
      15.95951,
      49.647356,
      687.25
     ],
     [
      15.959578,
      49.647287,
      686.75
     ],
     [
      15.959676,
      49.647268,
      686.25
     ],
     [
      15.959803,
      49.647287,
      686.25
     ],
     [
      15.959889,
      49.647337,
      686.5
     ],
     [
      15.96011,
      49.6475,
      686.5
     ],
     [
      15.960335,
      49.64759,
      685.75
     ],
     [
      15.960655,
      49.647701,
      684.25
     ],
     [
      15.960832,
      49.64775,
      683.0
     ],
     [
      15.961152,
      49.647831,
      681.75
     ],
     [
      15.96151,
      49.64795,
      680.5
     ],
     [
      15.961927,
      49.648063,
      679.0
     ],
     [
      15.962146,
      49.64808,
      677.5
     ],
     [
      15.962365,
      49.648046,
      676.5
     ],
     [
      15.962622,
      49.64799,
      675.0
     ],
     [
      15.962766,
      49.647942,
      674.25
     ],
     [
      15.962931,
      49.647878,
      673.25
     ],
     [
      15.963181,
      49.647762,
      671.75
     ],
     [
      15.963362,
      49.647641,
      670.75
     ],
     [
      15.963712,
      49.647133,
      668.5
     ],
     [
      15.963798,
      49.646981,
      668.25
     ],
     [
      15.964597,
      49.645748,
      660.75
     ],
     [
      15.965103,
      49.645755,
      661.0
     ],
     [
      15.965869,
      49.645676,
      666.75
     ],
     [
      15.966142,
      49.645584,
      667.25
     ],
     [
      15.966303,
      49.645529,
      667.25
     ],
     [
      15.967409,
      49.645041,
      667.25
     ],
     [
      15.966914,
      49.644443,
      661.75
     ],
     [
      15.966793,
      49.644313,
      660.5
     ],
     [
      15.967435,
      49.644152,
      659.75
     ],
     [
      15.968121,
      49.643916,
      658.0
     ]
    ]
   }
  }
 ]
}