{
 "type": "FeatureCollection",
 "features": [
  {
   "type": "Feature",
   "properties": {
    "creator": "BRouter-1.7.10",
    "name": "brouter_hiking-mountain_0",
    "track-length": "6680",
    "filtered ascend": "8",
    "plain-ascend": "8",
    "total-time": "4795",
    "total-energy": "69966",
    "cost": "7236",
    "messages": [
     [
      "Longitude",
      "Latitude",
      "Elevation",
      "Distance",
      "CostPerKm",
      "ElevCost",
      "TurnCost",
      "NodeCost",
      "InitialCost",
      "WayTags",
      "NodeTags",
      "Time",
      "Energy"
     ],
     [
      "15901556",
      "49631769",
      "616",
      "513",
      "1150",
      "0",
      "0",
      "0",
      "0",
      "highway=track surface=asphalt tracktype=grade1 route_hiking_nwn=yes route_hiking_rwn=yes",
      "",
      "363",
      "3746"
     ],
     [
      "15898240",
      "49631302",
      "617",
      "246",
      "1100",
      "0",
      "0",
      "0",
      "0",
      "reversedirection=yes highway=track surface=fine_gravel tracktype=grade2 bicycle=yes mtb:scale=0 route_bicycle_icn=yes route_hiking_rwn=yes",
      "",
      "542",
      "7164"
     ],
     [
      "15890229",
      "49631141",
      "620",
      "586",
      "1050",
      "0",
      "0",
      "0",
      "0",
      "reversedirection=yes highway=track tracktype=grade3 foot=yes bicycle=yes mtb:scale=0 route_bicycle_icn=yes route_hiking_rwn=yes",
      "",
      "970",
      "15685"
     ],
     [
      "15888819",
      "49631798",
      "617",
      "126",
      "1100",
      "0",
      "0",
      "0",
      "0",
      "reversedirection=yes highway=track surface=compacted tracktype=grade2 foot=yes bicycle=yes mtb:scale=0 route_bicycle_icn=yes route_hiking_rwn=yes",
      "",
      "1055",
      "15786"
     ],
     [
      "15888772",
      "49631743",
      "617",
      "7",
      "1000",
      "0",
      "0",
      "0",
      "0",
      "reversedirection=yes highway=path surface=unpaved mtb:scale=1 route_hiking_rwn=yes",
      "",
      "1060",
      "15786"
     ],
     [
      "15888819",
      "49631798",
      "617",
      "7",
      "1000",
      "0",
      "0",
      "0",
      "0",
      "highway=path surface=unpaved mtb:scale=1 route_hiking_rwn=yes",
      "",
      "1065",
      "15851"
     ],
     [
      "15885135",
      "49635227",
      "618",
      "520",
      "1100",
      "0",
      "0",
      "0",
      "0",
      "reversedirection=yes highway=track surface=compacted tracktype=grade2 foot=yes bicycle=yes route_bicycle_icn=yes route_hiking_rwn=yes",
      "",
      "1438",
      "21244"
     ],
     [
      "15882830",
      "49637876",
      "617",
      "339",
      "1050",
      "0",
      "0",
      "0",
      "0",
      "reversedirection=yes highway=track tracktype=grade3 bicycle=yes route_bicycle_icn=yes route_hiking_rwn=yes",
      "",
      "1678",
      "23285"
     ],
     [
      "15882060",
      "49638923",
      "618",
      "130",
      "1050",
      "0",
      "0",
      "0",
      "0",
      "reversedirection=yes highway=track tracktype=grade3 bicycle=yes route_bicycle_icn=yes route_hiking_rwn=yes route_hiking_lwn=yes",
      "",
      "1773",
      "25292"
     ],
     [
      "15880578",
      "49640936",
      "619",
      "293",
      "1050",
      "0",
      "0",
      "0",
      "0",
      "reversedirection=yes highway=path surface=wood bicycle=yes route_bicycle_icn=yes route_hiking_rwn=yes route_hiking_lwn=yes",
      "",
      "1984",
      "28534"
     ],
     [
      "15883340",
      "49646471",
      "618",
      "735",
      "1100",
      "0",
      "0",
      "0",
      "0",
      "reversedirection=yes highway=track tracktype=grade2 bicycle=yes route_bicycle_icn=yes route_hiking_rwn=yes route_hiking_lwn=yes",
      "nodeaccessgranted=yes barrier=bollard",
      "2509",
      "35286"
     ],
     [
      "15884146",
      "49650983",
      "620",
      "581",
      "1100",
      "0",
      "0",
      "0",
      "0",
      "reversedirection=yes highway=track tracktype=grade2 bicycle=yes route_bicycle_icn=yes route_hiking_rwn=yes route_hiking_lwn=yes",
      "",
      "2926",
      "41301"
     ],
     [
      "15887236",
      "49650536",
      "616",
      "230",
      "1050",
      "0",
      "0",
      "0",
      "0",
      "highway=path foot=yes mtb:scale=0 route_hiking_lwn=yes",
      "",
      "3084",
      "41354"
     ],
     [
      "15887394",
      "49650536",
      "616",
      "11",
      "1000",
      "0",
      "0",
      "0",
      "0",
      "highway=path surface=wood foot=yes mtb:scale=1 route_hiking_lwn=yes",
      "",
      "3091",
      "41403"
     ],
     [
      "15887628",
      "49650521",
      "616",
      "17",
      "1600",
      "0",
      "0",
      "0",
      "0",
      "highway=path foot=yes mtb:scale=2 route_hiking_lwn=yes",
      "",
      "3103",
      "41490"
     ],
     [
      "15888444",
      "49656265",
      "619",
      "693",
      "1050",
      "0",
      "0",
      "0",
      "0",
      "reversedirection=yes highway=path foot=yes route_hiking_lwn=yes",
      "",
      "3605",
      "50235"
     ],
     [
      "15888436",
      "49656263",
      "619",
      "1",
      "1500",
      "0",
      "0",
      "0",
      "0",
      "highway=unclassified surface=asphalt route_hiking_lwn=yes",
      "",
      "3606",
      "50246"
     ],
     [
      "15888444",
      "49656265",
      "619",
      "1",
      "1500",
      "0",
      "0",
      "0",
      "0",
      "reversedirection=yes highway=unclassified surface=asphalt route_hiking_lwn=yes",
      "",
      "3607",
      "50258"
     ],
     [
      "15887628",
      "49650521",
      "616",
      "693",
      "1050",
      "0",
      "0",
      "0",
      "0",
      "highway=path foot=yes route_hiking_lwn=yes",
      "",
      "4095",
      "54428"
     ],
     [
      "15887394",
      "49650536",
      "616",
      "17",
      "1600",
      "0",
      "0",
      "0",
      "0",
      "reversedirection=yes highway=path foot=yes mtb:scale=2 route_hiking_lwn=yes",
      "",
      "4107",
      "54519"
     ],
     [
      "15887236",
      "49650536",
      "616",
      "11",
      "1000",
      "0",
      "0",
      "0",
      "0",
      "reversedirection=yes highway=path surface=wood foot=yes mtb:scale=1 route_hiking_lwn=yes",
      "",
      "4115",
      "54584"
     ],
     [
      "15884146",
      "49650983",
      "620",
      "230",
      "1050",
      "0",
      "0",
      "0",
      "0",
      "reversedirection=yes highway=path foot=yes mtb:scale=0 route_hiking_lwn=yes",
      "",
      "4286",
      "58955"
     ],
     [
      "15882458",
      "49651732",
      "620",
      "153",
      "1100",
      "0",
      "0",
      "0",
      "0",
      "reversedirection=yes highway=track tracktype=grade2 bicycle=yes route_bicycle_icn=yes route_hiking_rwn=yes",
      "",
      "4398",
      "61405"
     ],
     [
      "15875405",
      "49652771",
      "625",
      "534",
      "1100",
      "0",
      "0",
      "0",
      "0",
      "reversedirection=yes highway=residential surface=asphalt route_bicycle_icn=yes route_hiking_rwn=yes",
      "",
      "4790",
      "69876"
     ],
     [
      "15875451",
      "49652821",
      "624",
      "6",
      "1320",
      "0",
      "0",
      "0",
      "0",
      "highway=residential surface=asphalt route_bicycle_icn=yes",
      "",
      "4794",
      "69966"
     ]
    ],
    "times": [
     0,
     17.021,
     46.449,
     56.841,
     77.756,
     118.861,
     160.908,
     216.995,
     257.776,
     345.04,
     355.05,
     358.625,
     363.672,
     406.35,
     506.847,
     542.801,
     570.433,
     644.484,
     708.186,
     765.776,
     798.499,
     832.208,
     970.646,
     992.968,
     1043.635,
     1055.769,
     1060.521,
     1065.524,
     1106.433,
     1174.288,
     1229.214,
     1248.067,
     1310.397,
     1385.688,
     1438.852,
     1647.25,
     1678.065,
     1678.795,
     1773.292,
     1884.979,
     1901.818,
     1915.666,
     1932.108,
     1984.222,
     2058.954,
     2102.221,
     2129.202,
     2264.444,
     2282.921,
     2387.274,
     2509.5,
     2525.718,
     2550.299,
     2566.188,
     2585.348,
     2615.644,
     2643.575,
     2674.447,
     2734.276,
     2778.078,
     2795.501,
     2811.158,
     2826.829,
     2847.25,
     2926.661,
     2979.848,
     3084.136,
     3091.85,
     3103.802,
     3115.784,
     3125.672,
     3137.699,
     3149.036,
     3176.213,
     3201.426,
     3218.354,
     3234.577,
     3267.668,
     3285.59,
     3321.217,
     3374.494,
     3401.451,
     3421.435,
     3437.266,
     3450.202,
     3462.311,
     3485.293,
     3492.409,
     3500.175,
     3518.136,
     3534.643,
     3551.987,
     3567.725,
     3586.321,
     3597.857,
     3605.844,
     3606.564,
     3607.285,
     3615.146,
     3626.489,
     3644.95,
     3660.716,
     3677.773,
     3694.139,
     3711.671,
     3719.474,
     3726.632,
     3749.362,
     3761.551,
     3774.451,
     3790.086,
     3810.317,
     3836.777,
     3888.97,
     3923.046,
     3939.987,
     3970.286,
     3985.478,
     4001.1,
     4025,
     4051.122,
     4062.224,
     4074.074,
     4083.867,
     4095.796,
     4107.759,
     4115.516,
     4228.125,
     4286.415,
     4327.627,
     4349.478,
     4373.018,
     4398.744,
     4413.461,
     4515.432,
     4546.826,
     4559.368,
     4569.905,
     4580.543,
     4593.246,
     4633.449,
     4651.509,
     4694.544,
     4729.017,
     4790.609,
     4794.995
    ]
   },
   "geometry": {
    "type": "LineString",
    "coordinates": [
     [
      15.908552,
      49.631802,
      617.25
     ],
     [
      15.908227,
      49.631842,
      617.0
     ],
     [
      15.907668,
      49.631948,
      616.5
     ],
     [
      15.907463,
      49.631969,
      616.0
     ],
     [
      15.907047,
      49.632013,
      616.0
     ],
     [
      15.906226,
      49.632076,
      615.0
     ],
     [
      15.905383,
      49.63209,
      614.5
     ],
     [
      15.904304,
      49.632031,
      615.5
     ],
     [
      15.90354,
      49.63199,
      616.75
     ],
     [
      15.901852,
      49.631897,
      616.0
     ],
     [
      15.901677,
      49.631846,
      616.0
     ],
     [
      15.901623,
      49.631812,
      616.0
     ],
     [
      15.901556,
      49.631769,
      616.25
     ],
     [
      15.900791,
      49.631647,
      617.75
     ],
     [
      15.898904,
      49.63145,
      617.75
     ],
     [
      15.89824,
      49.631302,
      617.0
     ],
     [
      15.897737,
      49.631174,
      617.0
     ],
     [
      15.896379,
      49.631029,
      619.25
     ],
     [
      15.895211,
      49.630972,
      620.5
     ],
     [
      15.894147,
      49.630911,
      621.5
     ],
     [
      15.893538,
      49.631005,
      621.25
     ],
     [
      15.892929,
      49.631136,
      621.75
     ],
     [
      15.890229,
      49.631141,
      620.75
     ],
     [
      15.889942,
      49.631361,
      620.0
     ],
     [
      15.889037,
      49.631714,
      617.75
     ],
     [
      15.888819,
      49.631798,
      617.25
     ],
     [
      15.888772,
      49.631743,
      617.5
     ],
     [
      15.888819,
      49.631798,
      617.25
     ],
     [
      15.888059,
      49.631978,
      616.75
     ],
     [
      15.886961,
      49.63245,
      617.0
     ],
     [
      15.88599,
      49.632694,
      618.0
     ],
     [
      15.88581,
      49.632897,
      618.0
     ],
     [
      15.885542,
      49.63367,
      617.25
     ],
     [
      15.885481,
      49.634601,
      618.0
     ],
     [
      15.885135,
      49.635227,
      618.0
     ],
     [
      15.88308,
      49.637537,
      616.25
     ],
     [
      15.88283,
      49.637876,
      617.25
     ],
     [
      15.882827,
      49.637879,
      618.5
     ],
     [
      15.88206,
      49.638923,
      618.5
     ],
     [
      15.881125,
      49.640192,
      618.25
     ],
     [
      15.880827,
      49.640122,
      619.0
     ],
     [
      15.880717,
      49.640275,
      619.0
     ],
     [
      15.881008,
      49.640354,
      618.5
     ],
     [
      15.880578,
      49.640936,
      619.0
     ],
     [
      15.879956,
      49.641781,
      619.0
     ],
     [
      15.879704,
      49.642292,
      619.25
     ],
     [
      15.880014,
      49.642557,
      619.75
     ],
     [
      15.881856,
      49.643817,
      618.0
     ],
     [
      15.882106,
      49.643982,
      618.0
     ],
     [
      15.883439,
      49.644912,
      620.0
     ],
     [
      15.88334,
      49.646471,
      618.5
     ],
     [
      15.883239,
      49.646669,
      618.25
     ],
     [
      15.883042,
      49.646953,
      618.0
     ],
     [
      15.882994,
      49.647152,
      618.75
     ],
     [
      15.883017,
      49.647398,
      618.25
     ],
     [
      15.883195,
      49.647753,
      618.75
     ],
     [
      15.883441,
      49.648056,
      619.5
     ],
     [
      15.883765,
      49.648382,
      619.0
     ],
     [
      15.884491,
      49.648968,
      618.75
     ],
     [
      15.885028,
      49.649416,
      617.75
     ],
     [
      15.885184,
      49.649612,
      617.5
     ],
     [
      15.885262,
      49.6498,
      618.0
     ],
     [
      15.885229,
      49.649995,
      618.0
     ],
     [
      15.885061,
      49.650226,
      618.75
     ],
     [
      15.884146,
      49.650983,
      620.0
     ],
     [
      15.885212,
      49.65093,
      618.0
     ],
     [
      15.887236,
      49.650536,
      616.0
     ],
     [
      15.887394,
      49.650536,
      616.0
     ],
     [
      15.887628,
      49.650521,
      616.0
     ],
     [
      15.887622,
      49.650676,
      616.0
     ],
     [
      15.887582,
      49.650802,
      616.0
     ],
     [
      15.887521,
      49.650954,
      616.0
     ],
     [
      15.887589,
      49.651087,
      616.0
     ],
     [
      15.887571,
      49.651425,
      616.25
     ],
     [
      15.887308,
      49.65169,
      616.5
     ],
     [
      15.887199,
      49.651884,
      617.25
     ],
     [
      15.887136,
      49.652073,
      617.5
     ],
     [
      15.887131,
      49.652468,
      618.5
     ],
     [
      15.887192,
      49.652677,
      618.75
     ],
     [
      15.887538,
      49.653043,
      619.0
     ],
     [
      15.888118,
      49.653584,
      619.0
     ],
     [
      15.888441,
      49.653844,
      619.25
     ],
     [
      15.888498,
      49.654093,
      618.75
     ],
     [
      15.888627,
      49.654275,
      619.0
     ],
     [
      15.888654,
      49.654434,
      619.0
     ],
     [
      15.888603,
      49.654584,
      618.75
     ],
     [
      15.888656,
      49.654866,
      619.0
     ],
     [
      15.888542,
      49.654924,
      618.75
     ],
     [
      15.888505,
      49.655018,
      618.5
     ],
     [
      15.888678,
      49.655214,
      619.0
     ],
     [
      15.888632,
      49.655423,
      619.0
     ],
     [
      15.888715,
      49.655629,
      619.25
     ],
     [
      15.888559,
      49.655803,
      619.0
     ],
     [
      15.888518,
      49.656038,
      619.0
     ],
     [
      15.888533,
      49.656181,
      619.25
     ],
     [
      15.888444,
      49.656265,
      619.5
     ],
     [
      15.888436,
      49.656263,
      619.0
     ],
     [
      15.888444,
      49.656265,
      619.5
     ],
     [
      15.888533,
      49.656181,
      619.25
     ],
     [
      15.888518,
      49.656038,
      619.0
     ],
     [
      15.888559,
      49.655803,
      619.0
     ],
     [
      15.888715,
      49.655629,
      619.25
     ],
     [
      15.888632,
      49.655423,
      619.0
     ],
     [
      15.888678,
      49.655214,
      619.0
     ],
     [
      15.888505,
      49.655018,
      618.5
     ],
     [
      15.888542,
      49.654924,
      618.75
     ],
     [
      15.888656,
      49.654866,
      619.0
     ],
     [
      15.888603,
      49.654584,
      618.75
     ],
     [
      15.888654,
      49.654434,
      619.0
     ],
     [
      15.888627,
      49.654275,
      619.0
     ],
     [
      15.888498,
      49.654093,
      618.75
     ],
     [
      15.888441,
      49.653844,
      619.25
     ],
     [
      15.888118,
      49.653584,
      619.0
     ],
     [
      15.887538,
      49.653043,
      619.0
     ],
     [
      15.887192,
      49.652677,
      618.75
     ],
     [
      15.887131,
      49.652468,
      618.5
     ],
     [
      15.887136,
      49.652073,
      617.5
     ],
     [
      15.887199,
      49.651884,
      617.25
     ],
     [
      15.887308,
      49.65169,
      616.5
     ],
     [
      15.887571,
      49.651425,
      616.25
     ],
     [
      15.887589,
      49.651087,
      616.0
     ],
     [
      15.887521,
      49.650954,
      616.0
     ],
     [
      15.887582,
      49.650802,
      616.0
     ],
     [
      15.887622,
      49.650676,
      616.0
     ],
     [
      15.887628,
      49.650521,
      616.0
     ],
     [
      15.887394,
      49.650536,
      616.0
     ],
     [
      15.887236,
      49.650536,
      616.0
     ],
     [
      15.885212,
      49.65093,
      618.0
     ],
     [
      15.884146,
      49.650983,
      620.0
     ],
     [
      15.883642,
      49.651362,
      620.0
     ],
     [
      15.88333,
      49.651536,
      620.0
     ],
     [
      15.882927,
      49.651651,
      620.5
     ],
     [
      15.882458,
      49.651732,
      620.75
     ],
     [
      15.882191,
      49.651787,
      621.0
     ],
     [
      15.880306,
      49.65208,
      621.25
     ],
     [
      15.879714,
      49.652133,
      621.75
     ],
     [
      15.879487,
      49.652086,
      622.25
     ],
     [
      15.879349,
      49.651993,
      623.0
     ],
     [
      15.879162,
      49.651989,
      623.5
     ],
     [
      15.878931,
      49.65202,
      623.25
     ],
     [
      15.878203,
      49.652189,
      622.25
     ],
     [
      15.877875,
      49.652264,
      622.5
     ],
     [
      15.877075,
      49.652377,
      623.0
     ],
     [
      15.87646,
      49.652501,
      623.5
     ],
     [
      15.875405,
      49.652771,
      625.0
     ],
     [
      15.875451,
      49.652821,
      624.75
     ]
    ]
   }
  }
 ]
}