{
 "type": "FeatureCollection",
 "features": [
  {
   "type": "Feature",
   "properties": {
    "creator": "BRouter-1.7.10",
    "name": "brouter_hiking-mountain_0",
    "track-length": "8120",
    "filtered ascend": "138",
    "plain-ascend": "0",
    "total-time": "5929",
    "total-energy": "142055",
    "cost": "10569",
    "messages": [
     [
      "Longitude",
      "Latitude",
      "Elevation",
      "Distance",
      "CostPerKm",
      "ElevCost",
      "TurnCost",
      "NodeCost",
      "InitialCost",
      "WayTags",
      "NodeTags",
      "Time",
      "Energy"
     ],
     [
      "15730333",
      "49703664",
      "528",
      "66",
      "4800",
      "0",
      "0",
      "0",
      "0",
      "highway=secondary surface=asphalt",
      "estimated_crossing_class=1",
      "45",
      "286"
     ],
     [
      "15731525",
      "49704158",
      "526",
      "111",
      "1320",
      "0",
      "0",
      "0",
      "0",
      "highway=residential",
      "",
      "122",
      "684"
     ],
     [
      "15732050",
      "49703933",
      "527",
      "56",
      "1260",
      "0",
      "0",
      "0",
      "0",
      "reversedirection=yes highway=path surface=unpaved foot=yes bicycle=yes",
      "",
      "160",
      "836"
     ],
     [
      "15733232",
      "49704265",
      "529",
      "114",
      "1320",
      "0",
      "0",
      "0",
      "0",
      "highway=residential surface=asphalt",
      "",
      "244",
      "2722"
     ],
     [
      "15732386",
      "49705409",
      "534",
      "142",
      "1100",
      "0",
      "0",
      "0",
      "0",
      "reversedirection=yes highway=residential route_hiking_rwn=yes",
      "nodeaccessgranted=yes estimated_crossing_class=1",
      "349",
      "5218"
     ],
     [
      "15732501",
      "49705525",
      "534",
      "15",
      "4000",
      "0",
      "0",
      "0",
      "0",
      "highway=secondary surface=asphalt route_hiking_rwn=yes",
      "nodeaccessgranted=yes estimated_crossing_class=1",
      "360",
      "5573"
     ],
     [
      "15732634",
      "49705696",
      "534",
      "21",
      "4000",
      "0",
      "0",
      "0",
      "0",
      "highway=secondary surface=asphalt route_hiking_rwn=yes",
      "nodeaccessgranted=yes railway=level_crossing",
      "376",
      "5977"
     ],
     [
      "15732664",
      "49705740",
      "534",
      "5",
      "4000",
      "0",
      "0",
      "0",
      "0",
      "highway=secondary surface=asphalt route_hiking_rwn=yes",
      "nodeaccessgranted=yes estimated_crossing_class=1",
      "379",
      "6068"
     ],
     [
      "15732756",
      "49705845",
      "535",
      "13",
      "4000",
      "0",
      "0",
      "0",
      "0",
      "highway=secondary surface=asphalt route_hiking_rwn=yes",
      "nodeaccessgranted=yes estimated_crossing_class=1",
      "389",
      "6346"
     ],
     [
      "15727165",
      "49707573",
      "536",
      "486",
      "1100",
      "0",
      "0",
      "0",
      "0",
      "highway=track surface=asphalt tracktype=grade2 mtb:scale=0 route_hiking_rwn=yes",
      "",
      "751",
      "15697"
     ],
     [
      "15726511",
      "49708216",
      "534",
      "86",
      "1150",
      "0",
      "0",
      "0",
      "0",
      "highway=track surface=asphalt tracktype=grade1 mtb:scale=0 route_hiking_rwn=yes",
      "",
      "809",
      "15697"
     ],
     [
      "15714905",
      "49714866",
      "518",
      "1227",
      "1050",
      "0",
      "0",
      "0",
      "0",
      "highway=track surface=compacted tracktype=grade3 route_hiking_rwn=yes",
      "",
      "1657",
      "22909"
     ],
     [
      "15713991",
      "49714970",
      "516",
      "74",
      "1150",
      "0",
      "0",
      "0",
      "0",
      "highway=path surface=dirt route_hiking_rwn=yes",
      "",
      "1706",
      "22909"
     ],
     [
      "15713679",
      "49714793",
      "512",
      "30",
      "1380",
      "0",
      "0",
      "0",
      "0",
      "highway=path surface=dirt",
      "",
      "1725",
      "22909"
     ],
     [
      "15713991",
      "49714970",
      "516",
      "30",
      "1380",
      "0",
      "0",
      "0",
      "0",
      "reversedirection=yes highway=path surface=dirt",
      "",
      "1748",
      "23603"
     ],
     [
      "15714282",
      "49714730",
      "503",
      "37",
      "1050",
      "0",
      "0",
      "0",
      "0",
      "highway=path route_hiking_rwn=yes",
      "",
      "1772",
      "23603"
     ],
     [
      "15714046",
      "49714654",
      "496",
      "21",
      "3000",
      "0",
      "0",
      "0",
      "0",
      "highway=steps route_hiking_rwn=yes",
      "",
      "1788",
      "23603"
     ],
     [
      "15713878",
      "49714537",
      "493",
      "18",
      "1050",
      "0",
      "0",
      "0",
      "0",
      "highway=path route_hiking_rwn=yes",
      "",
      "1801",
      "23603"
     ],
     [
      "15713843",
      "49714484",
      "491",
      "6",
      "1050",
      "0",
      "0",
      "0",
      "0",
      "reversedirection=yes highway=path route_hiking_rwn=yes",
      "",
      "1806",
      "23603"
     ],
     [
      "15712740",
      "49714546",
      "484",
      "159",
      "1150",
      "0",
      "0",
      "0",
      "0",
      "reversedirection=yes highway=path surface=dirt route_hiking_rwn=yes route_foot_lwn=yes",
      "",
      "1912",
      "23603"
     ],
     [
      "15712280",
      "49714096",
      "518",
      "66",
      "1050",
      "0",
      "0",
      "0",
      "0",
      "highway=path route_hiking_lwn=yes",
      "",
      "1975",
      "28552"
     ],
     [
      "15712382",
      "49714034",
      "513",
      "10",
      "1260",
      "0",
      "0",
      "0",
      "0",
      "highway=path",
      "",
      "1985",
      "29589"
     ],
     [
      "15712280",
      "49714096",
      "518",
      "10",
      "1260",
      "0",
      "0",
      "0",
      "0",
      "reversedirection=yes highway=path",
      "",
      "1993",
      "29828"
     ],
     [
      "15712740",
      "49714546",
      "484",
      "66",
      "1050",
      "0",
      "0",
      "0",
      "0",
      "reversedirection=yes highway=path route_hiking_lwn=yes",
      "",
      "2048",
      "30034"
     ],
     [
      "15713843",
      "49714484",
      "491",
      "159",
      "1150",
      "0",
      "0",
      "0",
      "0",
      "highway=path surface=dirt route_hiking_rwn=yes route_foot_lwn=yes",
      "",
      "2157",
      "30034"
     ],
     [
      "15713878",
      "49714537",
      "493",
      "6",
      "1050",
      "0",
      "0",
      "0",
      "0",
      "highway=path route_hiking_rwn=yes",
      "",
      "2161",
      "30088"
     ],
     [
      "15714046",
      "49714654",
      "496",
      "18",
      "1050",
      "0",
      "0",
      "0",
      "0",
      "reversedirection=yes highway=path route_hiking_rwn=yes",
      "",
      "2174",
      "30198"
     ],
     [
      "15714282",
      "49714730",
      "503",
      "21",
      "3000",
      "0",
      "0",
      "0",
      "0",
      "reversedirection=yes highway=steps route_hiking_rwn=yes",
      "",
      "2189",
      "30527"
     ],
     [
      "15713991",
      "49714970",
      "516",
      "37",
      "1050",
      "0",
      "0",
      "0",
      "0",
      "reversedirection=yes highway=path route_hiking_rwn=yes",
      "",
      "2226",
      "33911"
     ],
     [
      "15714631",
      "49715019",
      "517",
      "48",
      "1150",
      "0",
      "0",
      "0",
      "0",
      "reversedirection=yes highway=path surface=dirt route_hiking_rwn=yes",
      "",
      "2276",
      "38860"
     ],
     [
      "15714805",
      "49715168",
      "517",
      "21",
      "1380",
      "0",
      "0",
      "0",
      "0",
      "reversedirection=yes highway=path surface=dirt",
      "",
      "2296",
      "40608"
     ],
     [
      "15714480",
      "49725292",
      "469",
      "1325",
      "1260",
      "0",
      "0",
      "0",
      "0",
      "highway=track surface=compacted tracktype=grade3",
      "",
      "3174",
      "48123"
     ],
     [
      "15715542",
      "49726643",
      "461",
      "169",
      "1320",
      "0",
      "0",
      "0",
      "0",
      "reversedirection=yes highway=residential",
      "",
      "3280",
      "48154"
     ],
     [
      "15715932",
      "49726530",
      "460",
      "31",
      "3000",
      "0",
      "0",
      "0",
      "0",
      "highway=tertiary route_bicycle_rcn=yes",
      "",
      "3301",
      "48166"
     ],
     [
      "15718319",
      "49723450",
      "491",
      "396",
      "1320",
      "0",
      "0",
      "0",
      "0",
      "highway=residential",
      "",
      "3652",
      "72693"
     ],
     [
      "15726511",
      "49708216",
      "534",
      "1905",
      "1220",
      "0",
      "0",
      "0",
      "0",
      "reversedirection=yes highway=track surface=asphalt tracktype=grade2 foot=yes bicycle=yes mtb:scale=0",
      "",
      "5130",
      "129208"
     ],
     [
      "15727165",
      "49707573",
      "536",
      "86",
      "1050",
      "0",
      "0",
      "0",
      "0",
      "reversedirection=yes highway=track surface=asphalt tracktype=grade1 mtb:scale=0 route_hiking_rwn=yes",
      "",
      "5197",
      "131929"
     ],
     [
      "15732756",
      "49705845",
      "535",
      "486",
      "1100",
      "0",
      "0",
      "0",
      "0",
      "reversedirection=yes highway=track surface=asphalt tracktype=grade2 mtb:scale=0 route_hiking_rwn=yes",
      "nodeaccessgranted=yes estimated_crossing_class=1",
      "5555",
      "140271"
     ],
     [
      "15732664",
      "49705740",
      "534",
      "13",
      "4000",
      "0",
      "0",
      "0",
      "0",
      "reversedirection=yes highway=secondary surface=asphalt route_hiking_rwn=yes",
      "nodeaccessgranted=yes estimated_crossing_class=1",
      "5564",
      "140271"
     ],
     [
      "15732634",
      "49705696",
      "534",
      "5",
      "4000",
      "0",
      "0",
      "0",
      "0",
      "reversedirection=yes highway=secondary surface=asphalt route_hiking_rwn=yes",
      "nodeaccessgranted=yes railway=level_crossing",
      "5568",
      "140271"
     ],
     [
      "15732501",
      "49705525",
      "534",
      "21",
      "4000",
      "0",
      "0",
      "0",
      "0",
      "reversedirection=yes highway=secondary surface=asphalt route_hiking_rwn=yes",
      "nodeaccessgranted=yes estimated_crossing_class=1",
      "5582",
      "140306"
     ],
     [
      "15732386",
      "49705409",
      "534",
      "15",
      "4000",
      "0",
      "0",
      "0",
      "0",
      "reversedirection=yes highway=secondary surface=asphalt route_hiking_rwn=yes",
      "nodeaccessgranted=yes estimated_crossing_class=1",
      "5593",
      "140306"
     ],
     [
      "15733232",
      "49704265",
      "529",
      "142",
      "1100",
      "0",
      "0",
      "0",
      "0",
      "highway=residential route_hiking_rwn=yes",
      "",
      "5691",
      "140881"
     ],
     [
      "15732050",
      "49703933",
      "527",
      "114",
      "1320",
      "0",
      "0",
      "0",
      "0",
      "reversedirection=yes highway=residential surface=asphalt",
      "",
      "5769",
      "141060"
     ],
     [
      "15731525",
      "49704158",
      "526",
      "56",
      "1260",
      "0",
      "0",
      "0",
      "0",
      "highway=path surface=unpaved foot=yes bicycle=yes",
      "",
      "5806",
      "141060"
     ],
     [
      "15730333",
      "49703664",
      "528",
      "111",
      "1320",
      "0",
      "0",
      "0",
      "0",
      "reversedirection=yes highway=residential",
      "estimated_crossing_class=1",
      "5881",
      "141060"
     ],
     [
      "15729687",
      "49703246",
      "530",
      "66",
      "4800",
      "0",
      "0",
      "0",
      "0",
      "reversedirection=yes highway=secondary surface=asphalt",
      "",
      "5929",
      "142055"
     ]
    ],
    "times": [
     0,
     8.577,
     25.598,
     45.662,
     50.438,
     53.829,
     63.293,
     85.293,
     94.456,
     102.287,
     108.133,
     116.132,
     122.174,
     138.731,
     145.492,
     160.379,
     164.601,
     168.863,
     173.88,
     179.758,
     188.092,
     198.288,
     204.252,
     208.789,
     226.108,
     228.465,
     231.57,
     237.648,
     244.284,
     265.297,
     288.568,
     338.924,
     341.82,
     349.237,
     360.588,
     365.809,
     376.208,
     379.908,
     389.66,
     402.43,
     409.956,
     426.65,
     438.666,
     450.887,
     468.386,
     485.394,
     512.844,
     535.168,
     560.14,
     591.971,
     604.335,
     616.656,
     662.996,
     679.182,
     715.157,
     751.256,
     809.956,
     901.967,
     952.94,
     975.288,
     1003.332,
     1020.236,
     1037.636,
     1058.433,
     1111.078,
     1127.715,
     1222.82,
     1270.588,
     1319.047,
     1332.602,
     1355.979,
     1374.44,
     1410.727,
     1450.115,
     1539.36,
     1558.709,
     1594.345,
     1645.266,
     1657.533,
     1675.01,
     1687.636,
     1696.018,
     1706.649,
     1709.967,
     1715.676,
     1725.401,
     1737.912,
     1744.873,
     1748.753,
     1754.93,
     1759.025,
     1767.586,
     1772.668,
     1775.471,
     1781.403,
     1783.639,
     1788.034,
     1792.334,
     1794.506,
     1801.387,
     1806.274,
     1817.011,
     1826.024,
     1835.758,
     1845.309,
     1851.98,
     1859.454,
     1868.092,
     1876.578,
     1889.404,
     1912.683,
     1920.935,
     1931.948,
     1938.173,
     1947.873,
     1964.868,
     1975.117,
     1985.519,
     1993.095,
     1999.075,
     2008.834,
     2014.548,
     2019.85,
     2034.927,
     2048.426,
     2076.458,
     2089.442,
     2097.263,
     2105.971,
     2114.081,
     2121.256,
     2131.312,
     2141.215,
     2149.085,
     2157.458,
     2161.741,
     2168.008,
     2170.155,
     2174.448,
     2178.741,
     2180.944,
     2186.663,
     2189.86,
     2196.828,
     2210.221,
     2216.455,
     2226.688,
     2243.643,
     2257.251,
     2276.509,
     2296.648,
     2343.469,
     2368.34,
     2393.425,
     2410.247,
     2427.168,
     2441.132,
     2513.992,
     2594.972,
     2616.626,
     2689.376,
     2707.125,
     2756.363,
     2788.708,
     2806.853,
     2830.387,
     2852.707,
     3063.179,
     3138.271,
     3159.072,
     3174.767,
     3187.393,
     3213.188,
     3265.002,
     3280.24,
     3293.74,
     3301.353,
     3323.875,
     3341.858,
     3353.635,
     3370.657,
     3398.659,
     3635.468,
     3652.297,
     3673.77,
     3731.476,
     3833.851,
     3891.926,
     4133.834,
     4298.081,
     4499.791,
     4520.239,
     4551.359,
     4580.974,
     4643.972,
     4743.315,
     4817.124,
     4897.264,
     4934.336,
     4976.112,
     4986.554,
     5005.061,
     5045.269,
     5116.989,
     5130.122,
     5197.308,
     5235.924,
     5273.439,
     5289.701,
     5335.315,
     5346.88,
     5359.397,
     5390.108,
     5413.911,
     5436.724,
     5464.857,
     5481.993,
     5498.852,
     5510.247,
     5521.647,
     5537.088,
     5544.067,
     5555.872,
     5564.788,
     5568.229,
     5577.898,
     5582.791,
     5593.046,
     5599.749,
     5602.419,
     5652.243,
     5672.684,
     5691.556,
     5697.839,
     5703.529,
     5706.119,
     5708.103,
     5724.756,
     5728.866,
     5734.226,
     5743.981,
     5751.419,
     5756.72,
     5761.344,
     5765.294,
     5769.297,
     5782.881,
     5789.389,
     5806.292,
     5812.43,
     5820.519,
     5826.57,
     5833.948,
     5842.802,
     5863.328,
     5872.821,
     5876.257,
     5881.038,
     5902.969,
     5920.556,
     5929.313
    ]
   },
   "geometry": {
    "type": "LineString",
    "coordinates": [
     [
      15.729687,
      49.703246,
      530.25
     ],
     [
      15.729806,
      49.703316,
      530.25
     ],
     [
      15.730049,
      49.70347,
      530.0
     ],
     [
      15.730333,
      49.703664,
      528.0
     ],
     [
      15.730415,
      49.703627,
      528.25
     ],
     [
      15.730485,
      49.703628,
      528.0
     ],
     [
      15.730669,
      49.703659,
      527.75
     ],
     [
      15.730976,
      49.703852,
      526.0
     ],
     [
      15.731102,
      49.703932,
      525.75
     ],
     [
      15.73118,
      49.704014,
      526.0
     ],
     [
      15.731268,
      49.704077,
      526.25
     ],
     [
      15.731404,
      49.704133,
      526.75
     ],
     [
      15.731525,
      49.704158,
      526.75
     ],
     [
      15.731643,
      49.703943,
      526.0
     ],
     [
      15.731763,
      49.703904,
      526.25
     ],
     [
      15.73205,
      49.703933,
      527.5
     ],
     [
      15.732091,
      49.703883,
      527.25
     ],
     [
      15.732163,
      49.703853,
      527.5
     ],
     [
      15.732255,
      49.703838,
      527.75
     ],
     [
      15.732369,
      49.703834,
      528.5
     ],
     [
      15.732525,
      49.703849,
      529.5
     ],
     [
      15.732709,
      49.703893,
      531.5
     ],
     [
      15.732789,
      49.703939,
      532.25
     ],
     [
      15.732863,
      49.703967,
      532.75
     ],
     [
      15.733167,
      49.704048,
      531.5
     ],
     [
      15.733196,
      49.704069,
      531.0
     ],
     [
      15.733207,
      49.704107,
      530.75
     ],
     [
      15.733205,
      49.704182,
      530.25
     ],
     [
      15.733232,
      49.704265,
      529.5
     ],
     [
      15.73307,
      49.70449,
      530.25
     ],
     [
      15.7328,
      49.7047,
      531.75
     ],
     [
      15.732505,
      49.705301,
      533.0
     ],
     [
      15.732477,
      49.705337,
      533.25
     ],
     [
      15.732386,
      49.705409,
      534.0
     ],
     [
      15.732501,
      49.705525,
      534.75
     ],
     [
      15.732552,
      49.705578,
      534.5
     ],
     [
      15.732634,
      49.705696,
      534.5
     ],
     [
      15.732664,
      49.70574,
      534.5
     ],
     [
      15.732756,
      49.705845,
      535.0
     ],
     [
      15.73254,
      49.705907,
      535.25
     ],
     [
      15.732406,
      49.705911,
      535.5
     ],
     [
      15.732107,
      49.705853,
      536.0
     ],
     [
      15.731887,
      49.705832,
      536.0
     ],
     [
      15.731676,
      49.705865,
      536.75
     ],
     [
      15.731397,
      49.705964,
      537.0
     ],
     [
      15.731096,
      49.70602,
      536.5
     ],
     [
      15.730575,
      49.70601,
      536.0
     ],
     [
      15.730141,
      49.705995,
      536.0
     ],
     [
      15.729715,
      49.706065,
      535.75
     ],
     [
      15.729181,
      49.706181,
      536.5
     ],
     [
      15.728997,
      49.706254,
      537.0
     ],
     [
      15.728837,
      49.706358,
      537.25
     ],
     [
      15.728426,
      49.706846,
      537.0
     ],
     [
      15.72824,
      49.707,
      537.0
     ],
     [
      15.727677,
      49.707257,
      536.5
     ],
     [
      15.727165,
      49.707573,
      536.0
     ],
     [
      15.726511,
      49.708216,
      534.25
     ],
     [
      15.724773,
      49.708634,
      530.0
     ],
     [
      15.723779,
      49.708848,
      531.5
     ],
     [
      15.723346,
      49.708847,
      532.75
     ],
     [
      15.722808,
      49.708867,
      535.75
     ],
     [
      15.72252,
      49.708948,
      536.5
     ],
     [
      15.722238,
      49.709066,
      536.25
     ],
     [
      15.72184,
      49.709109,
      536.0
     ],
     [
      15.720995,
      49.709396,
      535.5
     ],
     [
      15.720764,
      49.709521,
      536.0
     ],
     [
      15.719501,
      49.71047,
      532.25
     ],
     [
      15.718729,
      49.710748,
      534.5
     ],
     [
      15.717803,
      49.710874,
      530.5
     ],
     [
      15.717596,
      49.710973,
      530.5
     ],
     [
      15.71726,
      49.711178,
      530.25
     ],
     [
      15.717052,
      49.711366,
      530.25
     ],
     [
      15.716937,
      49.711818,
      530.25
     ],
     [
      15.716911,
      49.712318,
      529.75
     ],
     [
      15.716401,
      49.713579,
      522.0
     ],
     [
      15.716192,
      49.713811,
      520.5
     ],
     [
      15.71569,
      49.71421,
      518.0
     ],
     [
      15.715001,
      49.714721,
      518.75
     ],
     [
      15.714905,
      49.714866,
      518.25
     ],
     [
      15.714631,
      49.715019,
      517.5
     ],
     [
      15.714372,
      49.715049,
      516.75
     ],
     [
      15.714192,
      49.715021,
      515.5
     ],
     [
      15.713991,
      49.71497,
      516.0
     ],
     [
      15.713925,
      49.714947,
      515.75
     ],
     [
      15.713827,
      49.714896,
      514.25
     ],
     [
      15.713679,
      49.714793,
      512.5
     ],
     [
      15.713827,
      49.714896,
      514.25
     ],
     [
      15.713925,
      49.714947,
      515.75
     ],
     [
      15.713991,
      49.71497,
      516.0
     ],
     [
      15.714105,
      49.714948,
      512.5
     ],
     [
      15.714169,
      49.714911,
      509.25
     ],
     [
      15.71426,
      49.714804,
      505.75
     ],
     [
      15.714282,
      49.71473,
      503.0
     ],
     [
      15.714229,
      49.71471,
      499.75
     ],
     [
      15.714123,
      49.714715,
      497.5
     ],
     [
      15.714105,
      49.714686,
      496.75
     ],
     [
      15.714046,
      49.714654,
      496.75
     ],
     [
      15.713971,
      49.714627,
      496.75
     ],
     [
      15.713949,
      49.714602,
      496.0
     ],
     [
      15.713878,
      49.714537,
      493.75
     ],
     [
      15.713843,
      49.714484,
      491.0
     ],
     [
      15.713723,
      49.714391,
      489.25
     ],
     [
      15.713664,
      49.714284,
      492.75
     ],
     [
      15.713508,
      49.714196,
      493.5
     ],
     [
      15.713374,
      49.714087,
      493.0
     ],
     [
      15.713295,
      49.713998,
      494.25
     ],
     [
      15.713136,
      49.713988,
      492.25
     ],
     [
      15.712941,
      49.713994,
      491.75
     ],
     [
      15.712804,
      49.714074,
      489.25
     ],
     [
      15.712733,
      49.714241,
      487.0
     ],
     [
      15.71274,
      49.714546,
      484.25
     ],
     [
      15.712665,
      49.714435,
      488.0
     ],
     [
      15.712492,
      49.714366,
      498.0
     ],
     [
      15.712398,
      49.71436,
      503.75
     ],
     [
      15.71233,
      49.71429,
      510.0
     ],
     [
      15.71231,
      49.714163,
      515.0
     ],
     [
      15.71228,
      49.714096,
      518.25
     ],
     [
      15.712382,
      49.714034,
      513.5
     ],
     [
      15.71228,
      49.714096,
      518.25
     ],
     [
      15.71231,
      49.714163,
      515.0
     ],
     [
      15.71233,
      49.71429,
      510.0
     ],
     [
      15.712398,
      49.71436,
      503.75
     ],
     [
      15.712492,
      49.714366,
      498.0
     ],
     [
      15.712665,
      49.714435,
      488.0
     ],
     [
      15.71274,
      49.714546,
      484.25
     ],
     [
      15.712733,
      49.714241,
      487.0
     ],
     [
      15.712804,
      49.714074,
      489.25
     ],
     [
      15.712941,
      49.713994,
      491.75
     ],
     [
      15.713136,
      49.713988,
      492.25
     ],
     [
      15.713295,
      49.713998,
      494.25
     ],
     [
      15.713374,
      49.714087,
      493.0
     ],
     [
      15.713508,
      49.714196,
      493.5
     ],
     [
      15.713664,
      49.714284,
      492.75
     ],
     [
      15.713723,
      49.714391,
      489.25
     ],
     [
      15.713843,
      49.714484,
      491.0
     ],
     [
      15.713878,
      49.714537,
      493.75
     ],
     [
      15.713949,
      49.714602,
      496.0
     ],
     [
      15.713971,
      49.714627,
      496.75
     ],
     [
      15.714046,
      49.714654,
      496.75
     ],
     [
      15.714105,
      49.714686,
      496.75
     ],
     [
      15.714123,
      49.714715,
      497.5
     ],
     [
      15.714229,
      49.71471,
      499.75
     ],
     [
      15.714282,
      49.71473,
      503.0
     ],
     [
      15.71426,
      49.714804,
      505.75
     ],
     [
      15.714169,
      49.714911,
      509.25
     ],
     [
      15.714105,
      49.714948,
      512.5
     ],
     [
      15.713991,
      49.71497,
      516.0
     ],
     [
      15.714192,
      49.715021,
      515.5
     ],
     [
      15.714372,
      49.715049,
      516.75
     ],
     [
      15.714631,
      49.715019,
      517.5
     ],
     [
      15.714805,
      49.715168,
      517.75
     ],
     [
      15.714565,
      49.715616,
      518.0
     ],
     [
      15.714664,
      49.715885,
      517.25
     ],
     [
      15.71484,
      49.716158,
      516.5
     ],
     [
      15.715063,
      49.716307,
      515.75
     ],
     [
      15.7152,
      49.716482,
      514.5
     ],
     [
      15.715194,
      49.716656,
      513.5
     ],
     [
      15.714821,
      49.717536,
      509.75
     ],
     [
      15.714097,
      49.718579,
      504.0
     ],
     [
      15.713728,
      49.718751,
      502.75
     ],
     [
      15.712282,
      49.719219,
      498.5
     ],
     [
      15.711986,
      49.719371,
      497.75
     ],
     [
      15.711489,
      49.719945,
      497.5
     ],
     [
      15.71119,
      49.720338,
      495.75
     ],
     [
      15.711077,
      49.720565,
      495.5
     ],
     [
      15.711056,
      49.720884,
      494.0
     ],
     [
      15.711054,
      49.721186,
      493.25
     ],
     [
      15.713363,
      49.7238,
      482.5
     ],
     [
      15.714246,
      49.72477,
      474.25
     ],
     [
      15.714412,
      49.725058,
      471.5
     ],
     [
      15.71448,
      49.725292,
      469.75
     ],
     [
      15.714618,
      49.725457,
      468.5
     ],
     [
      15.714877,
      49.7258,
      466.0
     ],
     [
      15.715406,
      49.72647,
      461.0
     ],
     [
      15.715542,
      49.726643,
      461.0
     ],
     [
      15.715779,
      49.726552,
      460.0
     ],
     [
      15.715932,
      49.72653,
      460.5
     ],
     [
      15.716275,
      49.726383,
      463.0
     ],
     [
      15.716578,
      49.72627,
      465.0
     ],
     [
      15.716752,
      49.726185,
      465.75
     ],
     [
      15.71692,
      49.726016,
      467.5
     ],
     [
      15.717098,
      49.725729,
      470.25
     ],
     [
      15.718223,
      49.723626,
      489.25
     ],
     [
      15.718319,
      49.72345,
      491.0
     ],
     [
      15.718441,
      49.723232,
      492.75
     ],
     [
      15.718782,
      49.722685,
      497.0
     ],
     [
      15.719434,
      49.721642,
      499.75
     ],
     [
      15.719876,
      49.721014,
      500.0
     ],
     [
      15.721531,
      49.718486,
      508.5
     ],
     [
      15.722745,
      49.716688,
      511.75
     ],
     [
      15.724193,
      49.714512,
      516.75
     ],
     [
      15.724397,
      49.714312,
      515.25
     ],
     [
      15.724772,
      49.714045,
      516.75
     ],
     [
      15.725094,
      49.713776,
      517.75
     ],
     [
      15.725714,
      49.713133,
      517.75
     ],
     [
      15.726585,
      49.712028,
      520.25
     ],
     [
      15.727247,
      49.711307,
      524.75
     ],
     [
      15.727883,
      49.710484,
      527.25
     ],
     [
      15.728082,
      49.71006,
      527.75
     ],
     [
      15.728222,
      49.709571,
      528.75
     ],
     [
      15.728188,
      49.709451,
      528.75
     ],
     [
      15.728006,
      49.709259,
      528.75
     ],
     [
      15.727566,
      49.70889,
      530.75
     ],
     [
      15.726622,
      49.708354,
      533.75
     ],
     [
      15.726511,
      49.708216,
      534.25
     ],
     [
      15.727165,
      49.707573,
      536.0
     ],
     [
      15.727677,
      49.707257,
      536.5
     ],
     [
      15.72824,
      49.707,
      537.0
     ],
     [
      15.728426,
      49.706846,
      537.0
     ],
     [
      15.728837,
      49.706358,
      537.25
     ],
     [
      15.728997,
      49.706254,
      537.0
     ],
     [
      15.729181,
      49.706181,
      536.5
     ],
     [
      15.729715,
      49.706065,
      535.75
     ],
     [
      15.730141,
      49.705995,
      536.0
     ],
     [
      15.730575,
      49.70601,
      536.0
     ],
     [
      15.731096,
      49.70602,
      536.5
     ],
     [
      15.731397,
      49.705964,
      537.0
     ],
     [
      15.731676,
      49.705865,
      536.75
     ],
     [
      15.731887,
      49.705832,
      536.0
     ],
     [
      15.732107,
      49.705853,
      536.0
     ],
     [
      15.732406,
      49.705911,
      535.5
     ],
     [
      15.73254,
      49.705907,
      535.25
     ],
     [
      15.732756,
      49.705845,
      535.0
     ],
     [
      15.732664,
      49.70574,
      534.5
     ],
     [
      15.732634,
      49.705696,
      534.5
     ],
     [
      15.732552,
      49.705578,
      534.5
     ],
     [
      15.732501,
      49.705525,
      534.75
     ],
     [
      15.732386,
      49.705409,
      534.0
     ],
     [
      15.732477,
      49.705337,
      533.25
     ],
     [
      15.732505,
      49.705301,
      533.0
     ],
     [
      15.7328,
      49.7047,
      531.75
     ],
     [
      15.73307,
      49.70449,
      530.25
     ],
     [
      15.733232,
      49.704265,
      529.5
     ],
     [
      15.733205,
      49.704182,
      530.25
     ],
     [
      15.733207,
      49.704107,
      530.75
     ],
     [
      15.733196,
      49.704069,
      531.0
     ],
     [
      15.733167,
      49.704048,
      531.5
     ],
     [
      15.732863,
      49.703967,
      532.75
     ],
     [
      15.732789,
      49.703939,
      532.25
     ],
     [
      15.732709,
      49.703893,
      531.5
     ],
     [
      15.732525,
      49.703849,
      529.5
     ],
     [
      15.732369,
      49.703834,
      528.5
     ],
     [
      15.732255,
      49.703838,
      527.75
     ],
     [
      15.732163,
      49.703853,
      527.5
     ],
     [
      15.732091,
      49.703883,
      527.25
     ],
     [
      15.73205,
      49.703933,
      527.5
     ],
     [
      15.731763,
      49.703904,
      526.25
     ],
     [
      15.731643,
      49.703943,
      526.0
     ],
     [
      15.731525,
      49.704158,
      526.75
     ],
     [
      15.731404,
      49.704133,
      526.75
     ],
     [
      15.731268,
      49.704077,
      526.25
     ],
     [
      15.73118,
      49.704014,
      526.0
     ],
     [
      15.731102,
      49.703932,
      525.75
     ],
     [
      15.730976,
      49.703852,
      526.0
     ],
     [
      15.730669,
      49.703659,
      527.75
     ],
     [
      15.730485,
      49.703628,
      528.0
     ],
     [
      15.730415,
      49.703627,
      528.25
     ],
     [
      15.730333,
      49.703664,
      528.0
     ],
     [
      15.730049,
      49.70347,
      530.0
     ],
     [
      15.729806,
      49.703316,
      530.25
     ],
     [
      15.729687,
      49.703246,
      530.25
     ]
    ]
   }
  }
 ]
}