{
 "type": "FeatureCollection",
 "features": [
  {
   "type": "Feature",
   "properties": {
    "creator": "BRouter-1.7.10",
    "name": "brouter_hiking-mountain_0",
    "track-length": "15490",
    "filtered ascend": "307",
    "plain-ascend": "3",
    "total-time": "11544",
    "total-energy": "322352",
    "cost": "21344",
    "messages": [
     [
      "Longitude",
      "Latitude",
      "Elevation",
      "Distance",
      "CostPerKm",
      "ElevCost",
      "TurnCost",
      "NodeCost",
      "InitialCost",
      "WayTags",
      "NodeTags",
      "Time",
      "Energy"
     ],
     [
      "16082492",
      "49651073",
      "731",
      "4",
      "1050",
      "0",
      "0",
      "0",
      "0",
      "reversedirection=yes highway=track tracktype=grade4 mtb:scale=0 route_bicycle_rcn=yes route_hiking_nwn=yes",
      "",
      "2",
      "28"
     ],
     [
      "16084240",
      "49652383",
      "730",
      "194",
      "1050",
      "0",
      "0",
      "0",
      "0",
      "reversedirection=yes highway=track tracktype=grade5 vehicle=no mtb:scale=0 route_hiking_nwn=yes route_hiking_rwn=yes",
      "",
      "141",
      "1900"
     ],
     [
      "16084155",
      "49653523",
      "740",
      "128",
      "1050",
      "0",
      "0",
      "0",
      "0",
      "highway=path mtb:scale=0 route_hiking_nwn=yes",
      "",
      "240",
      "5589"
     ],
     [
      "16084046",
      "49654114",
      "744",
      "70",
      "1050",
      "0",
      "0",
      "0",
      "0",
      "highway=path route_hiking_nwn=yes",
      "",
      "298",
      "8827"
     ],
     [
      "16084199",
      "49654228",
      "746",
      "17",
      "1260",
      "0",
      "0",
      "0",
      "0",
      "highway=path",
      "",
      "313",
      "9782"
     ],
     [
      "16083776",
      "49654399",
      "741",
      "71",
      "1260",
      "0",
      "0",
      "0",
      "0",
      "reversedirection=yes highway=path",
      "",
      "370",
      "12572"
     ],
     [
      "16083686",
      "49654505",
      "740",
      "13",
      "1050",
      "0",
      "0",
      "0",
      "0",
      "highway=path route_hiking_nwn=yes",
      "",
      "378",
      "12572"
     ],
     [
      "16080854",
      "49654789",
      "708",
      "211",
      "1000",
      "0",
      "0",
      "0",
      "0",
      "highway=path mtb:scale=1 route_hiking_nwn=yes",
      "",
      "543",
      "12572"
     ],
     [
      "16080075",
      "49654919",
      "701",
      "58",
      "1050",
      "0",
      "0",
      "0",
      "0",
      "reversedirection=yes highway=path surface=earth route_hiking_nwn=yes",
      "",
      "591",
      "12572"
     ],
     [
      "16076792",
      "49657130",
      "690",
      "342",
      "1050",
      "0",
      "0",
      "0",
      "0",
      "highway=track tracktype=grade3 route_hiking_nwn=yes route_hiking_rwn=yes",
      "",
      "832",
      "12572"
     ],
     [
      "16077489",
      "49657313",
      "687",
      "55",
      "1350",
      "0",
      "0",
      "0",
      "0",
      "highway=track surface=paved tracktype=grade1 route_bicycle_rcn=yes route_hiking_nwn=yes route_hiking_rwn=yes",
      "",
      "868",
      "12572"
     ],
     [
      "16076792",
      "49657130",
      "690",
      "55",
      "1150",
      "0",
      "0",
      "0",
      "0",
      "reversedirection=yes highway=track surface=paved tracktype=grade1 route_bicycle_rcn=yes route_hiking_nwn=yes route_hiking_rwn=yes",
      "",
      "910",
      "13899"
     ],
     [
      "16068959",
      "49657923",
      "729",
      "580",
      "1280",
      "0",
      "0",
      "0",
      "0",
      "reversedirection=yes highway=track surface=paved tracktype=grade1 route_bicycle_rcn=yes",
      "",
      "1418",
      "48678"
     ],
     [
      "16068738",
      "49660087",
      "764",
      "243",
      "1260",
      "0",
      "0",
      "0",
      "0",
      "reversedirection=yes highway=path",
      "",
      "1683",
      "76378"
     ],
     [
      "16068833",
      "49661456",
      "782",
      "177",
      "1260",
      "0",
      "0",
      "0",
      "0",
      "highway=track tracktype=grade2 mtb:scale=1",
      "",
      "1872",
      "96041"
     ],
     [
      "16071668",
      "49661345",
      "792",
      "210",
      "1100",
      "0",
      "0",
      "0",
      "0",
      "reversedirection=yes highway=path surface=dirt mtb:scale=1 route_hiking_nwn=yes",
      "",
      "2055",
      "108220"
     ],
     [
      "16068833",
      "49661456",
      "782",
      "210",
      "1100",
      "0",
      "0",
      "0",
      "0",
      "highway=path surface=dirt mtb:scale=1 route_hiking_nwn=yes",
      "",
      "2194",
      "108301"
     ],
     [
      "16059543",
      "49661499",
      "805",
      "703",
      "1600",
      "0",
      "0",
      "0",
      "0",
      "highway=path mtb:scale=2 route_hiking_nwn=yes",
      "",
      "2761",
      "136515"
     ],
     [
      "16045409",
      "49659162",
      "805",
      "1173",
      "1100",
      "0",
      "0",
      "0",
      "0",
      "highway=track surface=unpaved tracktype=grade2 mtb:scale=0 route_hiking_nwn=yes",
      "",
      "3602",
      "150996"
     ],
     [
      "16040839",
      "49660849",
      "784",
      "396",
      "1100",
      "0",
      "0",
      "0",
      "0",
      "reversedirection=yes highway=path surface=dirt mtb:scale=1 route_hiking_nwn=yes",
      "",
      "3860",
      "151329"
     ],
     [
      "16040744",
      "49660925",
      "784",
      "11",
      "1600",
      "0",
      "0",
      "0",
      "0",
      "reversedirection=yes highway=track surface=gravel tracktype=grade2 mtb:scale=0 route_hiking_nwn=yes",
      "",
      "3867",
      "151329"
     ],
     [
      "16038126",
      "49662100",
      "785",
      "230",
      "1600",
      "0",
      "0",
      "0",
      "0",
      "reversedirection=yes highway=path foot=yes mtb:scale=2 route_hiking_nwn=yes",
      "",
      "4019",
      "151709"
     ],
     [
      "16036073",
      "49662965",
      "760",
      "180",
      "2560",
      "0",
      "0",
      "0",
      "0",
      "reversedirection=yes highway=path foot=yes mtb:scale=3 route_hiking_nwn=yes",
      "",
      "4144",
      "151709"
     ],
     [
      "16034189",
      "49663581",
      "746",
      "152",
      "1000",
      "0",
      "0",
      "0",
      "0",
      "reversedirection=yes highway=path foot=yes mtb:scale=1 route_hiking_nwn=yes",
      "",
      "4252",
      "151709"
     ],
     [
      "16036073",
      "49662965",
      "760",
      "152",
      "1000",
      "0",
      "0",
      "0",
      "0",
      "highway=path foot=yes mtb:scale=1 route_hiking_nwn=yes",
      "",
      "4373",
      "156934"
     ],
     [
      "16038126",
      "49662100",
      "785",
      "180",
      "2560",
      "0",
      "0",
      "0",
      "0",
      "highway=path foot=yes mtb:scale=3 route_hiking_nwn=yes",
      "",
      "4572",
      "178349"
     ],
     [
      "16038375",
      "49661978",
      "787",
      "23",
      "1600",
      "0",
      "0",
      "0",
      "0",
      "highway=path foot=yes mtb:scale=2 route_hiking_nwn=yes",
      "",
      "4594",
      "180235"
     ],
     [
      "16038126",
      "49662100",
      "785",
      "23",
      "1600",
      "0",
      "0",
      "0",
      "0",
      "reversedirection=yes highway=path foot=yes mtb:scale=2 route_hiking_nwn=yes",
      "",
      "4610",
      "180313"
     ],
     [
      "16036073",
      "49662965",
      "760",
      "180",
      "2560",
      "0",
      "0",
      "0",
      "0",
      "reversedirection=yes highway=path foot=yes mtb:scale=3 route_hiking_nwn=yes",
      "",
      "4730",
      "180313"
     ],
     [
      "16034097",
      "49663600",
      "746",
      "159",
      "1000",
      "0",
      "0",
      "0",
      "0",
      "reversedirection=yes highway=path foot=yes mtb:scale=1 route_hiking_nwn=yes",
      "",
      "4841",
      "180313"
     ],
     [
      "16031248",
      "49666654",
      "757",
      "410",
      "1500",
      "0",
      "0",
      "0",
      "0",
      "reversedirection=yes highway=track surface=gravel tracktype=grade2 mtb:scale=0 route_hiking_nwn=yes",
      "",
      "5127",
      "184611"
     ],
     [
      "16029500",
      "49667040",
      "764",
      "138",
      "1100",
      "0",
      "0",
      "0",
      "0",
      "highway=path surface=dirt mtb:scale=1 route_hiking_nwn=yes",
      "",
      "5242",
      "191206"
     ],
     [
      "16028059",
      "49670293",
      "794",
      "459",
      "1400",
      "0",
      "0",
      "0",
      "0",
      "reversedirection=yes highway=track surface=gravel tracktype=grade3 mtb:scale=1 route_hiking_nwn=yes",
      "",
      "5654",
      "221690"
     ],
     [
      "16031190",
      "49671105",
      "805",
      "254",
      "1100",
      "0",
      "0",
      "0",
      "0",
      "reversedirection=yes highway=track surface=cobblestone tracktype=grade1 mtb:scale=1 route_hiking_nwn=yes",
      "",
      "5869",
      "234881"
     ],
     [
      "16031220",
      "49671113",
      "805",
      "2",
      "1000",
      "0",
      "0",
      "0",
      "0",
      "highway=path surface=rock foot=yes mtb:scale=1 sac_scale=hiking route_hiking_nwn=yes route_hiking_rwn=yes",
      "",
      "5871",
      "234933"
     ],
     [
      "16031190",
      "49671105",
      "805",
      "2",
      "1000",
      "0",
      "0",
      "0",
      "0",
      "reversedirection=yes highway=path surface=rock foot=yes mtb:scale=1 sac_scale=hiking route_hiking_nwn=yes route_hiking_rwn=yes",
      "",
      "5872",
      "234952"
     ],
     [
      "16028059",
      "49670293",
      "794",
      "254",
      "1100",
      "0",
      "0",
      "0",
      "0",
      "highway=track surface=cobblestone tracktype=grade1 mtb:scale=1 route_hiking_nwn=yes",
      "",
      "6037",
      "235289"
     ],
     [
      "16029500",
      "49667040",
      "764",
      "459",
      "1200",
      "0",
      "0",
      "0",
      "0",
      "highway=track surface=gravel tracktype=grade3 mtb:scale=1 route_hiking_nwn=yes",
      "",
      "6337",
      "235298"
     ],
     [
      "16031248",
      "49666654",
      "757",
      "138",
      "1100",
      "0",
      "0",
      "0",
      "0",
      "reversedirection=yes highway=path surface=dirt mtb:scale=1 route_hiking_nwn=yes",
      "",
      "6432",
      "235573"
     ],
     [
      "16034097",
      "49663600",
      "746",
      "410",
      "1300",
      "0",
      "0",
      "0",
      "0",
      "highway=track surface=gravel tracktype=grade2 mtb:scale=0 route_hiking_nwn=yes",
      "",
      "6694",
      "236070"
     ],
     [
      "16033084",
      "49660707",
      "740",
      "353",
      "1150",
      "0",
      "0",
      "0",
      "0",
      "reversedirection=yes highway=track surface=asphalt tracktype=grade1 foot=yes bicycle=yes route_hiking_nwn=yes",
      "",
      "6934",
      "236070"
     ],
     [
      "16033637",
      "49659534",
      "737",
      "137",
      "1158",
      "0",
      "0",
      "0",
      "0",
      "reversedirection=yes highway=track surface=paved tracktype=grade1 route_hiking_nwn=yes",
      "",
      "7026",
      "236070"
     ],
     [
      "16034729",
      "49658435",
      "736",
      "145",
      "2500",
      "0",
      "0",
      "0",
      "0",
      "reversedirection=yes highway=tertiary route_bicycle_ncn=yes route_hiking_nwn=yes",
      "",
      "7126",
      "236133"
     ],
     [
      "16039144",
      "49653998",
      "740",
      "707",
      "1260",
      "0",
      "0",
      "0",
      "0",
      "reversedirection=yes highway=track tracktype=grade3",
      "",
      "7642",
      "246720"
     ],
     [
      "16040236",
      "49653157",
      "744",
      "122",
      "3000",
      "0",
      "0",
      "0",
      "0",
      "reversedirection=yes highway=tertiary route_bicycle_ncn=yes",
      "",
      "7729",
      "247832"
     ],
     [
      "16038564",
      "49649251",
      "749",
      "587",
      "1260",
      "0",
      "0",
      "0",
      "0",
      "reversedirection=yes highway=track tracktype=grade4",
      "",
      "8151",
      "254668"
     ],
     [
      "16049420",
      "49647716",
      "759",
      "813",
      "1320",
      "0",
      "0",
      "0",
      "0",
      "reversedirection=yes highway=track tracktype=grade2",
      "",
      "8766",
      "273686"
     ],
     [
      "16050463",
      "49647379",
      "757",
      "85",
      "3000",
      "0",
      "0",
      "0",
      "0",
      "reversedirection=yes highway=tertiary route_bicycle_ncn=yes",
      "",
      "8826",
      "274291"
     ],
     [
      "16049420",
      "49647716",
      "759",
      "85",
      "3000",
      "0",
      "0",
      "0",
      "0",
      "highway=tertiary route_bicycle_ncn=yes",
      "",
      "8889",
      "275641"
     ],
     [
      "16047409",
      "49648843",
      "759",
      "343",
      "1320",
      "0",
      "0",
      "0",
      "0",
      "highway=track tracktype=grade2",
      "",
      "9138",
      "280224"
     ],
     [
      "16054807",
      "49651597",
      "763",
      "677",
      "1580",
      "0",
      "0",
      "0",
      "0",
      "highway=track surface=paved tracktype=grade1 mtb:scale=0 route_bicycle_rcn=yes",
      "",
      "9644",
      "294097"
     ],
     [
      "16066012",
      "49649145",
      "743",
      "893",
      "1260",
      "0",
      "0",
      "0",
      "0",
      "reversedirection=yes highway=track tracktype=grade3 mtb:scale=0",
      "",
      "10229",
      "295937"
     ],
     [
      "16072300",
      "49646404",
      "763",
      "591",
      "1360",
      "0",
      "0",
      "0",
      "0",
      "highway=track surface=grass tracktype=grade4",
      "",
      "10690",
      "314113"
     ],
     [
      "16076997",
      "49646348",
      "751",
      "344",
      "1260",
      "0",
      "0",
      "0",
      "0",
      "reversedirection=yes highway=track surface=ground tracktype=grade3",
      "",
      "10932",
      "317723"
     ],
     [
      "16075791",
      "49649182",
      "724",
      "335",
      "2500",
      "0",
      "0",
      "0",
      "0",
      "reversedirection=yes highway=tertiary route_bicycle_rcn=yes route_hiking_rwn=yes",
      "",
      "11162",
      "318359"
     ],
     [
      "16077462",
      "49649753",
      "725",
      "142",
      "1150",
      "0",
      "0",
      "0",
      "0",
      "highway=track tracktype=grade1 mtb:scale=0 route_bicycle_rcn=yes route_hiking_rwn=yes",
      "",
      "11254",
      "318359"
     ],
     [
      "16082492",
      "49651073",
      "731",
      "401",
      "1050",
      "0",
      "0",
      "0",
      "0",
      "highway=track tracktype=grade3 mtb:scale=0 route_bicycle_rcn=yes route_hiking_rwn=yes",
      "",
      "11540",
      "322253"
     ],
     [
      "16082531",
      "49651047",
      "733",
      "4",
      "1050",
      "0",
      "0",
      "0",
      "0",
      "highway=track tracktype=grade4 mtb:scale=0 route_bicycle_rcn=yes route_hiking_nwn=yes",
      "",
      "11543",
      "322352"
     ]
    ],
    "times": [
     0,
     2.835,
     16.909,
     51.785,
     89.192,
     110.081,
     134.148,
     138.269,
     141.682,
     147.111,
     160.405,
     190.764,
     231.715,
     240.632,
     250.632,
     266.927,
     276.755,
     284.211,
     292.663,
     298.598,
     303.761,
     313.24,
     316.729,
     320.282,
     324.605,
     329.612,
     333.893,
     337.502,
     347.153,
     350.936,
     353.02,
     356.447,
     359.547,
     365.175,
     370.131,
     378.285,
     394.091,
     430.477,
     459.364,
     486.188,
     516.777,
     543.889,
     591.069,
     606.327,
     728.055,
     832.023,
     852.913,
     868.692,
     886.526,
     910.402,
     929.171,
     968.252,
     1057.932,
     1113.286,
     1133.731,
     1191.736,
     1227.92,
     1269.505,
     1322.048,
     1418.561,
     1430.605,
     1460.718,
     1483.31,
     1516.399,
     1629.497,
     1683.343,
     1722.212,
     1742.306,
     1766.272,
     1787,
     1816.171,
     1872.964,
     1901.428,
     1968.502,
     1998.361,
     2018.859,
     2055.396,
     2083.173,
     2098.24,
     2123.288,
     2173.324,
     2194.309,
     2621.429,
     2626.46,
     2636.68,
     2648.899,
     2654.963,
     2676.641,
     2694.382,
     2720.816,
     2736.905,
     2761.694,
     2772.192,
     2783.402,
     2791.206,
     2803.241,
     2992.731,
     3075.445,
     3108.02,
     3117.969,
     3130.101,
     3142.876,
     3191.004,
     3235.452,
     3264.51,
     3296.978,
     3321.442,
     3419.608,
     3434.398,
     3443.5,
     3468.958,
     3496.713,
     3537.828,
     3576.702,
     3590.193,
     3602.889,
     3609.876,
     3638.862,
     3673.544,
     3703.023,
     3751.263,
     3789.192,
     3808.36,
     3825.028,
     3833.829,
     3842.591,
     3860.122,
     3867.01,
     3886.38,
     3928.214,
     3985.742,
     4019.865,
     4079.481,
     4119.524,
     4144.5,
     4157.732,
     4187.781,
     4209.363,
     4230.11,
     4242.116,
     4252.664,
     4264.476,
     4278.128,
     4299.764,
     4323.044,
     4357.051,
     4373.039,
     4406.634,
     4468.121,
     4572.321,
     4594.271,
     4610.33,
     4666.572,
     4705.529,
     4730.074,
     4743.13,
     4772.879,
     4794.309,
     4814.948,
     4826.904,
     4841.999,
     4857.627,
     4893.087,
     4914.05,
     4935.055,
     4955.818,
     5009.85,
     5043.792,
     5087.471,
     5115.5,
     5127.306,
     5149.496,
     5169.521,
     5187.328,
     5200.831,
     5232.596,
     5242.279,
     5249.575,
     5341.316,
     5366.641,
     5391.751,
     5439.202,
     5488.607,
     5517.894,
     5545.866,
     5568.874,
     5599.719,
     5654.378,
     5811.135,
     5830.946,
     5846.591,
     5869.772,
     5871.3,
     5872.729,
     5894.01,
     5908.109,
     5925.111,
     6037.876,
     6082.643,
     6105.669,
     6122.493,
     6141.996,
     6161.331,
     6194.572,
     6227.226,
     6245.096,
     6263.784,
     6332.325,
     6337.226,
     6337.94,
     6346.517,
     6372.898,
     6383.816,
     6397.59,
     6414.371,
     6432.214,
     6442.195,
     6464.005,
     6499.208,
     6526.378,
     6573.865,
     6592.85,
     6613.767,
     6636.044,
     6678.073,
     6694.447,
     6787.208,
     6802.832,
     6814.979,
     6831.352,
     6881.846,
     6902.773,
     6934.394,
     6944.645,
     6990.332,
     7018.696,
     7026.845,
     7067.238,
     7119.024,
     7126.652,
     7146.118,
     7158.76,
     7166.832,
     7176.66,
     7196.868,
     7220.914,
     7326.649,
     7371.74,
     7446.534,
     7521.895,
     7556.216,
     7574.772,
     7593.327,
     7616.372,
     7642.927,
     7679.96,
     7729.952,
     7765.89,
     7781.938,
     7801.561,
     7826.057,
     7829.491,
     7834.351,
     7852.761,
     7864.111,
     7896.807,
     7957.379,
     7967.463,
     7978.433,
     7987.328,
     7991.023,
     7994.001,
     8027.366,
     8051.927,
     8058.141,
     8062.815,
     8067.546,
     8073.078,
     8079.515,
     8083.843,
     8089.658,
     8095.515,
     8100.631,
     8107.198,
     8140.068,
     8142.307,
     8151.459,
     8271.865,
     8306.661,
     8325.54,
     8376.105,
     8437.717,
     8490.304,
     8543.925,
     8600.74,
     8679.36,
     8721.855,
     8766.506,
     8777.473,
     8788.946,
     8802.349,
     8812.78,
     8825.35,
     8826.75,
     8828.18,
     8841.045,
     8851.941,
     8865.931,
     8877.846,
     8889.133,
     8934.02,
     8977.675,
     9056.075,
     9074.232,
     9088.266,
     9138.412,
     9288.036,
     9296.874,
     9316.808,
     9338.871,
     9360.382,
     9398.688,
     9423.633,
     9450.905,
     9495.062,
     9518.038,
     9534.079,
     9589.94,
     9612.901,
     9633.559,
     9644.601,
     9648.687,
     9657.882,
     9672.501,
     9694.892,
     9709.665,
     9730.914,
     9747.522,
     9765.825,
     9775.592,
     9796.456,
     9818.448,
     9833.742,
     9842.15,
     9857.283,
     9871.181,
     9883.566,
     9901.95,
     9912.91,
     9954.604,
     9970.626,
     10046.212,
     10057.146,
     10087.008,
     10098.742,
     10139.652,
     10154.716,
     10174.785,
     10215.874,
     10229.023,
     10233.358,
     10239.038,
     10274.108,
     10299.188,
     10337.706,
     10344.309,
     10376.121,
     10385.814,
     10403.113,
     10431.813,
     10470.461,
     10512.029,
     10535.749,
     10551.585,
     10567.505,
     10609.325,
     10624.624,
     10640.815,
     10653.558,
     10670.616,
     10690.233,
     10719.083,
     10747.844,
     10775.998,
     10796.35,
     10803.515,
     10831.546,
     10845.326,
     10860.736,
     10871.044,
     10892.303,
     10903.512,
     10908.17,
     10912.851,
     10932.753,
     10943.301,
     10953.959,
     10964.54,
     10972.247,
     10977.863,
     10985.47,
     10991.902,
     11022.69,
     11057.189,
     11070.084,
     11085.118,
     11094.388,
     11162.806,
     11174.164,
     11198.074,
     11204.543,
     11211.73,
     11222.612,
     11240.935,
     11254.486,
     11285.896,
     11308.24,
     11334.495,
     11366.259,
     11389.286,
     11425.903,
     11449.384,
     11480.023,
     11501.746,
     11540.856,
     11543.897
    ]
   },
   "geometry": {
    "type": "LineString",
    "coordinates": [
     [
      16.082531,
      49.651047,
      731.25
     ],
     [
      16.082492,
      49.651073,
      731.0
     ],
     [
      16.082687,
      49.651204,
      730.75
     ],
     [
      16.083181,
      49.651506,
      731.0
     ],
     [
      16.083633,
      49.651844,
      732.75
     ],
     [
      16.08387,
      49.65206,
      732.0
     ],
     [
      16.084182,
      49.652295,
      730.5
     ],
     [
      16.084223,
      49.652339,
      730.25
     ],
     [
      16.08424,
      49.652383,
      730.0
     ],
     [
      16.084247,
      49.652454,
      729.75
     ],
     [
      16.084189,
      49.65262,
      730.5
     ],
     [
      16.084139,
      49.65297,
      734.0
     ],
     [
      16.084169,
      49.653426,
      739.25
     ],
     [
      16.084155,
      49.653523,
      740.5
     ],
     [
      16.084179,
      49.653633,
      741.75
     ],
     [
      16.08403,
      49.653789,
      741.75
     ],
     [
      16.084009,
      49.6539,
      742.5
     ],
     [
      16.084045,
      49.653974,
      743.25
     ],
     [
      16.084102,
      49.654059,
      744.25
     ],
     [
      16.084046,
      49.654114,
      744.75
     ],
     [
      16.084105,
      49.654146,
      745.5
     ],
     [
      16.084199,
      49.654228,
      746.0
     ],
     [
      16.08419,
      49.654266,
      746.75
     ],
     [
      16.08416,
      49.654295,
      747.5
     ],
     [
      16.084102,
      49.654318,
      747.0
     ],
     [
      16.084051,
      49.654364,
      746.25
     ],
     [
      16.084088,
      49.654406,
      747.25
     ],
     [
      16.084145,
      49.654421,
      749.0
     ],
     [
      16.084102,
      49.654511,
      751.5
     ],
     [
      16.084068,
      49.654537,
      751.5
     ],
     [
      16.084041,
      49.654535,
      750.25
     ],
     [
      16.084003,
      49.654499,
      747.25
     ],
     [
      16.083952,
      49.654466,
      744.25
     ],
     [
      16.083826,
      49.654462,
      741.75
     ],
     [
      16.083776,
      49.654399,
      741.5
     ],
     [
      16.083686,
      49.654505,
      740.5
     ],
     [
      16.083424,
      49.654633,
      737.75
     ],
     [
      16.082758,
      49.654711,
      730.5
     ],
     [
      16.082256,
      49.65472,
      723.25
     ],
     [
      16.081796,
      49.654743,
      718.25
     ],
     [
      16.081307,
      49.654802,
      712.0
     ],
     [
      16.080854,
      49.654789,
      708.0
     ],
     [
      16.080075,
      49.654919,
      701.75
     ],
     [
      16.079876,
      49.655051,
      700.25
     ],
     [
      16.078242,
      49.656153,
      688.75
     ],
     [
      16.076792,
      49.65713,
      690.5
     ],
     [
      16.077202,
      49.657197,
      689.0
     ],
     [
      16.077489,
      49.657313,
      687.5
     ],
     [
      16.077202,
      49.657197,
      689.0
     ],
     [
      16.076792,
      49.65713,
      690.5
     ],
     [
      16.076443,
      49.657091,
      692.0
     ],
     [
      16.075757,
      49.657153,
      695.0
     ],
     [
      16.074397,
      49.657488,
      701.25
     ],
     [
      16.073566,
      49.657675,
      705.75
     ],
     [
      16.073229,
      49.657683,
      707.5
     ],
     [
      16.072344,
      49.657625,
      712.25
     ],
     [
      16.071772,
      49.657621,
      714.75
     ],
     [
      16.07114,
      49.657633,
      718.25
     ],
     [
      16.070352,
      49.657707,
      722.5
     ],
     [
      16.068959,
      49.657923,
      729.5
     ],
     [
      16.068933,
      49.65805,
      730.75
     ],
     [
      16.068898,
      49.658339,
      735.0
     ],
     [
      16.068944,
      49.658541,
      738.5
     ],
     [
      16.068996,
      49.658829,
      742.75
     ],
     [
      16.068945,
      49.659673,
      756.75
     ],
     [
      16.068738,
      49.660087,
      764.0
     ],
     [
      16.069122,
      49.66029,
      768.0
     ],
     [
      16.069268,
      49.660428,
      770.5
     ],
     [
      16.069326,
      49.660621,
      773.75
     ],
     [
      16.069227,
      49.660782,
      776.25
     ],
     [
      16.06912,
      49.66101,
      778.75
     ],
     [
      16.068833,
      49.661456,
      782.75
     ],
     [
      16.069248,
      49.661401,
      782.75
     ],
     [
      16.070315,
      49.661337,
      784.75
     ],
     [
      16.070823,
      49.661438,
      784.25
     ],
     [
      16.071148,
      49.661472,
      787.75
     ],
     [
      16.071668,
      49.661345,
      792.25
     ],
     [
      16.071148,
      49.661472,
      787.75
     ],
     [
      16.070823,
      49.661438,
      784.25
     ],
     [
      16.070315,
      49.661337,
      784.75
     ],
     [
      16.069248,
      49.661401,
      782.75
     ],
     [
      16.068833,
      49.661456,
      782.75
     ],
     [
      16.061913,
      49.66193,
      815.0
     ],
     [
      16.06182,
      49.661941,
      815.0
     ],
     [
      16.061663,
      49.661997,
      814.75
     ],
     [
      16.06149,
      49.66209,
      814.25
     ],
     [
      16.061379,
      49.662113,
      814.25
     ],
     [
      16.060963,
      49.662158,
      813.0
     ],
     [
      16.060695,
      49.662022,
      812.5
     ],
     [
      16.060263,
      49.661823,
      808.75
     ],
     [
      16.060009,
      49.661666,
      806.0
     ],
     [
      16.059543,
      49.661499,
      805.5
     ],
     [
      16.0595,
      49.661355,
      805.0
     ],
     [
      16.059429,
      49.661205,
      804.75
     ],
     [
      16.059321,
      49.661124,
      804.0
     ],
     [
      16.059153,
      49.660997,
      802.75
     ],
     [
      16.05645,
      49.65947,
      810.75
     ],
     [
      16.055289,
      49.658825,
      813.0
     ],
     [
      16.05483,
      49.658573,
      814.25
     ],
     [
      16.054683,
      49.658512,
      815.0
     ],
     [
      16.054467,
      49.658466,
      815.0
     ],
     [
      16.05423,
      49.658439,
      815.0
     ],
     [
      16.053365,
      49.658394,
      816.25
     ],
     [
      16.052511,
      49.65832,
      815.0
     ],
     [
      16.051953,
      49.658298,
      815.5
     ],
     [
      16.051348,
      49.658318,
      816.25
     ],
     [
      16.050901,
      49.658377,
      816.75
     ],
     [
      16.049019,
      49.658507,
      816.0
     ],
     [
      16.048733,
      49.658536,
      815.5
     ],
     [
      16.048556,
      49.658559,
      815.25
     ],
     [
      16.048068,
      49.658649,
      814.5
     ],
     [
      16.047555,
      49.658754,
      812.25
     ],
     [
      16.046749,
      49.658901,
      810.75
     ],
     [
      16.045925,
      49.65902,
      807.25
     ],
     [
      16.04564,
      49.65907,
      806.25
     ],
     [
      16.045409,
      49.659162,
      805.25
     ],
     [
      16.045261,
      49.659182,
      804.75
     ],
     [
      16.044695,
      49.659351,
      804.25
     ],
     [
      16.044033,
      49.659449,
      806.25
     ],
     [
      16.043459,
      49.659552,
      805.0
     ],
     [
      16.042445,
      49.65979,
      800.0
     ],
     [
      16.041743,
      49.660069,
      793.5
     ],
     [
      16.041488,
      49.660285,
      790.75
     ],
     [
      16.041227,
      49.660449,
      788.75
     ],
     [
      16.041112,
      49.660546,
      788.0
     ],
     [
      16.040955,
      49.660617,
      787.25
     ],
     [
      16.040839,
      49.660849,
      784.75
     ],
     [
      16.040744,
      49.660925,
      784.5
     ],
     [
      16.040352,
      49.66106,
      784.25
     ],
     [
      16.039655,
      49.661421,
      785.25
     ],
     [
      16.038658,
      49.661841,
      787.25
     ],
     [
      16.038126,
      49.6621,
      785.25
     ],
     [
      16.037167,
      49.662614,
      773.5
     ],
     [
      16.036416,
      49.662755,
      765.25
     ],
     [
      16.036073,
      49.662965,
      760.0
     ],
     [
      16.03585,
      49.663043,
      757.25
     ],
     [
      16.035342,
      49.663181,
      753.25
     ],
     [
      16.034972,
      49.663306,
      750.75
     ],
     [
      16.034621,
      49.663458,
      749.0
     ],
     [
      16.034405,
      49.663537,
      748.0
     ],
     [
      16.034189,
      49.663581,
      746.75
     ],
     [
      16.034405,
      49.663537,
      748.0
     ],
     [
      16.034621,
      49.663458,
      749.0
     ],
     [
      16.034972,
      49.663306,
      750.75
     ],
     [
      16.035342,
      49.663181,
      753.25
     ],
     [
      16.03585,
      49.663043,
      757.25
     ],
     [
      16.036073,
      49.662965,
      760.0
     ],
     [
      16.036416,
      49.662755,
      765.25
     ],
     [
      16.037167,
      49.662614,
      773.5
     ],
     [
      16.038126,
      49.6621,
      785.25
     ],
     [
      16.038375,
      49.661978,
      787.25
     ],
     [
      16.038126,
      49.6621,
      785.25
     ],
     [
      16.037167,
      49.662614,
      773.5
     ],
     [
      16.036416,
      49.662755,
      765.25
     ],
     [
      16.036073,
      49.662965,
      760.0
     ],
     [
      16.03585,
      49.663043,
      757.25
     ],
     [
      16.035342,
      49.663181,
      753.25
     ],
     [
      16.034972,
      49.663306,
      750.75
     ],
     [
      16.034621,
      49.663458,
      749.0
     ],
     [
      16.034405,
      49.663537,
      748.0
     ],
     [
      16.034097,
      49.6636,
      746.75
     ],
     [
      16.034069,
      49.663828,
      746.5
     ],
     [
      16.033848,
      49.664339,
      745.25
     ],
     [
      16.033621,
      49.664593,
      745.0
     ],
     [
      16.033341,
      49.664819,
      745.0
     ],
     [
      16.033055,
      49.665019,
      746.0
     ],
     [
      16.032552,
      49.665642,
      748.5
     ],
     [
      16.032178,
      49.665962,
      751.0
     ],
     [
      16.031826,
      49.666435,
      754.75
     ],
     [
      16.031454,
      49.666635,
      757.5
     ],
     [
      16.031248,
      49.666654,
      757.75
     ],
     [
      16.030948,
      49.666806,
      759.75
     ],
     [
      16.030676,
      49.666922,
      761.25
     ],
     [
      16.030406,
      49.666983,
      762.75
     ],
     [
      16.030191,
      49.667019,
      763.5
     ],
     [
      16.029662,
      49.667031,
      764.5
     ],
     [
      16.0295,
      49.66704,
      764.5
     ],
     [
      16.029484,
      49.667118,
      765.0
     ],
     [
      16.028707,
      49.667852,
      773.25
     ],
     [
      16.028409,
      49.668032,
      775.5
     ],
     [
      16.028173,
      49.668236,
      778.0
     ],
     [
      16.027854,
      49.668643,
      782.0
     ],
     [
      16.027654,
      49.669106,
      786.0
     ],
     [
      16.027494,
      49.669375,
      788.5
     ],
     [
      16.027279,
      49.669621,
      790.25
     ],
     [
      16.027192,
      49.669846,
      791.5
     ],
     [
      16.02717,
      49.670163,
      793.25
     ],
     [
      16.028059,
      49.670293,
      794.0
     ],
     [
      16.030484,
      49.670639,
      803.5
     ],
     [
      16.030799,
      49.670733,
      804.75
     ],
     [
      16.030959,
      49.670878,
      805.0
     ],
     [
      16.03119,
      49.671105,
      805.25
     ],
     [
      16.03122,
      49.671113,
      805.5
     ],
     [
      16.03119,
      49.671105,
      805.25
     ],
     [
      16.030959,
      49.670878,
      805.0
     ],
     [
      16.030799,
      49.670733,
      804.75
     ],
     [
      16.030484,
      49.670639,
      803.5
     ],
     [
      16.028059,
      49.670293,
      794.0
     ],
     [
      16.02717,
      49.670163,
      793.25
     ],
     [
      16.027192,
      49.669846,
      791.5
     ],
     [
      16.027279,
      49.669621,
      790.25
     ],
     [
      16.027494,
      49.669375,
      788.5
     ],
     [
      16.027654,
      49.669106,
      786.0
     ],
     [
      16.027854,
      49.668643,
      782.0
     ],
     [
      16.028173,
      49.668236,
      778.0
     ],
     [
      16.028409,
      49.668032,
      775.5
     ],
     [
      16.028707,
      49.667852,
      773.25
     ],
     [
      16.029484,
      49.667118,
      765.0
     ],
     [
      16.029498,
      49.667046,
      764.5
     ],
     [
      16.0295,
      49.66704,
      764.5
     ],
     [
      16.029662,
      49.667031,
      764.5
     ],
     [
      16.030191,
      49.667019,
      763.5
     ],
     [
      16.030406,
      49.666983,
      762.75
     ],
     [
      16.030676,
      49.666922,
      761.25
     ],
     [
      16.030948,
      49.666806,
      759.75
     ],
     [
      16.031248,
      49.666654,
      757.75
     ],
     [
      16.031454,
      49.666635,
      757.5
     ],
     [
      16.031826,
      49.666435,
      754.75
     ],
     [
      16.032178,
      49.665962,
      751.0
     ],
     [
      16.032552,
      49.665642,
      748.5
     ],
     [
      16.033055,
      49.665019,
      746.0
     ],
     [
      16.033341,
      49.664819,
      745.0
     ],
     [
      16.033621,
      49.664593,
      745.0
     ],
     [
      16.033848,
      49.664339,
      745.25
     ],
     [
      16.034069,
      49.663828,
      746.5
     ],
     [
      16.034097,
      49.6636,
      746.75
     ],
     [
      16.033005,
      49.662603,
      743.5
     ],
     [
      16.032874,
      49.662415,
      742.5
     ],
     [
      16.032825,
      49.662252,
      742.0
     ],
     [
      16.032843,
      49.662041,
      742.0
     ],
     [
      16.032777,
      49.661369,
      740.75
     ],
     [
      16.032836,
      49.661089,
      740.0
     ],
     [
      16.033084,
      49.660707,
      740.0
     ],
     [
      16.033172,
      49.660581,
      739.5
     ],
     [
      16.033462,
      49.660001,
      738.25
     ],
     [
      16.033606,
      49.659638,
      737.5
     ],
     [
      16.033637,
      49.659534,
      737.25
     ],
     [
      16.034046,
      49.659075,
      737.0
     ],
     [
      16.034669,
      49.65853,
      736.5
     ],
     [
      16.034729,
      49.658435,
      736.25
     ],
     [
      16.035112,
      49.658503,
      738.0
     ],
     [
      16.035294,
      49.658615,
      739.0
     ],
     [
      16.035439,
      49.658656,
      740.25
     ],
     [
      16.035616,
      49.658628,
      741.25
     ],
     [
      16.035906,
      49.658476,
      741.25
     ],
     [
      16.036212,
      49.65825,
      740.75
     ],
     [
      16.037493,
      49.657231,
      741.0
     ],
     [
      16.037999,
      49.656779,
      741.5
     ],
     [
      16.038776,
      49.656021,
      742.75
     ],
     [
      16.0395,
      49.655263,
      745.0
     ],
     [
      16.039843,
      49.654923,
      746.25
     ],
     [
      16.039897,
      49.654697,
      746.0
     ],
     [
      16.039779,
      49.654475,
      745.0
     ],
     [
      16.039543,
      49.654215,
      743.25
     ],
     [
      16.039144,
      49.653998,
      740.75
     ],
     [
      16.039646,
      49.653637,
      742.75
     ],
     [
      16.040236,
      49.653157,
      744.75
     ],
     [
      16.039579,
      49.652945,
      742.25
     ],
     [
      16.039288,
      49.652845,
      741.25
     ],
     [
      16.038939,
      49.652703,
      740.0
     ],
     [
      16.038537,
      49.652506,
      737.5
     ],
     [
      16.038504,
      49.652468,
      737.5
     ],
     [
      16.038474,
      49.652408,
      737.75
     ],
     [
      16.038422,
      49.652175,
      738.25
     ],
     [
      16.038408,
      49.652032,
      738.25
     ],
     [
      16.038396,
      49.651615,
      738.25
     ],
     [
      16.038439,
      49.650843,
      740.75
     ],
     [
      16.038456,
      49.650716,
      741.25
     ],
     [
      16.038494,
      49.650587,
      741.75
     ],
     [
      16.038546,
      49.650482,
      742.25
     ],
     [
      16.038582,
      49.650444,
      742.25
     ],
     [
      16.038618,
      49.65042,
      742.5
     ],
     [
      16.039092,
      49.65018,
      744.25
     ],
     [
      16.039458,
      49.650015,
      744.75
     ],
     [
      16.039543,
      49.649968,
      745.5
     ],
     [
      16.039604,
      49.649927,
      745.75
     ],
     [
      16.039641,
      49.649882,
      746.25
     ],
     [
      16.039655,
      49.649822,
      746.5
     ],
     [
      16.039636,
      49.649743,
      746.75
     ],
     [
      16.0396,
      49.64969,
      747.0
     ],
     [
      16.039542,
      49.649627,
      747.25
     ],
     [
      16.039464,
      49.649573,
      747.5
     ],
     [
      16.039383,
      49.649537,
      747.5
     ],
     [
      16.039275,
      49.6495,
      747.5
     ],
     [
      16.038708,
      49.64935,
      748.5
     ],
     [
      16.038675,
      49.649336,
      748.75
     ],
     [
      16.038564,
      49.649251,
      749.5
     ],
     [
      16.040424,
      49.648671,
      754.5
     ],
     [
      16.041023,
      49.648537,
      755.0
     ],
     [
      16.041362,
      49.648514,
      755.5
     ],
     [
      16.042286,
      49.648486,
      756.25
     ],
     [
      16.043421,
      49.648433,
      757.25
     ],
     [
      16.044404,
      49.648366,
      757.75
     ],
     [
      16.045362,
      49.64824,
      759.25
     ],
     [
      16.04637,
      49.648042,
      760.0
     ],
     [
      16.047796,
      49.647761,
      760.0
     ],
     [
      16.04861,
      49.647705,
      760.0
     ],
     [
      16.04942,
      49.647716,
      759.0
     ],
     [
      16.049623,
      49.647687,
      758.5
     ],
     [
      16.049839,
      49.647642,
      758.0
     ],
     [
      16.050067,
      49.647562,
      757.5
     ],
     [
      16.050241,
      49.647491,
      757.0
     ],
     [
      16.050441,
      49.647392,
      757.0
     ],
     [
      16.050463,
      49.647379,
      757.0
     ],
     [
      16.050441,
      49.647392,
      757.0
     ],
     [
      16.050241,
      49.647491,
      757.0
     ],
     [
      16.050067,
      49.647562,
      757.5
     ],
     [
      16.049839,
      49.647642,
      758.0
     ],
     [
      16.049623,
      49.647687,
      758.5
     ],
     [
      16.04942,
      49.647716,
      759.0
     ],
     [
      16.04861,
      49.647705,
      760.0
     ],
     [
      16.047796,
      49.647761,
      760.0
     ],
     [
      16.04637,
      49.648042,
      760.0
     ],
     [
      16.046656,
      49.648184,
      759.0
     ],
     [
      16.046842,
      49.648317,
      759.0
     ],
     [
      16.047409,
      49.648843,
      759.0
     ],
     [
      16.048969,
      49.650326,
      765.25
     ],
     [
      16.049085,
      49.650407,
      765.75
     ],
     [
      16.049396,
      49.650536,
      766.0
     ],
     [
      16.049729,
      49.650684,
      767.25
     ],
     [
      16.050054,
      49.650809,
      769.25
     ],
     [
      16.050572,
      49.651066,
      771.25
     ],
     [
      16.050885,
      49.651253,
      772.25
     ],
     [
      16.051243,
      49.651452,
      773.25
     ],
     [
      16.051936,
      49.651704,
      773.5
     ],
     [
      16.052331,
      49.651813,
      773.0
     ],
     [
      16.052625,
      49.651844,
      772.75
     ],
     [
      16.053723,
      49.651688,
      767.75
     ],
     [
      16.054195,
      49.651641,
      766.5
     ],
     [
      16.054586,
      49.651606,
      764.75
     ],
     [
      16.054807,
      49.651597,
      763.75
     ],
     [
      16.054846,
      49.651554,
      763.25
     ],
     [
      16.05501,
      49.651487,
      762.0
     ],
     [
      16.055254,
      49.651359,
      760.5
     ],
     [
      16.055742,
      49.65132,
      758.75
     ],
     [
      16.056067,
      49.651283,
      757.25
     ],
     [
      16.056552,
      49.651269,
      755.5
     ],
     [
      16.056921,
      49.651308,
      754.5
     ],
     [
      16.057332,
      49.651339,
      753.0
     ],
     [
      16.057556,
      49.651343,
      752.0
     ],
     [
      16.05802,
      49.651289,
      749.5
     ],
     [
      16.058404,
      49.6511,
      746.75
     ],
     [
      16.05866,
      49.650951,
      745.75
     ],
     [
      16.058851,
      49.650913,
      745.25
     ],
     [
      16.059198,
      49.650893,
      744.0
     ],
     [
      16.059521,
      49.650872,
      743.25
     ],
     [
      16.059798,
      49.650861,
      743.0
     ],
     [
      16.060191,
      49.650824,
      742.75
     ],
     [
      16.060411,
      49.65077,
      742.5
     ],
     [
      16.061147,
      49.650433,
      741.0
     ],
     [
      16.061413,
      49.650303,
      741.0
     ],
     [
      16.062534,
      49.649607,
      740.0
     ],
     [
      16.062734,
      49.649536,
      739.5
     ],
     [
      16.063311,
      49.649522,
      740.5
     ],
     [
      16.063549,
      49.649491,
      740.75
     ],
     [
      16.06435,
      49.649369,
      742.0
     ],
     [
      16.064634,
      49.649349,
      742.75
     ],
     [
      16.065004,
      49.64928,
      742.75
     ],
     [
      16.065769,
      49.649172,
      743.0
     ],
     [
      16.066012,
      49.649145,
      743.5
     ],
     [
      16.066054,
      49.649101,
      743.25
     ],
     [
      16.06609,
      49.649033,
      742.75
     ],
     [
      16.066484,
      49.648665,
      742.25
     ],
     [
      16.066715,
      49.648386,
      742.75
     ],
     [
      16.066955,
      49.647947,
      744.0
     ],
     [
      16.066992,
      49.647866,
      744.0
     ],
     [
      16.067382,
      49.647579,
      744.5
     ],
     [
      16.067519,
      49.647506,
      745.0
     ],
     [
      16.067781,
      49.647393,
      745.5
     ],
     [
      16.068226,
      49.647223,
      747.0
     ],
     [
      16.068892,
      49.647039,
      749.5
     ],
     [
      16.069511,
      49.646809,
      752.75
     ],
     [
      16.069873,
      49.646696,
      754.75
     ],
     [
      16.070126,
      49.646652,
      756.25
     ],
     [
      16.070386,
      49.646615,
      757.25
     ],
     [
      16.071002,
      49.646445,
      760.25
     ],
     [
      16.071235,
      49.646392,
      761.25
     ],
     [
      16.071492,
      49.646358,
      762.25
     ],
     [
      16.071698,
      49.646349,
      763.0
     ],
     [
      16.071969,
      49.646365,
      764.0
     ],
     [
      16.0723,
      49.646404,
      763.75
     ],
     [
      16.072791,
      49.646444,
      764.25
     ],
     [
      16.073314,
      49.646505,
      763.5
     ],
     [
      16.073852,
      49.646471,
      762.5
     ],
     [
      16.074226,
      49.646468,
      761.0
     ],
     [
      16.07436,
      49.646475,
      759.75
     ],
     [
      16.074899,
      49.646545,
      756.0
     ],
     [
      16.075194,
      49.64656,
      753.75
     ],
     [
      16.075526,
      49.646557,
      752.5
     ],
     [
      16.075753,
      49.646545,
      752.0
     ],
     [
      16.076211,
      49.646507,
      751.25
     ],
     [
      16.076451,
      49.646498,
      751.25
     ],
     [
      16.076546,
      49.646487,
      751.25
     ],
     [
      16.076638,
      49.646468,
      751.25
     ],
     [
      16.076997,
      49.646348,
      751.75
     ],
     [
      16.076952,
      49.646478,
      752.25
     ],
     [
      16.076893,
      49.646608,
      752.5
     ],
     [
      16.07678,
      49.646723,
      752.25
     ],
     [
      16.076683,
      49.646804,
      752.0
     ],
     [
      16.076632,
      49.646869,
      752.0
     ],
     [
      16.076578,
      49.646961,
      751.5
     ],
     [
      16.076535,
      49.647037,
      751.5
     ],
     [
      16.076352,
      49.647418,
      747.75
     ],
     [
      16.076095,
      49.647903,
      742.0
     ],
     [
      16.075952,
      49.648065,
      739.25
     ],
     [
      16.075769,
      49.648239,
      736.0
     ],
     [
      16.075729,
      49.648358,
      734.25
     ],
     [
      16.075791,
      49.649182,
      724.5
     ],
     [
      16.076036,
      49.649227,
      724.25
     ],
     [
      16.07656,
      49.64925,
      725.75
     ],
     [
      16.076683,
      49.649289,
      725.75
     ],
     [
      16.076815,
      49.649343,
      725.75
     ],
     [
      16.076961,
      49.649464,
      724.75
     ],
     [
      16.077239,
      49.649641,
      724.75
     ],
     [
      16.077462,
      49.649753,
      725.25
     ],
     [
      16.078046,
      49.649911,
      725.0
     ],
     [
      16.078478,
      49.649979,
      725.25
     ],
     [
      16.079013,
      49.65001,
      726.75
     ],
     [
      16.079598,
      49.650105,
      728.5
     ],
     [
      16.079988,
      49.650236,
      728.5
     ],
     [
      16.080628,
      49.650438,
      728.5
     ],
     [
      16.081003,
      49.6506,
      728.25
     ],
     [
      16.081456,
      49.650857,
      728.25
     ],
     [
      16.081797,
      49.651015,
      728.75
     ],
     [
      16.082492,
      49.651073,
      731.0
     ],
     [
      16.082531,
      49.651047,
      733.75
     ]
    ]
   }
  }
 ]
}