{
 "type": "FeatureCollection",
 "features": [
  {
   "type": "Feature",
   "properties": {
    "creator": "BRouter-1.7.10",
    "name": "brouter_hiking-mountain_0",
    "track-length": "6202",
    "filtered ascend": "186",
    "plain-ascend": "3",
    "total-time": "4830",
    "total-energy": "171287",
    "cost": "7973",
    "messages": [
     [
      "Longitude",
      "Latitude",
      "Elevation",
      "Distance",
      "CostPerKm",
      "ElevCost",
      "TurnCost",
      "NodeCost",
      "InitialCost",
      "WayTags",
      "NodeTags",
      "Time",
      "Energy"
     ],
     [
      "16082492",
      "49651073",
      "731",
      "4",
      "1050",
      "0",
      "0",
      "0",
      "0",
      "reversedirection=yes highway=track tracktype=grade4 mtb:scale=0 route_bicycle_rcn=yes route_hiking_nwn=yes",
      "",
      "2",
      "28"
     ],
     [
      "16084240",
      "49652383",
      "730",
      "194",
      "1050",
      "0",
      "0",
      "0",
      "0",
      "reversedirection=yes highway=track tracktype=grade5 vehicle=no mtb:scale=0 route_hiking_nwn=yes route_hiking_rwn=yes",
      "",
      "141",
      "1900"
     ],
     [
      "16084155",
      "49653523",
      "740",
      "128",
      "1050",
      "0",
      "0",
      "0",
      "0",
      "highway=path mtb:scale=0 route_hiking_nwn=yes",
      "",
      "240",
      "5589"
     ],
     [
      "16084046",
      "49654114",
      "744",
      "70",
      "1050",
      "0",
      "0",
      "0",
      "0",
      "highway=path route_hiking_nwn=yes",
      "",
      "298",
      "8827"
     ],
     [
      "16084199",
      "49654228",
      "746",
      "17",
      "1260",
      "0",
      "0",
      "0",
      "0",
      "highway=path",
      "",
      "313",
      "9782"
     ],
     [
      "16083776",
      "49654399",
      "741",
      "71",
      "1260",
      "0",
      "0",
      "0",
      "0",
      "reversedirection=yes highway=path",
      "",
      "370",
      "12572"
     ],
     [
      "16083686",
      "49654505",
      "740",
      "13",
      "1050",
      "0",
      "0",
      "0",
      "0",
      "highway=path route_hiking_nwn=yes",
      "",
      "378",
      "12572"
     ],
     [
      "16080854",
      "49654789",
      "708",
      "211",
      "1000",
      "0",
      "0",
      "0",
      "0",
      "highway=path mtb:scale=1 route_hiking_nwn=yes",
      "",
      "543",
      "12572"
     ],
     [
      "16080075",
      "49654919",
      "701",
      "58",
      "1050",
      "0",
      "0",
      "0",
      "0",
      "reversedirection=yes highway=path surface=earth route_hiking_nwn=yes",
      "",
      "591",
      "12572"
     ],
     [
      "16076792",
      "49657130",
      "690",
      "342",
      "1050",
      "0",
      "0",
      "0",
      "0",
      "highway=track tracktype=grade3 route_hiking_nwn=yes route_hiking_rwn=yes",
      "",
      "832",
      "12572"
     ],
     [
      "16077489",
      "49657313",
      "687",
      "55",
      "1350",
      "0",
      "0",
      "0",
      "0",
      "highway=track surface=paved tracktype=grade1 route_bicycle_rcn=yes route_hiking_nwn=yes route_hiking_rwn=yes",
      "",
      "868",
      "12572"
     ],
     [
      "16076792",
      "49657130",
      "690",
      "55",
      "1150",
      "0",
      "0",
      "0",
      "0",
      "reversedirection=yes highway=track surface=paved tracktype=grade1 route_bicycle_rcn=yes route_hiking_nwn=yes route_hiking_rwn=yes",
      "",
      "910",
      "13899"
     ],
     [
      "16068959",
      "49657923",
      "729",
      "580",
      "1280",
      "0",
      "0",
      "0",
      "0",
      "reversedirection=yes highway=track surface=paved tracktype=grade1 route_bicycle_rcn=yes",
      "",
      "1418",
      "48678"
     ],
     [
      "16068738",
      "49660087",
      "764",
      "243",
      "1260",
      "0",
      "0",
      "0",
      "0",
      "reversedirection=yes highway=path",
      "",
      "1683",
      "76378"
     ],
     [
      "16068833",
      "49661456",
      "782",
      "177",
      "1260",
      "0",
      "0",
      "0",
      "0",
      "highway=track tracktype=grade2 mtb:scale=1",
      "",
      "1872",
      "96041"
     ],
     [
      "16071668",
      "49661345",
      "792",
      "210",
      "1100",
      "0",
      "0",
      "0",
      "0",
      "reversedirection=yes highway=path surface=dirt mtb:scale=1 route_hiking_nwn=yes",
      "",
      "2055",
      "108220"
     ],
     [
      "16068833",
      "49661456",
      "782",
      "210",
      "1100",
      "0",
      "0",
      "0",
      "0",
      "highway=path surface=dirt mtb:scale=1 route_hiking_nwn=yes",
      "",
      "2194",
      "108301"
     ],
     [
      "16068738",
      "49660087",
      "764",
      "177",
      "1260",
      "0",
      "0",
      "0",
      "0",
      "reversedirection=yes highway=track tracktype=grade2 mtb:scale=1",
      "",
      "2309",
      "108301"
     ],
     [
      "16068959",
      "49657923",
      "729",
      "243",
      "1260",
      "0",
      "0",
      "0",
      "0",
      "highway=path",
      "",
      "2504",
      "108301"
     ],
     [
      "16076792",
      "49657130",
      "690",
      "580",
      "1580",
      "0",
      "0",
      "0",
      "0",
      "highway=track surface=paved tracktype=grade1 route_bicycle_rcn=yes",
      "",
      "2888",
      "108301"
     ],
     [
      "16080075",
      "49654919",
      "701",
      "342",
      "1050",
      "0",
      "0",
      "0",
      "0",
      "reversedirection=yes highway=track tracktype=grade3 route_hiking_nwn=yes route_hiking_rwn=yes",
      "",
      "3131",
      "113416"
     ],
     [
      "16080567",
      "49654595",
      "706",
      "51",
      "1050",
      "0",
      "0",
      "0",
      "0",
      "reversedirection=yes highway=track tracktype=grade3 route_hiking_rwn=yes",
      "",
      "3174",
      "116026"
     ],
     [
      "16084240",
      "49652383",
      "730",
      "367",
      "1050",
      "0",
      "0",
      "0",
      "0",
      "highway=track tracktype=grade5 route_hiking_rwn=yes",
      "",
      "3504",
      "140663"
     ],
     [
      "16082492",
      "49651073",
      "731",
      "194",
      "1050",
      "0",
      "0",
      "0",
      "0",
      "highway=track tracktype=grade5 vehicle=no mtb:scale=0 route_hiking_nwn=yes route_hiking_rwn=yes",
      "",
      "3654",
      "145974"
     ],
     [
      "16077462",
      "49649753",
      "725",
      "401",
      "1050",
      "0",
      "0",
      "0",
      "0",
      "reversedirection=yes highway=track tracktype=grade3 mtb:scale=0 route_bicycle_rcn=yes route_hiking_rwn=yes",
      "",
      "3937",
      "149050"
     ],
     [
      "16075791",
      "49649182",
      "724",
      "142",
      "1150",
      "0",
      "0",
      "0",
      "0",
      "reversedirection=yes highway=track tracktype=grade1 mtb:scale=0 route_bicycle_rcn=yes route_hiking_rwn=yes",
      "",
      "4036",
      "149576"
     ],
     [
      "16076578",
      "49646961",
      "752",
      "260",
      "2500",
      "0",
      "0",
      "0",
      "0",
      "highway=tertiary route_bicycle_rcn=yes route_hiking_rwn=yes",
      "",
      "4271",
      "167037"
     ],
     [
      "16075791",
      "49649182",
      "724",
      "260",
      "2500",
      "0",
      "0",
      "0",
      "0",
      "reversedirection=yes highway=tertiary route_bicycle_rcn=yes route_hiking_rwn=yes",
      "",
      "4448",
      "167294"
     ],
     [
      "16077462",
      "49649753",
      "725",
      "142",
      "1150",
      "0",
      "0",
      "0",
      "0",
      "highway=track tracktype=grade1 mtb:scale=0 route_bicycle_rcn=yes route_hiking_rwn=yes",
      "",
      "4540",
      "167294"
     ],
     [
      "16082492",
      "49651073",
      "731",
      "401",
      "1050",
      "0",
      "0",
      "0",
      "0",
      "highway=track tracktype=grade3 mtb:scale=0 route_bicycle_rcn=yes route_hiking_rwn=yes",
      "",
      "4826",
      "171188"
     ],
     [
      "16082531",
      "49651047",
      "733",
      "4",
      "1050",
      "0",
      "0",
      "0",
      "0",
      "highway=track tracktype=grade4 mtb:scale=0 route_bicycle_rcn=yes route_hiking_nwn=yes",
      "",
      "4829",
      "171287"
     ]
    ],
    "times": [
     0,
     2.835,
     16.909,
     51.785,
     89.192,
     110.081,
     134.148,
     138.269,
     141.682,
     147.111,
     160.405,
     190.764,
     231.715,
     240.632,
     250.632,
     266.927,
     276.755,
     284.211,
     292.663,
     298.598,
     303.761,
     313.24,
     316.729,
     320.282,
     324.605,
     329.612,
     333.893,
     337.502,
     347.153,
     350.936,
     353.02,
     356.447,
     359.547,
     365.175,
     370.131,
     378.285,
     394.091,
     430.477,
     459.364,
     486.188,
     516.777,
     543.889,
     591.069,
     606.327,
     728.055,
     832.023,
     852.913,
     868.692,
     886.526,
     910.402,
     929.171,
     968.252,
     1057.932,
     1113.286,
     1133.731,
     1191.736,
     1227.92,
     1269.505,
     1322.048,
     1418.561,
     1430.605,
     1460.718,
     1483.31,
     1516.399,
     1629.497,
     1683.343,
     1722.212,
     1742.306,
     1766.272,
     1787,
     1816.171,
     1872.964,
     1901.428,
     1968.502,
     1998.361,
     2018.859,
     2055.396,
     2083.173,
     2098.24,
     2123.288,
     2173.324,
     2194.309,
     2227.729,
     2243.98,
     2255.857,
     2270.492,
     2283.49,
     2309.249,
     2346.531,
     2427.487,
     2451.626,
     2469.18,
     2494.297,
     2504.733,
     2580.669,
     2618.635,
     2648.815,
     2675.136,
     2717.268,
     2732.397,
     2774.328,
     2842.348,
     2872.94,
     2888.592,
     2985.069,
     3115.316,
     3131.433,
     3174.494,
     3189.546,
     3221.24,
     3264.37,
     3303.02,
     3325.955,
     3377.796,
     3404.371,
     3434.643,
     3460.102,
     3483.345,
     3498.387,
     3504.89,
     3508.957,
     3513.844,
     3542.946,
     3566.609,
     3603.867,
     3639.542,
     3654.139,
     3691.903,
     3713.523,
     3744.436,
     3768.293,
     3805.021,
     3828.006,
     3858.036,
     3883.926,
     3905.483,
     3937.286,
     3951.026,
     3970.424,
     3982.664,
     3990.577,
     3997.765,
     4023.883,
     4036.476,
     4112.24,
     4123.724,
     4144.132,
     4163.604,
     4220.369,
     4263.046,
     4271.161,
     4277.594,
     4308.382,
     4342.881,
     4355.776,
     4370.81,
     4380.079,
     4448.498,
     4459.855,
     4483.766,
     4490.235,
     4497.422,
     4508.304,
     4526.626,
     4540.177,
     4571.586,
     4593.931,
     4620.187,
     4651.95,
     4674.978,
     4711.595,
     4735.075,
     4765.714,
     4787.437,
     4826.548,
     4829.588
    ]
   },
   "geometry": {
    "type": "LineString",
    "coordinates": [
     [
      16.082531,
      49.651047,
      731.25
     ],
     [
      16.082492,
      49.651073,
      731.0
     ],
     [
      16.082687,
      49.651204,
      730.75
     ],
     [
      16.083181,
      49.651506,
      731.0
     ],
     [
      16.083633,
      49.651844,
      732.75
     ],
     [
      16.08387,
      49.65206,
      732.0
     ],
     [
      16.084182,
      49.652295,
      730.5
     ],
     [
      16.084223,
      49.652339,
      730.25
     ],
     [
      16.08424,
      49.652383,
      730.0
     ],
     [
      16.084247,
      49.652454,
      729.75
     ],
     [
      16.084189,
      49.65262,
      730.5
     ],
     [
      16.084139,
      49.65297,
      734.0
     ],
     [
      16.084169,
      49.653426,
      739.25
     ],
     [
      16.084155,
      49.653523,
      740.5
     ],
     [
      16.084179,
      49.653633,
      741.75
     ],
     [
      16.08403,
      49.653789,
      741.75
     ],
     [
      16.084009,
      49.6539,
      742.5
     ],
     [
      16.084045,
      49.653974,
      743.25
     ],
     [
      16.084102,
      49.654059,
      744.25
     ],
     [
      16.084046,
      49.654114,
      744.75
     ],
     [
      16.084105,
      49.654146,
      745.5
     ],
     [
      16.084199,
      49.654228,
      746.0
     ],
     [
      16.08419,
      49.654266,
      746.75
     ],
     [
      16.08416,
      49.654295,
      747.5
     ],
     [
      16.084102,
      49.654318,
      747.0
     ],
     [
      16.084051,
      49.654364,
      746.25
     ],
     [
      16.084088,
      49.654406,
      747.25
     ],
     [
      16.084145,
      49.654421,
      749.0
     ],
     [
      16.084102,
      49.654511,
      751.5
     ],
     [
      16.084068,
      49.654537,
      751.5
     ],
     [
      16.084041,
      49.654535,
      750.25
     ],
     [
      16.084003,
      49.654499,
      747.25
     ],
     [
      16.083952,
      49.654466,
      744.25
     ],
     [
      16.083826,
      49.654462,
      741.75
     ],
     [
      16.083776,
      49.654399,
      741.5
     ],
     [
      16.083686,
      49.654505,
      740.5
     ],
     [
      16.083424,
      49.654633,
      737.75
     ],
     [
      16.082758,
      49.654711,
      730.5
     ],
     [
      16.082256,
      49.65472,
      723.25
     ],
     [
      16.081796,
      49.654743,
      718.25
     ],
     [
      16.081307,
      49.654802,
      712.0
     ],
     [
      16.080854,
      49.654789,
      708.0
     ],
     [
      16.080075,
      49.654919,
      701.75
     ],
     [
      16.079876,
      49.655051,
      700.25
     ],
     [
      16.078242,
      49.656153,
      688.75
     ],
     [
      16.076792,
      49.65713,
      690.5
     ],
     [
      16.077202,
      49.657197,
      689.0
     ],
     [
      16.077489,
      49.657313,
      687.5
     ],
     [
      16.077202,
      49.657197,
      689.0
     ],
     [
      16.076792,
      49.65713,
      690.5
     ],
     [
      16.076443,
      49.657091,
      692.0
     ],
     [
      16.075757,
      49.657153,
      695.0
     ],
     [
      16.074397,
      49.657488,
      701.25
     ],
     [
      16.073566,
      49.657675,
      705.75
     ],
     [
      16.073229,
      49.657683,
      707.5
     ],
     [
      16.072344,
      49.657625,
      712.25
     ],
     [
      16.071772,
      49.657621,
      714.75
     ],
     [
      16.07114,
      49.657633,
      718.25
     ],
     [
      16.070352,
      49.657707,
      722.5
     ],
     [
      16.068959,
      49.657923,
      729.5
     ],
     [
      16.068933,
      49.65805,
      730.75
     ],
     [
      16.068898,
      49.658339,
      735.0
     ],
     [
      16.068944,
      49.658541,
      738.5
     ],
     [
      16.068996,
      49.658829,
      742.75
     ],
     [
      16.068945,
      49.659673,
      756.75
     ],
     [
      16.068738,
      49.660087,
      764.0
     ],
     [
      16.069122,
      49.66029,
      768.0
     ],
     [
      16.069268,
      49.660428,
      770.5
     ],
     [
      16.069326,
      49.660621,
      773.75
     ],
     [
      16.069227,
      49.660782,
      776.25
     ],
     [
      16.06912,
      49.66101,
      778.75
     ],
     [
      16.068833,
      49.661456,
      782.75
     ],
     [
      16.069248,
      49.661401,
      782.75
     ],
     [
      16.070315,
      49.661337,
      784.75
     ],
     [
      16.070823,
      49.661438,
      784.25
     ],
     [
      16.071148,
      49.661472,
      787.75
     ],
     [
      16.071668,
      49.661345,
      792.25
     ],
     [
      16.071148,
      49.661472,
      787.75
     ],
     [
      16.070823,
      49.661438,
      784.25
     ],
     [
      16.070315,
      49.661337,
      784.75
     ],
     [
      16.069248,
      49.661401,
      782.75
     ],
     [
      16.068833,
      49.661456,
      782.75
     ],
     [
      16.06912,
      49.66101,
      778.75
     ],
     [
      16.069227,
      49.660782,
      776.25
     ],
     [
      16.069326,
      49.660621,
      773.75
     ],
     [
      16.069268,
      49.660428,
      770.5
     ],
     [
      16.069122,
      49.66029,
      768.0
     ],
     [
      16.068738,
      49.660087,
      764.0
     ],
     [
      16.068945,
      49.659673,
      756.75
     ],
     [
      16.068996,
      49.658829,
      742.75
     ],
     [
      16.068944,
      49.658541,
      738.5
     ],
     [
      16.068898,
      49.658339,
      735.0
     ],
     [
      16.068933,
      49.65805,
      730.75
     ],
     [
      16.068959,
      49.657923,
      729.5
     ],
     [
      16.070352,
      49.657707,
      722.5
     ],
     [
      16.07114,
      49.657633,
      718.25
     ],
     [
      16.071772,
      49.657621,
      714.75
     ],
     [
      16.072344,
      49.657625,
      712.25
     ],
     [
      16.073229,
      49.657683,
      707.5
     ],
     [
      16.073566,
      49.657675,
      705.75
     ],
     [
      16.074397,
      49.657488,
      701.25
     ],
     [
      16.075757,
      49.657153,
      695.0
     ],
     [
      16.076443,
      49.657091,
      692.0
     ],
     [
      16.076792,
      49.65713,
      690.5
     ],
     [
      16.078242,
      49.656153,
      688.75
     ],
     [
      16.079876,
      49.655051,
      700.25
     ],
     [
      16.080075,
      49.654919,
      701.75
     ],
     [
      16.080567,
      49.654595,
      706.0
     ],
     [
      16.080731,
      49.654473,
      707.25
     ],
     [
      16.081064,
      49.654229,
      710.25
     ],
     [
      16.081519,
      49.653928,
      714.25
     ],
     [
      16.081907,
      49.653649,
      717.5
     ],
     [
      16.082108,
      49.653467,
      719.75
     ],
     [
      16.08262,
      49.653097,
      723.75
     ],
     [
      16.082915,
      49.652914,
      726.0
     ],
     [
      16.083257,
      49.652721,
      728.25
     ],
     [
      16.083549,
      49.652546,
      729.0
     ],
     [
      16.083904,
      49.652457,
      730.0
     ],
     [
      16.084139,
      49.652415,
      730.25
     ],
     [
      16.08424,
      49.652383,
      730.0
     ],
     [
      16.084223,
      49.652339,
      730.25
     ],
     [
      16.084182,
      49.652295,
      730.5
     ],
     [
      16.08387,
      49.65206,
      732.0
     ],
     [
      16.083633,
      49.651844,
      732.75
     ],
     [
      16.083181,
      49.651506,
      731.0
     ],
     [
      16.082687,
      49.651204,
      730.75
     ],
     [
      16.082492,
      49.651073,
      731.0
     ],
     [
      16.081797,
      49.651015,
      728.75
     ],
     [
      16.081456,
      49.650857,
      728.25
     ],
     [
      16.081003,
      49.6506,
      728.25
     ],
     [
      16.080628,
      49.650438,
      728.5
     ],
     [
      16.079988,
      49.650236,
      728.5
     ],
     [
      16.079598,
      49.650105,
      728.5
     ],
     [
      16.079013,
      49.65001,
      726.75
     ],
     [
      16.078478,
      49.649979,
      725.25
     ],
     [
      16.078046,
      49.649911,
      725.0
     ],
     [
      16.077462,
      49.649753,
      725.25
     ],
     [
      16.077239,
      49.649641,
      724.75
     ],
     [
      16.076961,
      49.649464,
      724.75
     ],
     [
      16.076815,
      49.649343,
      725.75
     ],
     [
      16.076683,
      49.649289,
      725.75
     ],
     [
      16.07656,
      49.64925,
      725.75
     ],
     [
      16.076036,
      49.649227,
      724.25
     ],
     [
      16.075791,
      49.649182,
      724.5
     ],
     [
      16.075729,
      49.648358,
      734.25
     ],
     [
      16.075769,
      49.648239,
      736.0
     ],
     [
      16.075952,
      49.648065,
      739.25
     ],
     [
      16.076095,
      49.647903,
      742.0
     ],
     [
      16.076352,
      49.647418,
      747.75
     ],
     [
      16.076535,
      49.647037,
      751.5
     ],
     [
      16.076578,
      49.646961,
      752.0
     ],
     [
      16.076535,
      49.647037,
      751.5
     ],
     [
      16.076352,
      49.647418,
      747.75
     ],
     [
      16.076095,
      49.647903,
      742.0
     ],
     [
      16.075952,
      49.648065,
      739.25
     ],
     [
      16.075769,
      49.648239,
      736.0
     ],
     [
      16.075729,
      49.648358,
      734.25
     ],
     [
      16.075791,
      49.649182,
      724.5
     ],
     [
      16.076036,
      49.649227,
      724.25
     ],
     [
      16.07656,
      49.64925,
      725.75
     ],
     [
      16.076683,
      49.649289,
      725.75
     ],
     [
      16.076815,
      49.649343,
      725.75
     ],
     [
      16.076961,
      49.649464,
      724.75
     ],
     [
      16.077239,
      49.649641,
      724.75
     ],
     [
      16.077462,
      49.649753,
      725.25
     ],
     [
      16.078046,
      49.649911,
      725.0
     ],
     [
      16.078478,
      49.649979,
      725.25
     ],
     [
      16.079013,
      49.65001,
      726.75
     ],
     [
      16.079598,
      49.650105,
      728.5
     ],
     [
      16.079988,
      49.650236,
      728.5
     ],
     [
      16.080628,
      49.650438,
      728.5
     ],
     [
      16.081003,
      49.6506,
      728.25
     ],
     [
      16.081456,
      49.650857,
      728.25
     ],
     [
      16.081797,
      49.651015,
      728.75
     ],
     [
      16.082492,
      49.651073,
      731.0
     ],
     [
      16.082531,
      49.651047,
      733.75
     ]
    ]
   }
  }
 ]
}