{
 "type": "FeatureCollection",
 "features": [
  {
   "type": "Feature",
   "properties": {
    "creator": "BRouter-1.7.10",
    "name": "brouter_hiking-mountain_0",
    "track-length": "5911",
    "filtered ascend": "186",
    "plain-ascend": "0",
    "total-time": "4755",
    "total-energy": "185530",
    "cost": "7426",
    "messages": [
     [
      "Longitude",
      "Latitude",
      "Elevation",
      "Distance",
      "CostPerKm",
      "ElevCost",
      "TurnCost",
      "NodeCost",
      "InitialCost",
      "WayTags",
      "NodeTags",
      "Time",
      "Energy"
     ],
     [
      "16709181",
      "49363536",
      "331",
      "43",
      "1440",
      "0",
      "0",
      "0",
      "0",
      "reversedirection=yes highway=service surface=asphalt",
      "",
      "30",
      "419"
     ],
     [
      "16709363",
      "49363534",
      "331",
      "13",
      "2500",
      "0",
      "0",
      "0",
      "0",
      "highway=tertiary surface=asphalt bicycle=yes route_bicycle_icn=yes route_bicycle_ncn=yes route_bicycle_rcn=yes route_hiking_nwn=yes route_hiking_rwn=yes",
      "",
      "40",
      "564"
     ],
     [
      "16709882",
      "49363571",
      "331",
      "38",
      "2500",
      "0",
      "0",
      "0",
      "0",
      "highway=tertiary surface=asphalt bicycle=yes route_bicycle_icn=yes route_bicycle_ncn=yes route_bicycle_rcn=yes route_hiking_nwn=yes route_hiking_rwn=yes route_hiking_lwn=yes",
      "",
      "67",
      "1006"
     ],
     [
      "16710263",
      "49363999",
      "336",
      "65",
      "1600",
      "0",
      "0",
      "0",
      "0",
      "reversedirection=yes highway=path mtb:scale=2 route_hiking_nwn=yes route_hiking_rwn=yes route_hiking_lwn=yes",
      "",
      "117",
      "2809"
     ],
     [
      "16711541",
      "49365344",
      "338",
      "176",
      "1050",
      "0",
      "0",
      "0",
      "0",
      "reversedirection=yes highway=path mtb:scale=0+ route_hiking_nwn=yes route_hiking_rwn=yes route_hiking_lwn=yes",
      "",
      "253",
      "7827"
     ],
     [
      "16724334",
      "49372540",
      "362",
      "1612",
      "1200",
      "0",
      "0",
      "0",
      "0",
      "highway=service surface=asphalt bicycle=yes route_bicycle_icn=yes route_bicycle_ncn=yes route_bicycle_rcn=yes route_hiking_nwn=yes route_hiking_rwn=yes route_hiking_lwn=yes",
      "nodeaccessgranted=yes barrier=lift_gate bicycle=yes foot=yes",
      "1459",
      "40772"
     ],
     [
      "16722535",
      "49372216",
      "365",
      "158",
      "1150",
      "0",
      "0",
      "0",
      "0",
      "highway=track surface=unknown tracktype=grade1 foot=yes bicycle=yes mtb:scale=0 route_bicycle_icn=yes route_bicycle_ncn=yes route_bicycle_rcn=yes route_hiking_nwn=yes route_hiking_rwn=yes route_hiking_lwn=yes",
      "",
      "1579",
      "44551"
     ],
     [
      "16722633",
      "49372520",
      "369",
      "36",
      "1380",
      "0",
      "0",
      "0",
      "0",
      "reversedirection=yes highway=path surface=dirt",
      "",
      "1607",
      "45546"
     ],
     [
      "16722595",
      "49372861",
      "371",
      "38",
      "1260",
      "0",
      "0",
      "0",
      "0",
      "reversedirection=yes highway=path",
      "",
      "1638",
      "47044"
     ],
     [
      "16722914",
      "49374489",
      "377",
      "191",
      "1150",
      "0",
      "0",
      "0",
      "0",
      "highway=track surface=unknown tracktype=grade1 foot=yes bicycle=yes mtb:scale=0 route_bicycle_icn=yes route_bicycle_ncn=yes route_bicycle_rcn=yes route_hiking_nwn=yes route_hiking_rwn=yes route_hiking_lwn=yes",
      "",
      "1790",
      "54055"
     ],
     [
      "16724458",
      "49373986",
      "443",
      "484",
      "1600",
      "0",
      "0",
      "0",
      "0",
      "reversedirection=yes highway=path access=no foot=yes bicycle=no mtb:scale=2 route_hiking_nwn=yes route_hiking_rwn=yes route_hiking_lwn=yes route_foot_rwn=yes",
      "",
      "2324",
      "110079"
     ],
     [
      "16727696",
      "49373762",
      "465",
      "293",
      "1000",
      "0",
      "0",
      "0",
      "0",
      "reversedirection=yes highway=path access=no foot=yes mtb:scale=1 route_hiking_nwn=yes route_hiking_rwn=yes route_hiking_lwn=yes route_foot_rwn=yes",
      "",
      "2617",
      "137078"
     ],
     [
      "16727837",
      "49373100",
      "484",
      "79",
      "2900",
      "0",
      "0",
      "0",
      "0",
      "highway=steps surface=paving_stones mtb:scale=2 route_hiking_nwn=yes route_hiking_rwn=yes route_hiking_lwn=yes route_foot_rwn=yes",
      "",
      "2708",
      "147122"
     ],
     [
      "16728842",
      "49372955",
      "488",
      "77",
      "1000",
      "0",
      "0",
      "0",
      "0",
      "highway=footway surface=ground mtb:scale=1 route_hiking_nwn=yes route_hiking_rwn=yes route_hiking_lwn=yes route_foot_rwn=yes",
      "",
      "2793",
      "156280"
     ],
     [
      "16729316",
      "49373139",
      "465",
      "47",
      "1560",
      "0",
      "0",
      "0",
      "0",
      "highway=footway surface=fine_gravel",
      "",
      "2831",
      "158199"
     ],
     [
      "16729347",
      "49372734",
      "489",
      "45",
      "1460",
      "0",
      "0",
      "0",
      "0",
      "reversedirection=yes highway=footway surface=fine_gravel",
      "",
      "2886",
      "164648"
     ],
     [
      "16729428",
      "49372699",
      "489",
      "7",
      "1400",
      "0",
      "0",
      "0",
      "0",
      "highway=service surface=fine_gravel route_bicycle_rcn=yes route_hiking_nwn=yes route_hiking_rwn=yes route_hiking_lwn=yes route_foot_rwn=yes",
      "",
      "2894",
      "165481"
     ],
     [
      "16729789",
      "49372416",
      "488",
      "41",
      "1250",
      "0",
      "0",
      "0",
      "0",
      "highway=footway surface=fine_gravel route_hiking_rwn=yes route_hiking_lwn=yes",
      "nodeaccessgranted=yes barrier=stile bicycle=yes foot=yes",
      "2935",
      "169351"
     ],
     [
      "16729827",
      "49372386",
      "488",
      "4",
      "1250",
      "0",
      "0",
      "0",
      "0",
      "highway=footway surface=fine_gravel route_hiking_rwn=yes route_hiking_lwn=yes",
      "",
      "2939",
      "169650"
     ],
     [
      "16727443",
      "49369447",
      "486",
      "387",
      "1100",
      "0",
      "0",
      "0",
      "0",
      "highway=track surface=compacted tracktype=grade2 access=no foot=yes mtb:scale=0 route_hiking_rwn=yes route_hiking_lwn=yes",
      "",
      "3236",
      "179953"
     ],
     [
      "16727145",
      "49369318",
      "486",
      "26",
      "1100",
      "0",
      "0",
      "0",
      "0",
      "highway=track surface=fine_gravel tracktype=grade2 mtb:scale=0 route_hiking_rwn=yes route_hiking_lwn=yes",
      "",
      "3255",
      "180223"
     ],
     [
      "16725954",
      "49369129",
      "479",
      "89",
      "1100",
      "0",
      "0",
      "0",
      "0",
      "highway=track surface=compacted tracktype=grade2 access=no foot=yes mtb:scale=0 route_hiking_rwn=yes",
      "",
      "3314",
      "180270"
     ],
     [
      "16724429",
      "49368597",
      "462",
      "134",
      "1100",
      "0",
      "0",
      "0",
      "0",
      "highway=track surface=dirt tracktype=grade3 access=no foot=yes mtb:scale=1+ route_hiking_rwn=yes",
      "",
      "3403",
      "180270"
     ],
     [
      "16718508",
      "49366398",
      "470",
      "504",
      "1150",
      "0",
      "0",
      "0",
      "0",
      "highway=track surface=dirt tracktype=grade3 access=no foot=yes mtb:scale=0 route_hiking_rwn=yes",
      "",
      "3752",
      "185008"
     ],
     [
      "16718067",
      "49366132",
      "465",
      "44",
      "1150",
      "0",
      "0",
      "0",
      "0",
      "highway=track surface=dirt tracktype=grade3 mtb:scale=0 route_hiking_rwn=yes route_hiking_lwn=yes",
      "",
      "3783",
      "185510"
     ],
     [
      "16713756",
      "49364684",
      "419",
      "364",
      "1100",
      "0",
      "0",
      "0",
      "0",
      "highway=track surface=dirt tracktype=grade3 access=no foot=yes mtb:scale=1+ route_hiking_rwn=yes route_hiking_lwn=yes",
      "",
      "4036",
      "185510"
     ],
     [
      "16709442",
      "49361046",
      "337",
      "519",
      "1100",
      "0",
      "0",
      "0",
      "0",
      "highway=track surface=dirt tracktype=grade4 access=no foot=yes mtb:scale=1 route_hiking_rwn=yes route_hiking_lwn=yes",
      "",
      "4495",
      "185510"
     ],
     [
      "16709469",
      "49361134",
      "337",
      "10",
      "1460",
      "0",
      "0",
      "0",
      "0",
      "highway=footway surface=paving_stones",
      "",
      "4502",
      "185510"
     ],
     [
      "16709415",
      "49361144",
      "336",
      "4",
      "1460",
      "0",
      "0",
      "0",
      "0",
      "reversedirection=yes highway=footway surface=paving_stones",
      "highway=crossing crossing=unmarked",
      "4505",
      "185510"
     ],
     [
      "16710174",
      "49362055",
      "335",
      "116",
      "1400",
      "0",
      "0",
      "0",
      "0",
      "highway=service surface=asphalt bicycle=yes route_bicycle_ncn=yes route_hiking_rwn=yes route_hiking_lwn=yes",
      "",
      "4581",
      "185510"
     ],
     [
      "16710073",
      "49362819",
      "332",
      "86",
      "1560",
      "0",
      "0",
      "0",
      "0",
      "highway=footway surface=fine_gravel",
      "",
      "4633",
      "185510"
     ],
     [
      "16710048",
      "49362932",
      "332",
      "13",
      "1260",
      "0",
      "0",
      "0",
      "0",
      "highway=footway",
      "",
      "4642",
      "185510"
     ],
     [
      "16710037",
      "49363295",
      "331",
      "41",
      "1460",
      "0",
      "0",
      "0",
      "0",
      "reversedirection=yes highway=footway surface=paving_stones",
      "",
      "4668",
      "185510"
     ],
     [
      "16709957",
      "49363479",
      "331",
      "21",
      "1260",
      "0",
      "0",
      "0",
      "0",
      "reversedirection=yes highway=footway surface=wood",
      "",
      "4682",
      "185510"
     ],
     [
      "16709941",
      "49363535",
      "331",
      "6",
      "1260",
      "0",
      "0",
      "0",
      "0",
      "reversedirection=yes highway=footway surface=sett",
      "",
      "4686",
      "185510"
     ],
     [
      "16709882",
      "49363571",
      "331",
      "6",
      "1400",
      "0",
      "0",
      "0",
      "0",
      "highway=service surface=asphalt bicycle=yes route_bicycle_ncn=yes route_hiking_rwn=yes route_hiking_lwn=yes",
      "",
      "4690",
      "185510"
     ],
     [
      "16709363",
      "49363534",
      "331",
      "38",
      "2700",
      "0",
      "0",
      "0",
      "0",
      "reversedirection=yes highway=tertiary surface=asphalt bicycle=yes route_bicycle_icn=yes route_bicycle_ncn=yes route_bicycle_rcn=yes route_hiking_nwn=yes route_hiking_rwn=yes route_hiking_lwn=yes",
      "",
      "4716",
      "185510"
     ],
     [
      "16709181",
      "49363536",
      "331",
      "13",
      "2700",
      "0",
      "0",
      "0",
      "0",
      "reversedirection=yes highway=tertiary surface=asphalt bicycle=yes route_bicycle_icn=yes route_bicycle_ncn=yes route_bicycle_rcn=yes route_hiking_nwn=yes route_hiking_rwn=yes",
      "",
      "4725",
      "185510"
     ],
     [
      "16708736",
      "49363437",
      "331",
      "43",
      "1640",
      "0",
      "0",
      "0",
      "0",
      "highway=service surface=asphalt",
      "",
      "4755",
      "185530"
     ]
    ],
    "times": [
     0,
     23.587,
     30.794,
     40.155,
     55.259,
     62.505,
     67.572,
     76,
     84.367,
     92.96,
     107.307,
     117.593,
     127.926,
     146.763,
     175.181,
     214.165,
     253.44,
     303.774,
     359.229,
     448.573,
     465.779,
     475.717,
     482.493,
     491.406,
     506.671,
     530.568,
     543.155,
     566.58,
     598.747,
     616.354,
     642.665,
     668.211,
     713.507,
     723.233,
     729.934,
     741.512,
     823.311,
     946.975,
     981.772,
     1008.086,
     1027.108,
     1059.999,
     1076.108,
     1091.107,
     1129.781,
     1152.619,
     1182.247,
     1206.761,
     1265.229,
     1288.688,
     1298.823,
     1308.089,
     1360.29,
     1374.368,
     1392.904,
     1407.741,
     1416.667,
     1431.711,
     1440.967,
     1447.574,
     1459.965,
     1476.722,
     1494.97,
     1513.061,
     1533.811,
     1543.78,
     1553.503,
     1565.689,
     1579.705,
     1597.196,
     1607.391,
     1619.203,
     1638.018,
     1645.732,
     1696.625,
     1736.853,
     1790.591,
     1798.254,
     1822.866,
     1836.966,
     1849.225,
     1854.731,
     1876.658,
     1885.897,
     1888.769,
     1892.726,
     1899.706,
     1901.776,
     1907.155,
     1915.976,
     1921.72,
     1924.06,
     1929.714,
     1933.104,
     1936.596,
     1945.978,
     1952.012,
     1955.747,
     1965.498,
     1974.7,
     1975.866,
     1992.057,
     2019.494,
     2047.022,
     2053.214,
     2057.144,
     2067.995,
     2095.746,
     2126.261,
     2141.951,
     2163.259,
     2172.267,
     2180.851,
     2190.447,
     2211.468,
     2229.834,
     2260.014,
     2276.807,
     2297.114,
     2305.515,
     2311.92,
     2318.338,
     2324.825,
     2339.282,
     2372.556,
     2411.893,
     2418.525,
     2430.358,
     2444.983,
     2459.708,
     2485.446,
     2514,
     2530.774,
     2551.007,
     2562.922,
     2583.68,
     2601.725,
     2617.702,
     2632.952,
     2679.414,
     2708.304,
     2744.514,
     2793.609,
     2805.988,
     2820.118,
     2825.739,
     2831.977,
     2842.875,
     2866.707,
     2886.777,
     2894.516,
     2935.616,
     2939.323,
     2993.951,
     3022.158,
     3032.969,
     3050.558,
     3083.792,
     3102.515,
     3121.924,
     3142.901,
     3157.677,
     3168.7,
     3195.252,
     3199.862,
     3212.717,
     3222.391,
     3236.446,
     3255.11,
     3260.754,
     3280.719,
     3314.293,
     3339.944,
     3357.873,
     3379.867,
     3403.451,
     3421.75,
     3441.86,
     3462.104,
     3509.765,
     3565.402,
     3630.131,
     3670.877,
     3701.882,
     3752.032,
     3783.75,
     3833.566,
     3847.701,
     3873.888,
     3891.568,
     3931.122,
     3957.929,
     3981.904,
     4036.062,
     4049.058,
     4069.957,
     4087.995,
     4118.025,
     4159.591,
     4245.102,
     4380.789,
     4475.416,
     4495.483,
     4502.741,
     4505.697,
     4512.246,
     4535.486,
     4569.323,
     4581.105,
     4594.361,
     4605.992,
     4612.76,
     4622.008,
     4633.899,
     4642.198,
     4652.484,
     4657.646,
     4666.051,
     4668.659,
     4682.604,
     4686.626,
     4690.698,
     4695.464,
     4702.242,
     4716.584,
     4725.527,
     4732.377,
     4755.167
    ]
   },
   "geometry": {
    "type": "LineString",
    "coordinates": [
     [
      16.708736,
      49.363437,
      331.25
     ],
     [
      16.70919,
      49.363449,
      331.25
     ],
     [
      16.709181,
      49.363536,
      331.5
     ],
     [
      16.709363,
      49.363534,
      331.5
     ],
     [
      16.709655,
      49.363533,
      331.5
     ],
     [
      16.70979,
      49.363547,
      331.75
     ],
     [
      16.709882,
      49.363571,
      331.75
     ],
     [
      16.709832,
      49.363661,
      333.5
     ],
     [
      16.709838,
      49.363756,
      336.5
     ],
     [
      16.709904,
      49.363844,
      337.5
     ],
     [
      16.710087,
      49.363959,
      338.5
     ],
     [
      16.710263,
      49.363999,
      336.5
     ],
     [
      16.710385,
      49.364099,
      336.75
     ],
     [
      16.710495,
      49.364294,
      340.25
     ],
     [
      16.710749,
      49.364582,
      339.25
     ],
     [
      16.711117,
      49.364973,
      340.0
     ],
     [
      16.711541,
      49.365344,
      338.25
     ],
     [
      16.711411,
      49.365897,
      344.5
     ],
     [
      16.711615,
      49.366557,
      343.25
     ],
     [
      16.712504,
      49.367504,
      343.0
     ],
     [
      16.712759,
      49.367613,
      342.75
     ],
     [
      16.712924,
      49.367656,
      342.5
     ],
     [
      16.713039,
      49.367686,
      342.25
     ],
     [
      16.713197,
      49.367727,
      342.0
     ],
     [
      16.713423,
      49.367849,
      341.5
     ],
     [
      16.713721,
      49.36808,
      340.5
     ],
     [
      16.713818,
      49.368216,
      342.0
     ],
     [
      16.713979,
      49.368466,
      344.0
     ],
     [
      16.714302,
      49.368781,
      344.25
     ],
     [
      16.71451,
      49.36895,
      343.5
     ],
     [
      16.71498,
      49.369106,
      341.75
     ],
     [
      16.715465,
      49.369178,
      342.25
     ],
     [
      16.716283,
      49.369219,
      344.5
     ],
     [
      16.716451,
      49.369249,
      344.75
     ],
     [
      16.716572,
      49.36927,
      344.75
     ],
     [
      16.716774,
      49.369306,
      346.0
     ],
     [
      16.718216,
      49.369562,
      346.25
     ],
     [
      16.720481,
      49.36958,
      351.25
     ],
     [
      16.721169,
      49.369541,
      346.75
     ],
     [
      16.721652,
      49.369419,
      346.25
     ],
     [
      16.722,
      49.369467,
      347.75
     ],
     [
      16.722317,
      49.3698,
      351.75
     ],
     [
      16.722439,
      49.369979,
      351.5
     ],
     [
      16.722679,
      49.37004,
      354.0
     ],
     [
      16.723225,
      49.3699,
      359.5
     ],
     [
      16.723651,
      49.369924,
      352.25
     ],
     [
      16.724006,
      49.370177,
      354.5
     ],
     [
      16.724385,
      49.37035,
      355.75
     ],
     [
      16.725322,
      49.370699,
      357.5
     ],
     [
      16.725636,
      49.370882,
      355.5
     ],
     [
      16.72569,
      49.371005,
      357.5
     ],
     [
      16.725688,
      49.371116,
      359.5
     ],
     [
      16.725286,
      49.371672,
      362.75
     ],
     [
      16.725161,
      49.371818,
      362.75
     ],
     [
      16.725041,
      49.372028,
      360.0
     ],
     [
      16.724953,
      49.372202,
      360.25
     ],
     [
      16.724914,
      49.372306,
      360.5
     ],
     [
      16.724787,
      49.372477,
      359.5
     ],
     [
      16.724674,
      49.372557,
      361.75
     ],
     [
      16.72455,
      49.372572,
      363.5
     ],
     [
      16.724334,
      49.37254,
      362.25
     ],
     [
      16.724013,
      49.372547,
      363.75
     ],
     [
      16.723685,
      49.372513,
      362.25
     ],
     [
      16.723441,
      49.372384,
      366.75
     ],
     [
      16.723205,
      49.372181,
      365.5
     ],
     [
      16.723081,
      49.3721,
      366.75
     ],
     [
      16.722914,
      49.372059,
      366.25
     ],
     [
      16.722704,
      49.3721,
      367.0
     ],
     [
      16.722535,
      49.372216,
      365.0
     ],
     [
      16.722665,
      49.372402,
      367.75
     ],
     [
      16.722633,
      49.37252,
      369.0
     ],
     [
      16.722612,
      49.372658,
      369.5
     ],
     [
      16.722595,
      49.372861,
      371.25
     ],
     [
      16.7227,
      49.372901,
      373.25
     ],
     [
      16.722974,
      49.373463,
      371.25
     ],
     [
      16.722807,
      49.373938,
      371.25
     ],
     [
      16.722914,
      49.374489,
      377.75
     ],
     [
      16.722977,
      49.374558,
      379.0
     ],
     [
      16.722988,
      49.374812,
      381.0
     ],
     [
      16.722904,
      49.374954,
      380.5
     ],
     [
      16.722873,
      49.375094,
      378.75
     ],
     [
      16.722912,
      49.37515,
      379.75
     ],
     [
      16.723113,
      49.375316,
      385.0
     ],
     [
      16.723172,
      49.3754,
      386.5
     ],
     [
      16.723199,
      49.375414,
      388.0
     ],
     [
      16.723209,
      49.37538,
      389.25
     ],
     [
      16.723201,
      49.375316,
      390.0
     ],
     [
      16.723222,
      49.375303,
      391.5
     ],
     [
      16.72326,
      49.375336,
      393.0
     ],
     [
      16.723302,
      49.375402,
      394.5
     ],
     [
      16.723341,
      49.375434,
      396.5
     ],
     [
      16.723354,
      49.375414,
      397.5
     ],
     [
      16.723335,
      49.375368,
      397.0
     ],
     [
      16.723337,
      49.37534,
      397.5
     ],
     [
      16.723368,
      49.37536,
      398.75
     ],
     [
      16.723404,
      49.375432,
      399.75
     ],
     [
      16.72345,
      49.375469,
      401.5
     ],
     [
      16.723475,
      49.375446,
      403.0
     ],
     [
      16.723465,
      49.375378,
      403.25
     ],
     [
      16.72344,
      49.37531,
      402.75
     ],
     [
      16.723458,
      49.375312,
      403.75
     ],
     [
      16.723548,
      49.375414,
      406.75
     ],
     [
      16.723709,
      49.375568,
      411.0
     ],
     [
      16.72385,
      49.375754,
      412.0
     ],
     [
      16.723908,
      49.375777,
      415.0
     ],
     [
      16.72394,
      49.375758,
      417.25
     ],
     [
      16.723937,
      49.375684,
      419.25
     ],
     [
      16.723891,
      49.375491,
      419.75
     ],
     [
      16.723864,
      49.37528,
      423.75
     ],
     [
      16.72386,
      49.375173,
      427.5
     ],
     [
      16.72376,
      49.37504,
      430.5
     ],
     [
      16.723703,
      49.374992,
      431.5
     ],
     [
      16.723691,
      49.374927,
      431.25
     ],
     [
      16.723714,
      49.374853,
      431.75
     ],
     [
      16.723712,
      49.374683,
      431.25
     ],
     [
      16.723766,
      49.374531,
      432.75
     ],
     [
      16.723979,
      49.374333,
      436.5
     ],
     [
      16.724088,
      49.374204,
      437.25
     ],
     [
      16.724174,
      49.374047,
      439.75
     ],
     [
      16.72422,
      49.373983,
      440.75
     ],
     [
      16.724289,
      49.373961,
      442.0
     ],
     [
      16.724373,
      49.373968,
      442.75
     ],
     [
      16.724458,
      49.373986,
      443.75
     ],
     [
      16.724603,
      49.37405,
      445.75
     ],
     [
      16.724917,
      49.374217,
      449.5
     ],
     [
      16.725287,
      49.374396,
      455.0
     ],
     [
      16.72537,
      49.374408,
      455.5
     ],
     [
      16.725504,
      49.374367,
      455.75
     ],
     [
      16.725698,
      49.374334,
      454.25
     ],
     [
      16.725901,
      49.374266,
      452.0
     ],
     [
      16.726084,
      49.374021,
      453.0
     ],
     [
      16.726293,
      49.373791,
      458.0
     ],
     [
      16.726493,
      49.373715,
      461.0
     ],
     [
      16.726754,
      49.373655,
      463.5
     ],
     [
      16.726914,
      49.373647,
      464.5
     ],
     [
      16.727186,
      49.37373,
      464.5
     ],
     [
      16.72745,
      49.373766,
      464.75
     ],
     [
      16.727696,
      49.373762,
      465.5
     ],
     [
      16.727613,
      49.37363,
      468.75
     ],
     [
      16.727667,
      49.373275,
      478.0
     ],
     [
      16.727837,
      49.3731,
      484.75
     ],
     [
      16.728193,
      49.372969,
      487.75
     ],
     [
      16.728842,
      49.372955,
      488.5
     ],
     [
      16.729018,
      49.372985,
      488.75
     ],
     [
      16.729231,
      49.373073,
      484.0
     ],
     [
      16.729327,
      49.37306,
      485.0
     ],
     [
      16.729316,
      49.373139,
      465.75
     ],
     [
      16.729327,
      49.37306,
      485.0
     ],
     [
      16.729306,
      49.372888,
      488.25
     ],
     [
      16.729347,
      49.372734,
      489.25
     ],
     [
      16.729428,
      49.372699,
      489.0
     ],
     [
      16.729789,
      49.372416,
      488.75
     ],
     [
      16.729827,
      49.372386,
      488.5
     ],
     [
      16.729158,
      49.372042,
      489.25
     ],
     [
      16.728965,
      49.371755,
      489.0
     ],
     [
      16.728925,
      49.371631,
      488.5
     ],
     [
      16.728819,
      49.371422,
      487.25
     ],
     [
      16.728468,
      49.371083,
      487.0
     ],
     [
      16.728297,
      49.370882,
      487.0
     ],
     [
      16.728149,
      49.37066,
      487.0
     ],
     [
      16.728022,
      49.370417,
      487.25
     ],
     [
      16.727889,
      49.370256,
      488.0
     ],
     [
      16.72783,
      49.370127,
      488.0
     ],
     [
      16.727828,
      49.369824,
      487.25
     ],
     [
      16.727828,
      49.369766,
      487.25
     ],
     [
      16.72778,
      49.36962,
      487.0
     ],
     [
      16.727658,
      49.36954,
      486.75
     ],
     [
      16.727443,
      49.369447,
      486.75
     ],
     [
      16.727145,
      49.369318,
      486.0
     ],
     [
      16.727051,
      49.369277,
      485.5
     ],
     [
      16.726653,
      49.369199,
      483.5
     ],
     [
      16.725954,
      49.369129,
      479.25
     ],
     [
      16.725387,
      49.369104,
      473.5
     ],
     [
      16.725041,
      49.369027,
      469.5
     ],
     [
      16.724713,
      49.368836,
      466.0
     ],
     [
      16.724429,
      49.368597,
      462.75
     ],
     [
      16.724193,
      49.368415,
      460.75
     ],
     [
      16.723893,
      49.36821,
      460.75
     ],
     [
      16.723534,
      49.368033,
      459.5
     ],
     [
      16.722567,
      49.367713,
      457.25
     ],
     [
      16.721677,
      49.36726,
      458.25
     ],
     [
      16.720484,
      49.367019,
      459.0
     ],
     [
      16.719793,
      49.366791,
      462.75
     ],
     [
      16.719252,
      49.366667,
      466.5
     ],
     [
      16.718508,
      49.366398,
      470.5
     ],
     [
      16.718067,
      49.366132,
      465.25
     ],
     [
      16.717167,
      49.365685,
      455.25
     ],
     [
      16.716918,
      49.365576,
      450.5
     ],
     [
      16.716552,
      49.365282,
      449.25
     ],
     [
      16.716239,
      49.365128,
      446.75
     ],
     [
      16.715492,
      49.365084,
      438.5
     ],
     [
      16.714994,
      49.364978,
      435.0
     ],
     [
      16.714609,
      49.364786,
      432.5
     ],
     [
      16.713756,
      49.364684,
      419.25
     ],
     [
      16.713563,
      49.364592,
      417.25
     ],
     [
      16.713462,
      49.364324,
      418.5
     ],
     [
      16.71337,
      49.364109,
      414.0
     ],
     [
      16.713086,
      49.363858,
      405.0
     ],
     [
      16.71267,
      49.363573,
      395.5
     ],
     [
      16.711888,
      49.362899,
      383.75
     ],
     [
      16.710843,
      49.362057,
      354.5
     ],
     [
      16.709712,
      49.361192,
      346.5
     ],
     [
      16.709442,
      49.361046,
      337.0
     ],
     [
      16.709469,
      49.361134,
      337.75
     ],
     [
      16.709415,
      49.361144,
      336.5
     ],
     [
      16.709452,
      49.36122,
      336.25
     ],
     [
      16.709672,
      49.36149,
      336.0
     ],
     [
      16.71005,
      49.361906,
      335.25
     ],
     [
      16.710174,
      49.362055,
      335.5
     ],
     [
      16.710126,
      49.362247,
      333.75
     ],
     [
      16.710103,
      49.362421,
      333.25
     ],
     [
      16.71013,
      49.362514,
      332.75
     ],
     [
      16.710113,
      49.362651,
      332.25
     ],
     [
      16.710073,
      49.362819,
      332.0
     ],
     [
      16.710048,
      49.362932,
      332.0
     ],
     [
      16.710032,
      49.363076,
      331.75
     ],
     [
      16.710024,
      49.363148,
      331.5
     ],
     [
      16.710052,
      49.363265,
      331.25
     ],
     [
      16.710037,
      49.363295,
      331.25
     ],
     [
      16.709957,
      49.363479,
      331.5
     ],
     [
      16.709941,
      49.363535,
      331.5
     ],
     [
      16.709882,
      49.363571,
      331.75
     ],
     [
      16.70979,
      49.363547,
      331.75
     ],
     [
      16.709655,
      49.363533,
      331.5
     ],
     [
      16.709363,
      49.363534,
      331.5
     ],
     [
      16.709181,
      49.363536,
      331.5
     ],
     [
      16.70919,
      49.363449,
      331.25
     ],
     [
      16.708736,
      49.363437,
      331.25
     ]
    ]
   }
  }
 ]
}