{
 "type": "FeatureCollection",
 "features": [
  {
   "type": "Feature",
   "properties": {
    "creator": "BRouter-1.7.10",
    "name": "brouter_hiking-mountain_0",
    "track-length": "8543",
    "filtered ascend": "206",
    "plain-ascend": "0",
    "total-time": "6449",
    "total-energy": "198400",
    "cost": "9897",
    "messages": [
     [
      "Longitude",
      "Latitude",
      "Elevation",
      "Distance",
      "CostPerKm",
      "ElevCost",
      "TurnCost",
      "NodeCost",
      "InitialCost",
      "WayTags",
      "NodeTags",
      "Time",
      "Energy"
     ],
     [
      "16150373",
      "49828621",
      "409",
      "65",
      "1150",
      "0",
      "0",
      "0",
      "0",
      "highway=track tracktype=grade1 route_hiking_rwn=yes",
      "",
      "49",
      "1679"
     ],
     [
      "16149399",
      "49828029",
      "406",
      "99",
      "1150",
      "0",
      "0",
      "0",
      "0",
      "reversedirection=yes highway=track tracktype=grade1 route_bicycle_lcn=yes route_hiking_nwn=yes",
      "",
      "119",
      "2292"
     ],
     [
      "16149341",
      "49827998",
      "406",
      "5",
      "1150",
      "0",
      "0",
      "0",
      "0",
      "reversedirection=yes highway=track surface=compacted tracktype=grade1 route_bicycle_lcn=yes route_hiking_nwn=yes",
      "",
      "123",
      "2301"
     ],
     [
      "16149198",
      "49827934",
      "406",
      "13",
      "1150",
      "0",
      "0",
      "0",
      "0",
      "reversedirection=yes highway=track surface=concrete tracktype=grade1 route_bicycle_lcn=yes route_hiking_nwn=yes",
      "",
      "132",
      "2332"
     ],
     [
      "16148891",
      "49827735",
      "406",
      "33",
      "1380",
      "0",
      "0",
      "0",
      "0",
      "reversedirection=yes highway=track tracktype=grade1",
      "",
      "155",
      "2442"
     ],
     [
      "16149290",
      "49826793",
      "410",
      "112",
      "1260",
      "0",
      "0",
      "0",
      "0",
      "highway=path",
      "",
      "237",
      "4138"
     ],
     [
      "16150170",
      "49826485",
      "413",
      "73",
      "1260",
      "0",
      "0",
      "0",
      "0",
      "reversedirection=yes highway=path",
      "",
      "293",
      "6158"
     ],
     [
      "16150201",
      "49825936",
      "419",
      "66",
      "1050",
      "0",
      "0",
      "0",
      "0",
      "highway=path foot=yes route_hiking_lwn=yes",
      "",
      "346",
      "8760"
     ],
     [
      "16141857",
      "49818280",
      "481",
      "1130",
      "1260",
      "0",
      "0",
      "0",
      "0",
      "highway=path route_bicycle_lcn=yes",
      "",
      "1343",
      "77360"
     ],
     [
      "16141438",
      "49818434",
      "480",
      "35",
      "1380",
      "0",
      "0",
      "0",
      "0",
      "highway=path surface=sand",
      "",
      "1369",
      "77790"
     ],
     [
      "16141388",
      "49818440",
      "480",
      "4",
      "3600",
      "0",
      "0",
      "0",
      "0",
      "highway=steps surface=rock",
      "",
      "1372",
      "77924"
     ],
     [
      "16141352",
      "49818442",
      "479",
      "3",
      "1260",
      "0",
      "0",
      "0",
      "0",
      "highway=path surface=rock",
      "",
      "1374",
      "78016"
     ],
     [
      "16141078",
      "49818487",
      "477",
      "21",
      "1150",
      "0",
      "0",
      "0",
      "0",
      "highway=path surface=sand route_hiking_nwn=yes",
      "",
      "1389",
      "78269"
     ],
     [
      "16140972",
      "49818599",
      "475",
      "15",
      "1150",
      "0",
      "0",
      "0",
      "0",
      "reversedirection=yes highway=path surface=sand route_hiking_nwn=yes route_hiking_lwn=yes",
      "",
      "1399",
      "78269"
     ],
     [
      "16140909",
      "49818649",
      "473",
      "7",
      "1050",
      "0",
      "0",
      "0",
      "0",
      "highway=path route_hiking_nwn=yes route_hiking_lwn=yes",
      "",
      "1404",
      "78269"
     ],
     [
      "16141083",
      "49818369",
      "478",
      "54",
      "1050",
      "0",
      "0",
      "0",
      "0",
      "reversedirection=yes highway=path route_hiking_nwn=yes route_hiking_lwn=yes",
      "",
      "1445",
      "79558"
     ],
     [
      "16141731",
      "49817004",
      "487",
      "165",
      "1150",
      "0",
      "0",
      "0",
      "0",
      "reversedirection=yes highway=path surface=dirt route_hiking_nwn=yes",
      "",
      "1580",
      "86619"
     ],
     [
      "16141313",
      "49816788",
      "481",
      "40",
      "1050",
      "0",
      "0",
      "0",
      "0",
      "reversedirection=yes highway=path route_hiking_nwn=yes",
      "",
      "1611",
      "87709"
     ],
     [
      "16144170",
      "49815070",
      "494",
      "320",
      "1100",
      "0",
      "0",
      "0",
      "0",
      "reversedirection=yes highway=path surface=dirt bicycle=no mtb:scale=1 route_hiking_nwn=yes",
      "",
      "1861",
      "97976"
     ],
     [
      "16147535",
      "49815619",
      "455",
      "357",
      "1050",
      "0",
      "0",
      "0",
      "0",
      "reversedirection=yes highway=path bicycle=no route_hiking_nwn=yes",
      "",
      "2133",
      "100005"
     ],
     [
      "16147925",
      "49815592",
      "453",
      "29",
      "1050",
      "0",
      "0",
      "0",
      "0",
      "reversedirection=yes highway=path route_hiking_nwn=yes route_hiking_rwn=yes",
      "",
      "2152",
      "100005"
     ],
     [
      "16149555",
      "49813643",
      "471",
      "254",
      "1050",
      "0",
      "0",
      "0",
      "0",
      "reversedirection=yes highway=track surface=ground tracktype=grade5 route_hiking_rwn=yes",
      "",
      "2339",
      "104216"
     ],
     [
      "16147925",
      "49815592",
      "453",
      "254",
      "1050",
      "0",
      "0",
      "0",
      "0",
      "highway=track surface=ground tracktype=grade5 route_hiking_rwn=yes",
      "",
      "2511",
      "104772"
     ],
     [
      "16150188",
      "49818944",
      "447",
      "415",
      "1150",
      "0",
      "0",
      "0",
      "0",
      "highway=track surface=dirt tracktype=grade5 route_hiking_nwn=yes",
      "",
      "2781",
      "104995"
     ],
     [
      "16154871",
      "49818187",
      "449",
      "693",
      "1150",
      "0",
      "0",
      "0",
      "0",
      "reversedirection=yes highway=track surface=dirt tracktype=grade3 route_hiking_nwn=yes",
      "",
      "3264",
      "110370"
     ],
     [
      "16155228",
      "49818268",
      "443",
      "27",
      "1100",
      "0",
      "0",
      "0",
      "0",
      "reversedirection=yes highway=track tracktype=grade2 route_bicycle_lcn=yes route_hiking_nwn=yes",
      "nodeaccessgranted=yes barrier=swing_gate",
      "3282",
      "110370"
     ],
     [
      "16155577",
      "49820609",
      "466",
      "287",
      "1100",
      "0",
      "0",
      "0",
      "0",
      "reversedirection=yes highway=track tracktype=grade2 route_bicycle_lcn=yes route_hiking_nwn=yes",
      "",
      "3519",
      "123185"
     ],
     [
      "16156873",
      "49819460",
      "469",
      "161",
      "1100",
      "0",
      "0",
      "0",
      "0",
      "reversedirection=yes highway=path surface=dirt sac_scale=hiking route_hiking_nwn=yes",
      "",
      "3657",
      "131883"
     ],
     [
      "16159564",
      "49813551",
      "486",
      "709",
      "1100",
      "0",
      "0",
      "0",
      "0",
      "reversedirection=yes highway=track tracktype=grade2 route_hiking_nwn=yes",
      "",
      "4209",
      "153534"
     ],
     [
      "16163393",
      "49814484",
      "537",
      "300",
      "1260",
      "0",
      "0",
      "0",
      "0",
      "reversedirection=yes highway=path",
      "",
      "4577",
      "196354"
     ],
     [
      "16159564",
      "49813551",
      "486",
      "300",
      "1260",
      "0",
      "0",
      "0",
      "0",
      "highway=path",
      "",
      "4809",
      "196419"
     ],
     [
      "16156873",
      "49819460",
      "469",
      "709",
      "1100",
      "0",
      "0",
      "0",
      "0",
      "highway=track tracktype=grade2 route_hiking_nwn=yes",
      "",
      "5274",
      "196584"
     ],
     [
      "16155577",
      "49820609",
      "466",
      "161",
      "1100",
      "0",
      "0",
      "0",
      "0",
      "highway=path surface=dirt sac_scale=hiking route_hiking_nwn=yes",
      "",
      "5385",
      "196998"
     ],
     [
      "16155228",
      "49818268",
      "443",
      "287",
      "1100",
      "0",
      "0",
      "0",
      "0",
      "highway=track tracktype=grade2 route_bicycle_lcn=yes route_hiking_nwn=yes",
      "nodeaccessgranted=yes barrier=swing_gate",
      "5568",
      "196998"
     ],
     [
      "16154871",
      "49818187",
      "449",
      "27",
      "1100",
      "0",
      "0",
      "0",
      "0",
      "highway=track tracktype=grade2 route_bicycle_lcn=yes route_hiking_nwn=yes",
      "",
      "5587",
      "197039"
     ],
     [
      "16152591",
      "49821243",
      "438",
      "383",
      "1150",
      "0",
      "0",
      "0",
      "0",
      "highway=track surface=dirt tracktype=grade3 route_hiking_nwn=yes",
      "",
      "5842",
      "197078"
     ],
     [
      "16152334",
      "49821870",
      "429",
      "74",
      "1380",
      "0",
      "0",
      "0",
      "0",
      "reversedirection=yes highway=path surface=dirt",
      "",
      "5891",
      "197078"
     ],
     [
      "16151482",
      "49825850",
      "414",
      "467",
      "1050",
      "0",
      "0",
      "0",
      "0",
      "highway=track tracktype=grade4 route_hiking_rwn=yes",
      "",
      "6190",
      "197078"
     ],
     [
      "16151481",
      "49825885",
      "414",
      "4",
      "1050",
      "0",
      "0",
      "0",
      "0",
      "highway=path surface=wood route_hiking_rwn=yes",
      "",
      "6192",
      "197078"
     ],
     [
      "16151530",
      "49826070",
      "415",
      "21",
      "1050",
      "0",
      "0",
      "0",
      "0",
      "highway=path route_hiking_rwn=yes",
      "",
      "6205",
      "197078"
     ],
     [
      "16150889",
      "49827548",
      "423",
      "172",
      "1550",
      "0",
      "0",
      "0",
      "0",
      "reversedirection=yes highway=track surface=gravel tracktype=grade1 bicycle=yes vehicle=private route_bicycle_lcn=yes route_hiking_nwn=yes route_hiking_rwn=yes",
      "",
      "6325",
      "198029"
     ],
     [
      "16150373",
      "49828621",
      "409",
      "127",
      "1650",
      "0",
      "0",
      "0",
      "0",
      "reversedirection=yes highway=track surface=gravel tracktype=grade1 route_bicycle_lcn=yes route_hiking_nwn=yes route_hiking_rwn=yes",
      "",
      "6409",
      "198400"
     ],
     [
      "16150312",
      "49829193",
      "406",
      "65",
      "1150",
      "0",
      "0",
      "0",
      "0",
      "reversedirection=yes highway=track tracktype=grade1 route_hiking_rwn=yes",
      "",
      "6448",
      "198400"
     ]
    ],
    "times": [
     0,
     2.163,
     18.772,
     32.444,
     49.634,
     82.048,
     103.663,
     119.544,
     123.012,
     132.053,
     138.33,
     143.873,
     146.674,
     152.283,
     155.09,
     160.758,
     177.331,
     187.998,
     199.602,
     211.274,
     223.94,
     237.051,
     240.654,
     243.821,
     256.265,
     269.424,
     293.198,
     311.292,
     325.615,
     346.483,
     352.499,
     360.451,
     402.199,
     412.562,
     484.091,
     542.852,
     569.67,
     622.783,
     642.149,
     662.062,
     732.833,
     762.087,
     785.659,
     812.046,
     831.544,
     870.095,
     909.744,
     912.315,
     940.198,
     975.824,
     1002.178,
     1024.35,
     1061.827,
     1085.553,
     1135.545,
     1146.744,
     1160.46,
     1175.177,
     1183.97,
     1200.41,
     1212.179,
     1235.927,
     1252.495,
     1266.892,
     1287.58,
     1301.93,
     1314.86,
     1327.768,
     1343.799,
     1366.252,
     1369.118,
     1372.267,
     1374.601,
     1387.627,
     1389.777,
     1399.684,
     1404.506,
     1409.859,
     1418.685,
     1425.624,
     1431.859,
     1444.662,
     1445.418,
     1451.555,
     1470.151,
     1499.135,
     1510.051,
     1522.487,
     1529.124,
     1563.203,
     1580.267,
     1585.276,
     1589.209,
     1593.123,
     1596.242,
     1601.45,
     1611.007,
     1628.784,
     1678.307,
     1698.927,
     1732.437,
     1765.765,
     1776.472,
     1789.662,
     1805.969,
     1861.789,
     1886.977,
     1901.076,
     1915.614,
     1937.452,
     1948.138,
     1959.089,
     1981.887,
     1991.59,
     2001.354,
     2022.992,
     2043.664,
     2133.15,
     2143.507,
     2146.885,
     2152.699,
     2177.652,
     2197.986,
     2215.796,
     2238.444,
     2271.147,
     2311.444,
     2321.461,
     2331.311,
     2339.729,
     2347.461,
     2356.107,
     2365.656,
     2404.189,
     2434.551,
     2453.313,
     2470.133,
     2486.952,
     2511.36,
     2528.852,
     2557.513,
     2589.612,
     2659.118,
     2676.654,
     2704.361,
     2724.884,
     2751.015,
     2781.943,
     2827.534,
     2870.375,
     2916.415,
     2957.623,
     2987.11,
     2992.51,
     3004.537,
     3042.784,
     3069.6,
     3091.266,
     3127.541,
     3172.287,
     3223.968,
     3264.504,
     3282.603,
     3289.551,
     3296.814,
     3300.504,
     3308.054,
     3324.547,
     3344.106,
     3363.139,
     3373.942,
     3381.005,
     3399.146,
     3429.817,
     3455.066,
     3492.533,
     3502.235,
     3504.844,
     3519.545,
     3533.848,
     3544.314,
     3565.58,
     3591.911,
     3612.792,
     3647.437,
     3657.425,
     3678.866,
     3719.382,
     3752.802,
     3783.734,
     3824.553,
     3848.527,
     3867.167,
     3876.512,
     3885.213,
     3892.442,
     3897.303,
     3904.775,
     3965.81,
     4071.049,
     4138.237,
     4180.454,
     4209.779,
     4268.555,
     4303.557,
     4389.101,
     4404.599,
     4542.199,
     4561.496,
     4569.169,
     4577.668,
     4584.047,
     4589.534,
     4602.788,
     4670.738,
     4678.137,
     4724.412,
     4750.225,
     4809.357,
     4842.623,
     4884.415,
     4942.658,
     5021.338,
     5067.134,
     5072.898,
     5076.707,
     5082.326,
     5089.112,
     5096.511,
     5111.32,
     5130.546,
     5163.653,
     5190.218,
     5218.484,
     5256.826,
     5274.956,
     5283.786,
     5314.475,
     5332.038,
     5353.042,
     5368.972,
     5376.379,
     5385.835,
     5395.486,
     5397.307,
     5404.035,
     5430.059,
     5447.797,
     5470.744,
     5485.123,
     5490.931,
     5500.243,
     5517.474,
     5533.292,
     5546.584,
     5552.862,
     5556.005,
     5562.454,
     5568.912,
     5587.625,
     5625.619,
     5673.821,
     5713.616,
     5744.619,
     5763.905,
     5790.328,
     5826.104,
     5837.042,
     5842.123,
     5858.886,
     5868.407,
     5880.218,
     5891.907,
     5915.288,
     5936.428,
     5953.996,
     5967.637,
     5998.585,
     6026.418,
     6053.257,
     6082.376,
     6108.584,
     6135.092,
     6164.751,
     6181.707,
     6190.244,
     6192.645,
     6205.609,
     6215.174,
     6227.706,
     6254.522,
     6268.748,
     6288.931,
     6300.779,
     6325.394,
     6340.914,
     6362.045,
     6389.662,
     6409.195,
     6422.537,
     6433.414,
     6446.743,
     6448.549
    ]
   },
   "geometry": {
    "type": "LineString",
    "coordinates": [
     [
      16.150312,
      49.829193,
      406.0
     ],
     [
      16.150318,
      49.829168,
      406.25
     ],
     [
      16.150323,
      49.828974,
      407.75
     ],
     [
      16.150289,
      49.828815,
      408.25
     ],
     [
      16.150373,
      49.828621,
      409.5
     ],
     [
      16.149878,
      49.828377,
      407.5
     ],
     [
      16.149662,
      49.82814,
      406.5
     ],
     [
      16.149399,
      49.828029,
      406.0
     ],
     [
      16.149341,
      49.827998,
      406.0
     ],
     [
      16.149198,
      49.827934,
      406.0
     ],
     [
      16.149093,
      49.827889,
      406.0
     ],
     [
      16.148987,
      49.827856,
      405.75
     ],
     [
      16.148942,
      49.827832,
      406.0
     ],
     [
      16.148889,
      49.827772,
      406.0
     ],
     [
      16.148891,
      49.827735,
      406.0
     ],
     [
      16.148991,
      49.8277,
      406.25
     ],
     [
      16.149065,
      49.827503,
      406.75
     ],
     [
      16.1491,
      49.827376,
      408.5
     ],
     [
      16.149104,
      49.82723,
      410.25
     ],
     [
      16.149204,
      49.827098,
      410.5
     ],
     [
      16.149225,
      49.82695,
      411.25
     ],
     [
      16.14929,
      49.826793,
      410.75
     ],
     [
      16.149328,
      49.826757,
      410.5
     ],
     [
      16.149366,
      49.826729,
      410.25
     ],
     [
      16.149554,
      49.826654,
      410.0
     ],
     [
      16.149771,
      49.826592,
      410.25
     ],
     [
      16.15017,
      49.826485,
      413.5
     ],
     [
      16.150028,
      49.826294,
      413.5
     ],
     [
      16.150094,
      49.826138,
      415.5
     ],
     [
      16.150201,
      49.825936,
      419.0
     ],
     [
      16.150209,
      49.825873,
      419.5
     ],
     [
      16.15019,
      49.82579,
      420.75
     ],
     [
      16.150082,
      49.825419,
      426.5
     ],
     [
      16.150042,
      49.825326,
      427.25
     ],
     [
      16.149663,
      49.824693,
      431.5
     ],
     [
      16.14942,
      49.82425,
      442.75
     ],
     [
      16.14921,
      49.824053,
      443.5
     ],
     [
      16.148873,
      49.823629,
      447.75
     ],
     [
      16.14872,
      49.82347,
      448.5
     ],
     [
      16.14848,
      49.82332,
      446.75
     ],
     [
      16.14792,
      49.82278,
      455.75
     ],
     [
      16.1477,
      49.82253,
      457.75
     ],
     [
      16.14748,
      49.82235,
      459.5
     ],
     [
      16.14723,
      49.82217,
      463.75
     ],
     [
      16.14708,
      49.82201,
      464.25
     ],
     [
      16.14687,
      49.82165,
      465.5
     ],
     [
      16.14671,
      49.82127,
      468.5
     ],
     [
      16.14669,
      49.82125,
      468.5
     ],
     [
      16.14659,
      49.82097,
      470.0
     ],
     [
      16.146478,
      49.820605,
      472.0
     ],
     [
      16.146365,
      49.820339,
      473.25
     ],
     [
      16.146219,
      49.820129,
      474.75
     ],
     [
      16.145622,
      49.819979,
      475.0
     ],
     [
      16.145226,
      49.819936,
      476.5
     ],
     [
      16.144462,
      49.819715,
      479.0
     ],
     [
      16.144274,
      49.819691,
      479.25
     ],
     [
      16.144028,
      49.819738,
      478.25
     ],
     [
      16.143759,
      49.819779,
      477.5
     ],
     [
      16.14359,
      49.81977,
      477.5
     ],
     [
      16.14333,
      49.81967,
      478.25
     ],
     [
      16.14316,
      49.81958,
      478.0
     ],
     [
      16.14287,
      49.81936,
      478.5
     ],
     [
      16.14266,
      49.81922,
      479.25
     ],
     [
      16.14252,
      49.81907,
      479.75
     ],
     [
      16.14235,
      49.81885,
      480.5
     ],
     [
      16.14217,
      49.81872,
      480.5
     ],
     [
      16.14202,
      49.8186,
      481.0
     ],
     [
      16.141908,
      49.818464,
      481.25
     ],
     [
      16.141857,
      49.81828,
      481.75
     ],
     [
      16.141489,
      49.818428,
      480.5
     ],
     [
      16.141438,
      49.818434,
      480.25
     ],
     [
      16.141388,
      49.81844,
      480.0
     ],
     [
      16.141352,
      49.818442,
      479.75
     ],
     [
      16.141101,
      49.818464,
      477.75
     ],
     [
      16.141078,
      49.818487,
      477.5
     ],
     [
      16.140972,
      49.818599,
      475.0
     ],
     [
      16.140909,
      49.818649,
      473.0
     ],
     [
      16.140972,
      49.818599,
      475.0
     ],
     [
      16.140805,
      49.81858,
      474.0
     ],
     [
      16.140771,
      49.818498,
      475.5
     ],
     [
      16.14086,
      49.818451,
      476.0
     ],
     [
      16.141064,
      49.818371,
      478.25
     ],
     [
      16.141083,
      49.818369,
      478.5
     ],
     [
      16.141064,
      49.818297,
      479.0
     ],
     [
      16.141074,
      49.818094,
      481.0
     ],
     [
      16.141172,
      49.817772,
      481.0
     ],
     [
      16.141236,
      49.817657,
      481.5
     ],
     [
      16.141376,
      49.81756,
      483.75
     ],
     [
      16.141427,
      49.8175,
      484.25
     ],
     [
      16.141586,
      49.817157,
      486.25
     ],
     [
      16.141731,
      49.817004,
      487.75
     ],
     [
      16.141684,
      49.816964,
      487.75
     ],
     [
      16.141619,
      49.816942,
      485.5
     ],
     [
      16.141554,
      49.81692,
      483.5
     ],
     [
      16.141527,
      49.816889,
      481.75
     ],
     [
      16.141481,
      49.816836,
      482.0
     ],
     [
      16.141313,
      49.816788,
      481.75
     ],
     [
      16.141442,
      49.816595,
      483.5
     ],
     [
      16.141867,
      49.816045,
      485.25
     ],
     [
      16.142078,
      49.81586,
      488.25
     ],
     [
      16.142337,
      49.815557,
      492.0
     ],
     [
      16.142596,
      49.815198,
      489.75
     ],
     [
      16.142719,
      49.815095,
      490.5
     ],
     [
      16.142937,
      49.815039,
      491.25
     ],
     [
      16.143208,
      49.815032,
      493.25
     ],
     [
      16.14417,
      49.81507,
      494.75
     ],
     [
      16.144637,
      49.815078,
      493.5
     ],
     [
      16.144883,
      49.815032,
      492.5
     ],
     [
      16.145094,
      49.814931,
      492.25
     ],
     [
      16.145475,
      49.814798,
      490.0
     ],
     [
      16.145627,
      49.814702,
      487.25
     ],
     [
      16.145749,
      49.814584,
      486.0
     ],
     [
      16.146073,
      49.814375,
      486.0
     ],
     [
      16.146272,
      49.814344,
      483.75
     ],
     [
      16.146471,
      49.814388,
      478.5
     ],
     [
      16.146768,
      49.814518,
      469.0
     ],
     [
      16.146971,
      49.814707,
      466.75
     ],
     [
      16.147535,
      49.815619,
      455.25
     ],
     [
      16.147733,
      49.815594,
      453.25
     ],
     [
      16.147801,
      49.815591,
      453.0
     ],
     [
      16.147925,
      49.815592,
      453.75
     ],
     [
      16.148225,
      49.815329,
      459.5
     ],
     [
      16.148449,
      49.81512,
      463.75
     ],
     [
      16.148623,
      49.814921,
      463.25
     ],
     [
      16.148851,
      49.814705,
      466.25
     ],
     [
      16.149174,
      49.814383,
      466.25
     ],
     [
      16.149554,
      49.813958,
      468.75
     ],
     [
      16.149629,
      49.813844,
      468.25
     ],
     [
      16.149645,
      49.813727,
      470.0
     ],
     [
      16.149555,
      49.813643,
      471.0
     ],
     [
      16.149645,
      49.813727,
      470.0
     ],
     [
      16.149629,
      49.813844,
      468.25
     ],
     [
      16.149554,
      49.813958,
      468.75
     ],
     [
      16.149174,
      49.814383,
      466.25
     ],
     [
      16.148851,
      49.814705,
      466.25
     ],
     [
      16.148623,
      49.814921,
      463.25
     ],
     [
      16.148449,
      49.81512,
      463.75
     ],
     [
      16.148225,
      49.815329,
      459.5
     ],
     [
      16.147925,
      49.815592,
      453.75
     ],
     [
      16.147951,
      49.81584,
      453.75
     ],
     [
      16.148085,
      49.816244,
      451.5
     ],
     [
      16.148391,
      49.816675,
      449.5
     ],
     [
      16.148899,
      49.817574,
      449.5
     ],
     [
      16.148981,
      49.817799,
      449.0
     ],
     [
      16.149216,
      49.818132,
      448.5
     ],
     [
      16.14941,
      49.818385,
      447.25
     ],
     [
      16.149758,
      49.818665,
      446.0
     ],
     [
      16.150188,
      49.818944,
      447.5
     ],
     [
      16.150688,
      49.819418,
      447.75
     ],
     [
      16.151131,
      49.819971,
      442.25
     ],
     [
      16.151714,
      49.820446,
      443.5
     ],
     [
      16.152156,
      49.820941,
      440.25
     ],
     [
      16.152591,
      49.821243,
      438.5
     ],
     [
      16.152694,
      49.821212,
      439.25
     ],
     [
      16.152836,
      49.82109,
      440.5
     ],
     [
      16.153096,
      49.820626,
      442.75
     ],
     [
      16.153433,
      49.820357,
      442.0
     ],
     [
      16.153596,
      49.820105,
      443.25
     ],
     [
      16.153767,
      49.819687,
      445.0
     ],
     [
      16.15397,
      49.819151,
      447.75
     ],
     [
      16.154495,
      49.818616,
      448.5
     ],
     [
      16.154871,
      49.818187,
      449.0
     ],
     [
      16.155228,
      49.818268,
      443.25
     ],
     [
      16.155365,
      49.818289,
      444.0
     ],
     [
      16.155484,
      49.818339,
      445.25
     ],
     [
      16.155512,
      49.818383,
      445.75
     ],
     [
      16.155531,
      49.818472,
      446.5
     ],
     [
      16.155537,
      49.818659,
      448.0
     ],
     [
      16.155483,
      49.818885,
      448.5
     ],
     [
      16.155485,
      49.819116,
      450.0
     ],
     [
      16.155511,
      49.819245,
      451.75
     ],
     [
      16.155488,
      49.819327,
      452.5
     ],
     [
      16.155476,
      49.819529,
      454.5
     ],
     [
      16.155475,
      49.819842,
      457.75
     ],
     [
      16.155449,
      49.820091,
      460.5
     ],
     [
      16.15532,
      49.820461,
      462.5
     ],
     [
      16.155348,
      49.820561,
      463.75
     ],
     [
      16.155362,
      49.820582,
      463.75
     ],
     [
      16.155577,
      49.820609,
      466.0
     ],
     [
      16.155772,
      49.820566,
      468.25
     ],
     [
      16.155864,
      49.820483,
      469.25
     ],
     [
      16.156035,
      49.820304,
      469.75
     ],
     [
      16.156302,
      49.820101,
      470.0
     ],
     [
      16.15651,
      49.819917,
      470.0
     ],
     [
      16.156784,
      49.819561,
      469.5
     ],
     [
      16.156873,
      49.81946,
      469.5
     ],
     [
      16.157143,
      49.819293,
      471.0
     ],
     [
      16.157325,
      49.818809,
      469.5
     ],
     [
      16.157433,
      49.818421,
      471.0
     ],
     [
      16.157594,
      49.818063,
      471.5
     ],
     [
      16.157728,
      49.817592,
      473.0
     ],
     [
      16.157873,
      49.817331,
      474.0
     ],
     [
      16.158045,
      49.817145,
      474.75
     ],
     [
      16.158114,
      49.817045,
      475.25
     ],
     [
      16.158213,
      49.816975,
      476.0
     ],
     [
      16.158334,
      49.816986,
      476.75
     ],
     [
      16.158417,
      49.816994,
      477.25
     ],
     [
      16.158516,
      49.816949,
      478.25
     ],
     [
      16.158703,
      49.816311,
      481.0
     ],
     [
      16.15887,
      49.815187,
      485.5
     ],
     [
      16.159251,
      49.814391,
      483.75
     ],
     [
      16.159474,
      49.813891,
      484.25
     ],
     [
      16.159564,
      49.813551,
      486.5
     ],
     [
      16.160213,
      49.813801,
      500.25
     ],
     [
      16.160566,
      49.813914,
      509.5
     ],
     [
      16.161204,
      49.814209,
      524.0
     ],
     [
      16.161353,
      49.814248,
      525.75
     ],
     [
      16.162881,
      49.814476,
      535.25
     ],
     [
      16.163154,
      49.814463,
      536.5
     ],
     [
      16.163271,
      49.814461,
      537.5
     ],
     [
      16.163393,
      49.814484,
      537.75
     ],
     [
      16.163271,
      49.814461,
      537.5
     ],
     [
      16.163154,
      49.814463,
      536.5
     ],
     [
      16.162881,
      49.814476,
      535.25
     ],
     [
      16.161353,
      49.814248,
      525.75
     ],
     [
      16.161204,
      49.814209,
      524.0
     ],
     [
      16.160566,
      49.813914,
      509.5
     ],
     [
      16.160213,
      49.813801,
      500.25
     ],
     [
      16.159564,
      49.813551,
      486.5
     ],
     [
      16.159474,
      49.813891,
      484.25
     ],
     [
      16.159251,
      49.814391,
      483.75
     ],
     [
      16.15887,
      49.815187,
      485.5
     ],
     [
      16.158703,
      49.816311,
      481.0
     ],
     [
      16.158516,
      49.816949,
      478.25
     ],
     [
      16.158417,
      49.816994,
      477.25
     ],
     [
      16.158334,
      49.816986,
      476.75
     ],
     [
      16.158213,
      49.816975,
      476.0
     ],
     [
      16.158114,
      49.817045,
      475.25
     ],
     [
      16.158045,
      49.817145,
      474.75
     ],
     [
      16.157873,
      49.817331,
      474.0
     ],
     [
      16.157728,
      49.817592,
      473.0
     ],
     [
      16.157594,
      49.818063,
      471.5
     ],
     [
      16.157433,
      49.818421,
      471.0
     ],
     [
      16.157325,
      49.818809,
      469.5
     ],
     [
      16.157143,
      49.819293,
      471.0
     ],
     [
      16.156873,
      49.81946,
      469.5
     ],
     [
      16.156784,
      49.819561,
      469.5
     ],
     [
      16.15651,
      49.819917,
      470.0
     ],
     [
      16.156302,
      49.820101,
      470.0
     ],
     [
      16.156035,
      49.820304,
      469.75
     ],
     [
      16.155864,
      49.820483,
      469.25
     ],
     [
      16.155772,
      49.820566,
      468.25
     ],
     [
      16.155577,
      49.820609,
      466.0
     ],
     [
      16.155362,
      49.820582,
      463.75
     ],
     [
      16.155348,
      49.820561,
      463.75
     ],
     [
      16.15532,
      49.820461,
      462.5
     ],
     [
      16.155449,
      49.820091,
      460.5
     ],
     [
      16.155475,
      49.819842,
      457.75
     ],
     [
      16.155476,
      49.819529,
      454.5
     ],
     [
      16.155488,
      49.819327,
      452.5
     ],
     [
      16.155511,
      49.819245,
      451.75
     ],
     [
      16.155485,
      49.819116,
      450.0
     ],
     [
      16.155483,
      49.818885,
      448.5
     ],
     [
      16.155537,
      49.818659,
      448.0
     ],
     [
      16.155531,
      49.818472,
      446.5
     ],
     [
      16.155512,
      49.818383,
      445.75
     ],
     [
      16.155484,
      49.818339,
      445.25
     ],
     [
      16.155365,
      49.818289,
      444.0
     ],
     [
      16.155228,
      49.818268,
      443.25
     ],
     [
      16.154871,
      49.818187,
      449.0
     ],
     [
      16.154495,
      49.818616,
      448.5
     ],
     [
      16.15397,
      49.819151,
      447.75
     ],
     [
      16.153767,
      49.819687,
      445.0
     ],
     [
      16.153596,
      49.820105,
      443.25
     ],
     [
      16.153433,
      49.820357,
      442.0
     ],
     [
      16.153096,
      49.820626,
      442.75
     ],
     [
      16.152836,
      49.82109,
      440.5
     ],
     [
      16.152694,
      49.821212,
      439.25
     ],
     [
      16.152591,
      49.821243,
      438.5
     ],
     [
      16.15253,
      49.821462,
      432.5
     ],
     [
      16.15251,
      49.821584,
      430.5
     ],
     [
      16.152401,
      49.821717,
      428.5
     ],
     [
      16.152334,
      49.82187,
      429.0
     ],
     [
      16.152413,
      49.822209,
      428.75
     ],
     [
      16.152474,
      49.822522,
      427.75
     ],
     [
      16.152446,
      49.822771,
      427.5
     ],
     [
      16.152359,
      49.822945,
      429.25
     ],
     [
      16.15248,
      49.823367,
      426.75
     ],
     [
      16.152615,
      49.823723,
      427.25
     ],
     [
      16.152673,
      49.824085,
      426.25
     ],
     [
      16.152483,
      49.824463,
      425.0
     ],
     [
      16.152273,
      49.824816,
      422.0
     ],
     [
      16.151924,
      49.825094,
      422.5
     ],
     [
      16.151627,
      49.825486,
      418.25
     ],
     [
      16.151502,
      49.825729,
      416.5
     ],
     [
      16.151482,
      49.82585,
      414.75
     ],
     [
      16.151481,
      49.825885,
      414.75
     ],
     [
      16.15153,
      49.82607,
      415.0
     ],
     [
      16.15152,
      49.826203,
      415.25
     ],
     [
      16.151431,
      49.826364,
      415.75
     ],
     [
      16.151198,
      49.826682,
      416.5
     ],
     [
      16.151084,
      49.826848,
      417.25
     ],
     [
      16.15098,
      49.827101,
      419.5
     ],
     [
      16.150941,
      49.827246,
      421.25
     ],
     [
      16.150889,
      49.827548,
      423.75
     ],
     [
      16.150736,
      49.82771,
      421.5
     ],
     [
      16.150635,
      49.827991,
      418.0
     ],
     [
      16.150586,
      49.828365,
      414.0
     ],
     [
      16.150373,
      49.828621,
      409.5
     ],
     [
      16.150289,
      49.828815,
      408.25
     ],
     [
      16.150323,
      49.828974,
      407.75
     ],
     [
      16.150318,
      49.829168,
      406.25
     ],
     [
      16.150312,
      49.829193,
      406.0
     ]
    ]
   }
  }
 ]
}