{
 "type": "FeatureCollection",
 "features": [
  {
   "type": "Feature",
   "properties": {
    "creator": "BRouter-1.7.10",
    "name": "brouter_hiking-mountain_0",
    "track-length": "7938",
    "filtered ascend": "136",
    "plain-ascend": "0",
    "total-time": "5946",
    "total-energy": "155232",
    "cost": "9794",
    "messages": [
     [
      "Longitude",
      "Latitude",
      "Elevation",
      "Distance",
      "CostPerKm",
      "ElevCost",
      "TurnCost",
      "NodeCost",
      "InitialCost",
      "WayTags",
      "NodeTags",
      "Time",
      "Energy"
     ],
     [
      "16090992",
      "49667797",
      "595",
      "10",
      "1200",
      "0",
      "0",
      "0",
      "0",
      "reversedirection=yes highway=service surface=asphalt route_hiking_rwn=yes",
      "",
      "7",
      "113"
     ],
     [
      "16090582",
      "49668179",
      "596",
      "51",
      "1050",
      "0",
      "0",
      "0",
      "0",
      "reversedirection=yes highway=footway surface=asphalt route_hiking_rwn=yes",
      "nodeaccessgranted=yes barrier=lift_gate access=destination",
      "44",
      "1013"
     ],
     [
      "16090758",
      "49668282",
      "596",
      "17",
      "1440",
      "0",
      "0",
      "0",
      "0",
      "highway=service surface=asphalt",
      "estimated_crossing_class=1",
      "57",
      "1238"
     ],
     [
      "16090573",
      "49668406",
      "595",
      "19",
      "4800",
      "0",
      "0",
      "0",
      "0",
      "reversedirection=yes highway=secondary surface=asphalt route_bicycle_rcn=yes",
      "estimated_crossing_class=1",
      "70",
      "1401"
     ],
     [
      "16092611",
      "49671299",
      "588",
      "379",
      "1260",
      "0",
      "0",
      "0",
      "0",
      "reversedirection=yes highway=path surface=grass",
      "ford=yes",
      "331",
      "1894"
     ],
     [
      "16092512",
      "49671397",
      "588",
      "14",
      "1260",
      "0",
      "0",
      "0",
      "0",
      "reversedirection=yes highway=path surface=grass",
      "",
      "341",
      "1982"
     ],
     [
      "16092544",
      "49671473",
      "588",
      "9",
      "1260",
      "0",
      "0",
      "0",
      "0",
      "reversedirection=yes highway=path surface=wood",
      "",
      "347",
      "2049"
     ],
     [
      "16092862",
      "49671906",
      "587",
      "55",
      "1260",
      "0",
      "0",
      "0",
      "0",
      "reversedirection=yes highway=path",
      "",
      "386",
      "2338"
     ],
     [
      "16092529",
      "49672384",
      "590",
      "59",
      "1260",
      "0",
      "0",
      "0",
      "0",
      "highway=path surface=grass",
      "",
      "427",
      "2709"
     ],
     [
      "16087952",
      "49674975",
      "593",
      "565",
      "1050",
      "0",
      "0",
      "0",
      "0",
      "reversedirection=yes highway=track surface=grass tracktype=grade5 route_hiking_lwn=yes",
      "",
      "833",
      "8739"
     ],
     [
      "16086268",
      "49675276",
      "591",
      "128",
      "2500",
      "0",
      "0",
      "0",
      "0",
      "reversedirection=yes highway=tertiary route_bicycle_rcn=yes route_hiking_lwn=yes",
      "",
      "924",
      "9620"
     ],
     [
      "16087332",
      "49684380",
      "627",
      "1043",
      "1150",
      "0",
      "0",
      "0",
      "0",
      "reversedirection=yes highway=track tracktype=grade1 access=delivery route_bicycle_rcn=yes route_hiking_rwn=yes route_hiking_lwn=yes",
      "",
      "1751",
      "46060"
     ],
     [
      "16087152",
      "49684994",
      "628",
      "69",
      "1150",
      "0",
      "0",
      "0",
      "0",
      "reversedirection=yes highway=track tracktype=grade1 route_bicycle_rcn=yes route_hiking_rwn=yes",
      "",
      "1805",
      "48265"
     ],
     [
      "16087097",
      "49685052",
      "628",
      "8",
      "1050",
      "0",
      "0",
      "0",
      "0",
      "reversedirection=yes highway=track surface=asphalt tracktype=grade1 route_bicycle_rcn=yes route_hiking_rwn=yes",
      "nodeaccessgranted=yes barrier=swing_gate",
      "1811",
      "48465"
     ],
     [
      "16086187",
      "49686588",
      "627",
      "187",
      "1150",
      "0",
      "0",
      "0",
      "0",
      "reversedirection=yes highway=track surface=asphalt tracktype=grade1 route_bicycle_rcn=yes route_hiking_rwn=yes",
      "",
      "1950",
      "52262"
     ],
     [
      "16092791",
      "49687306",
      "703",
      "494",
      "1400",
      "0",
      "0",
      "0",
      "0",
      "reversedirection=yes highway=path surface=gravel foot=yes sac_scale=hiking route_hiking_nwn=yes route_hiking_rwn=yes",
      "",
      "2520",
      "114138"
     ],
     [
      "16095463",
      "49688726",
      "706",
      "257",
      "1000",
      "0",
      "0",
      "0",
      "0",
      "reversedirection=yes highway=path foot=yes sac_scale=hiking route_hiking_nwn=yes route_hiking_rwn=yes",
      "",
      "2721",
      "121560"
     ],
     [
      "16088350",
      "49693210",
      "722",
      "931",
      "1100",
      "0",
      "0",
      "0",
      "0",
      "reversedirection=yes highway=track surface=unpaved tracktype=grade2 route_hiking_rwn=yes",
      "",
      "3416",
      "140454"
     ],
     [
      "16090995",
      "49693013",
      "716",
      "197",
      "1100",
      "0",
      "0",
      "0",
      "0",
      "highway=track surface=unpaved tracktype=grade2 route_hiking_rwn=yes",
      "",
      "3550",
      "140640"
     ],
     [
      "16086699",
      "49689041",
      "645",
      "543",
      "1260",
      "0",
      "0",
      "0",
      "0",
      "highway=path",
      "",
      "3968",
      "140640"
     ],
     [
      "16086569",
      "49687488",
      "634",
      "177",
      "1580",
      "0",
      "0",
      "0",
      "0",
      "reversedirection=yes highway=track surface=asphalt tracktype=grade1 route_bicycle_rcn=yes",
      "",
      "4084",
      "140640"
     ],
     [
      "16086187",
      "49686588",
      "627",
      "103",
      "1350",
      "0",
      "0",
      "0",
      "0",
      "highway=track surface=asphalt tracktype=grade1 route_bicycle_rcn=yes route_hiking_nwn=yes route_hiking_rwn=yes",
      "",
      "4148",
      "140640"
     ],
     [
      "16086253",
      "49686592",
      "629",
      "5",
      "1500",
      "0",
      "0",
      "0",
      "0",
      "reversedirection=yes highway=path surface=gravel foot=yes sac_scale=hiking route_hiking_nwn=yes route_hiking_rwn=yes",
      "",
      "4151",
      "140640"
     ],
     [
      "16086187",
      "49686588",
      "627",
      "5",
      "1200",
      "0",
      "0",
      "0",
      "0",
      "highway=path surface=gravel foot=yes sac_scale=hiking route_hiking_nwn=yes route_hiking_rwn=yes",
      "",
      "4155",
      "140676"
     ],
     [
      "16087097",
      "49685052",
      "628",
      "187",
      "1150",
      "0",
      "0",
      "0",
      "0",
      "highway=track surface=asphalt tracktype=grade1 route_bicycle_rcn=yes route_hiking_rwn=yes",
      "nodeaccessgranted=yes barrier=swing_gate",
      "4289",
      "142490"
     ],
     [
      "16087152",
      "49684994",
      "628",
      "8",
      "1150",
      "0",
      "0",
      "0",
      "0",
      "highway=track surface=asphalt tracktype=grade1 route_bicycle_rcn=yes route_hiking_rwn=yes",
      "",
      "4295",
      "142609"
     ],
     [
      "16087332",
      "49684380",
      "627",
      "69",
      "1150",
      "0",
      "0",
      "0",
      "0",
      "highway=track tracktype=grade1 route_bicycle_rcn=yes route_hiking_rwn=yes",
      "",
      "4344",
      "143266"
     ],
     [
      "16086268",
      "49675276",
      "591",
      "1043",
      "1150",
      "0",
      "0",
      "0",
      "0",
      "highway=track tracktype=grade1 access=delivery route_bicycle_rcn=yes route_hiking_rwn=yes route_hiking_lwn=yes",
      "",
      "5015",
      "143523"
     ],
     [
      "16087952",
      "49674975",
      "593",
      "128",
      "2500",
      "0",
      "0",
      "0",
      "0",
      "highway=tertiary route_bicycle_rcn=yes route_hiking_lwn=yes",
      "",
      "5102",
      "143734"
     ],
     [
      "16092529",
      "49672384",
      "590",
      "565",
      "1050",
      "0",
      "0",
      "0",
      "0",
      "highway=track surface=grass tracktype=grade5 route_hiking_lwn=yes",
      "",
      "5501",
      "147181"
     ],
     [
      "16092862",
      "49671906",
      "587",
      "59",
      "1260",
      "0",
      "0",
      "0",
      "0",
      "reversedirection=yes highway=path surface=grass",
      "",
      "5541",
      "147181"
     ],
     [
      "16092544",
      "49671473",
      "588",
      "55",
      "1260",
      "0",
      "0",
      "0",
      "0",
      "highway=path",
      "",
      "5579",
      "147283"
     ],
     [
      "16092512",
      "49671397",
      "588",
      "9",
      "1260",
      "0",
      "0",
      "0",
      "0",
      "highway=path surface=wood",
      "",
      "5585",
      "147322"
     ],
     [
      "16092611",
      "49671299",
      "588",
      "14",
      "1260",
      "0",
      "0",
      "0",
      "0",
      "highway=path surface=grass",
      "ford=yes",
      "5595",
      "147383"
     ],
     [
      "16090573",
      "49668406",
      "595",
      "379",
      "1260",
      "0",
      "0",
      "0",
      "0",
      "highway=path surface=grass",
      "estimated_crossing_class=1",
      "5872",
      "153199"
     ],
     [
      "16090758",
      "49668282",
      "596",
      "19",
      "4800",
      "0",
      "0",
      "0",
      "0",
      "highway=secondary surface=asphalt route_bicycle_rcn=yes",
      "estimated_crossing_class=1",
      "5887",
      "153668"
     ],
     [
      "16090582",
      "49668179",
      "596",
      "17",
      "1440",
      "0",
      "0",
      "0",
      "0",
      "reversedirection=yes highway=service surface=asphalt",
      "barrier=lift_gate access=destination",
      "5900",
      "154112"
     ],
     [
      "16090992",
      "49667797",
      "595",
      "51",
      "1050",
      "0",
      "0",
      "0",
      "0",
      "highway=footway surface=asphalt route_hiking_rwn=yes",
      "",
      "5937",
      "154895"
     ],
     [
      "16091127",
      "49667824",
      "595",
      "10",
      "1200",
      "0",
      "0",
      "0",
      "0",
      "highway=service surface=asphalt route_hiking_rwn=yes",
      "",
      "5945",
      "155232"
     ]
    ],
    "times": [
     0,
     7.207,
     13.018,
     34.508,
     44.894,
     57.239,
     70.782,
     99.689,
     158.52,
     194.799,
     219,
     222.401,
     231.28,
     252.642,
     269.197,
     285.307,
     322.663,
     329.738,
     331.154,
     335.404,
     338.917,
     341.044,
     347.429,
     350.269,
     357.37,
     364.476,
     370.821,
     373.619,
     375.72,
     378.498,
     381.976,
     386.119,
     395.35,
     402.665,
     427.534,
     454.192,
     505.166,
     527.189,
     565.561,
     595.564,
     625.789,
     631.585,
     648.349,
     675.379,
     701.503,
     730.69,
     770.973,
     806.516,
     820.893,
     833.739,
     836.693,
     843.109,
     853.719,
     924.364,
     937.15,
     1283.008,
     1399.406,
     1438.322,
     1469.79,
     1498.79,
     1550.063,
     1567.928,
     1579.431,
     1594.152,
     1605.202,
     1628.257,
     1644.488,
     1670.1,
     1701.806,
     1714.134,
     1731.4,
     1751.246,
     1771.093,
     1805.223,
     1811.311,
     1845.094,
     1902.301,
     1926.774,
     1950.977,
     1967.739,
     1997.539,
     2115.782,
     2161.255,
     2211.807,
     2280.089,
     2326.897,
     2520.893,
     2533.883,
     2592.151,
     2592.872,
     2617.673,
     2655.302,
     2670.224,
     2702.094,
     2721.309,
     2733.08,
     2743.507,
     2757.57,
     2769.442,
     2788.88,
     2820.266,
     2855.008,
     2925.844,
     2969.374,
     2984.606,
     2998.572,
     3027.005,
     3052.576,
     3125.898,
     3145.742,
     3174.65,
     3211.905,
     3268.637,
     3313.948,
     3360.584,
     3394.392,
     3416.087,
     3416.854,
     3417.568,
     3436.979,
     3466.482,
     3507.512,
     3550.586,
     3579.814,
     3644.971,
     3735.634,
     3908.155,
     3968.912,
     4022.156,
     4084.698,
     4111.606,
     4136.773,
     4148.928,
     4151.983,
     4155.526,
     4177.566,
     4200.358,
     4255.584,
     4289.46,
     4295.309,
     4327.09,
     4344.678,
     4361.789,
     4376.515,
     4387.173,
     4414.958,
     4436.675,
     4450.195,
     4469.348,
     4478.241,
     4489.847,
     4498.562,
     4512.649,
     4547.301,
     4567.899,
     4590.836,
     4620.618,
     4709.789,
     5003.061,
     5015.867,
     5082.945,
     5093.389,
     5099.888,
     5102.825,
     5115.172,
     5128.504,
     5161.66,
     5199.152,
     5228.026,
     5253.5,
     5279.57,
     5295.71,
     5301.292,
     5330.539,
     5359.63,
     5398.971,
     5420.973,
     5473.576,
     5501.263,
     5525.336,
     5532.715,
     5541.284,
     5545.303,
     5548.663,
     5551.381,
     5553.424,
     5556.176,
     5562.434,
     5569.404,
     5576.391,
     5579.19,
     5585.497,
     5587.583,
     5591.095,
     5595.312,
     5596.719,
     5603.759,
     5641.22,
     5657.408,
     5674.487,
     5696.57,
     5705.837,
     5709.402,
     5735.654,
     5776.369,
     5841.021,
     5872.953,
     5887.39,
     5900.385,
     5910.897,
     5931.983,
     5937.734,
     5945.609
    ]
   },
   "geometry": {
    "type": "LineString",
    "coordinates": [
     [
      16.091127,
      49.667824,
      595.0
     ],
     [
      16.090992,
      49.667797,
      595.25
     ],
     [
      16.090951,
      49.667868,
      595.5
     ],
     [
      16.090717,
      49.668085,
      596.25
     ],
     [
      16.090582,
      49.668179,
      596.5
     ],
     [
      16.090758,
      49.668282,
      596.0
     ],
     [
      16.090573,
      49.668406,
      595.5
     ],
     [
      16.090784,
      49.668761,
      594.25
     ],
     [
      16.091524,
      49.669364,
      590.25
     ],
     [
      16.091974,
      49.669748,
      588.75
     ],
     [
      16.092382,
      49.669941,
      588.0
     ],
     [
      16.092403,
      49.669981,
      588.0
     ],
     [
      16.09242,
      49.670099,
      588.0
     ],
     [
      16.092551,
      49.670363,
      588.0
     ],
     [
      16.092674,
      49.670562,
      587.75
     ],
     [
      16.092746,
      49.670762,
      588.0
     ],
     [
      16.092747,
      49.671237,
      588.0
     ],
     [
      16.092632,
      49.671289,
      588.0
     ],
     [
      16.092611,
      49.671299,
      588.0
     ],
     [
      16.09255,
      49.671333,
      588.0
     ],
     [
      16.092513,
      49.671374,
      587.75
     ],
     [
      16.092512,
      49.671397,
      588.0
     ],
     [
      16.092544,
      49.671473,
      588.0
     ],
     [
      16.092556,
      49.671509,
      588.0
     ],
     [
      16.092647,
      49.671582,
      588.0
     ],
     [
      16.092714,
      49.671662,
      588.0
     ],
     [
      16.092804,
      49.671723,
      587.75
     ],
     [
      16.092831,
      49.671755,
      587.5
     ],
     [
      16.092813,
      49.671783,
      587.5
     ],
     [
      16.09281,
      49.671818,
      587.25
     ],
     [
      16.092838,
      49.671857,
      587.25
     ],
     [
      16.092862,
      49.671906,
      587.0
     ],
     [
      16.092826,
      49.672024,
      587.75
     ],
     [
      16.092782,
      49.672118,
      588.75
     ],
     [
      16.092529,
      49.672384,
      590.5
     ],
     [
      16.092058,
      49.672235,
      590.0
     ],
     [
      16.091074,
      49.672092,
      589.5
     ],
     [
      16.090642,
      49.672126,
      589.75
     ],
     [
      16.089909,
      49.672272,
      589.0
     ],
     [
      16.089364,
      49.672397,
      589.5
     ],
     [
      16.088839,
      49.672549,
      589.75
     ],
     [
      16.088792,
      49.672612,
      590.0
     ],
     [
      16.088702,
      49.672814,
      590.25
     ],
     [
      16.088455,
      49.673103,
      590.5
     ],
     [
      16.088227,
      49.67339,
      590.5
     ],
     [
      16.08807,
      49.673742,
      590.0
     ],
     [
      16.087918,
      49.674222,
      591.0
     ],
     [
      16.087915,
      49.674653,
      591.75
     ],
     [
      16.087953,
      49.674825,
      592.75
     ],
     [
      16.087952,
      49.674975,
      593.0
     ],
     [
      16.087896,
      49.674962,
      592.5
     ],
     [
      16.087776,
      49.674964,
      591.5
     ],
     [
      16.087585,
      49.675005,
      591.25
     ],
     [
      16.086268,
      49.675276,
      591.0
     ],
     [
      16.086324,
      49.675431,
      591.0
     ],
     [
      16.087344,
      49.679468,
      602.25
     ],
     [
      16.087674,
      49.680776,
      607.75
     ],
     [
      16.087749,
      49.681208,
      611.0
     ],
     [
      16.087852,
      49.681545,
      613.25
     ],
     [
      16.087958,
      49.681841,
      615.75
     ],
     [
      16.088216,
      49.682318,
      620.75
     ],
     [
      16.08828,
      49.682493,
      622.5
     ],
     [
      16.088266,
      49.682609,
      623.25
     ],
     [
      16.088185,
      49.682748,
      623.5
     ],
     [
      16.088099,
      49.682851,
      623.75
     ],
     [
      16.087878,
      49.683062,
      623.75
     ],
     [
      16.087779,
      49.683231,
      624.25
     ],
     [
      16.087643,
      49.683507,
      624.75
     ],
     [
      16.087358,
      49.683825,
      624.75
     ],
     [
      16.087306,
      49.683963,
      625.25
     ],
     [
      16.087309,
      49.684159,
      626.25
     ],
     [
      16.087332,
      49.68438,
      627.25
     ],
     [
      16.087285,
      49.684606,
      628.0
     ],
     [
      16.087152,
      49.684994,
      628.25
     ],
     [
      16.087097,
      49.685052,
      628.25
     ],
     [
      16.086765,
      49.6854,
      627.5
     ],
     [
      16.086311,
      49.686013,
      626.0
     ],
     [
      16.086208,
      49.686301,
      626.25
     ],
     [
      16.086187,
      49.686588,
      627.25
     ],
     [
      16.086498,
      49.686607,
      629.5
     ],
     [
      16.086929,
      49.686775,
      634.0
     ],
     [
      16.0885,
      49.686927,
      648.0
     ],
     [
      16.089096,
      49.687033,
      654.75
     ],
     [
      16.089687,
      49.687175,
      662.25
     ],
     [
      16.090453,
      49.687254,
      672.5
     ],
     [
      16.090959,
      49.687122,
      679.0
     ],
     [
      16.092791,
      49.687306,
      703.5
     ],
     [
      16.092947,
      49.687344,
      706.5
     ],
     [
      16.093688,
      49.687533,
      709.0
     ],
     [
      16.093698,
      49.687536,
      709.0
     ],
     [
      16.093957,
      49.687809,
      707.5
     ],
     [
      16.094608,
      49.688066,
      703.75
     ],
     [
      16.094787,
      49.688219,
      704.5
     ],
     [
      16.095256,
      49.688524,
      705.0
     ],
     [
      16.095463,
      49.688726,
      706.5
     ],
     [
      16.095566,
      49.688854,
      707.5
     ],
     [
      16.095521,
      49.688975,
      708.0
     ],
     [
      16.095495,
      49.689143,
      708.0
     ],
     [
      16.095406,
      49.689271,
      708.25
     ],
     [
      16.095389,
      49.689518,
      707.5
     ],
     [
      16.095514,
      49.689903,
      707.25
     ],
     [
      16.095613,
      49.690323,
      708.5
     ],
     [
      16.095722,
      49.691198,
      708.25
     ],
     [
      16.095505,
      49.691729,
      708.0
     ],
     [
      16.09546,
      49.691915,
      708.5
     ],
     [
      16.095408,
      49.692083,
      709.0
     ],
     [
      16.095063,
      49.692334,
      710.75
     ],
     [
      16.094685,
      49.692499,
      711.75
     ],
     [
      16.093447,
      49.692813,
      712.75
     ],
     [
      16.093174,
      49.692972,
      713.75
     ],
     [
      16.09267,
      49.693063,
      714.25
     ],
     [
      16.09201,
      49.69307,
      715.75
     ],
     [
      16.090995,
      49.693013,
      716.75
     ],
     [
      16.090145,
      49.69293,
      716.25
     ],
     [
      16.089289,
      49.693001,
      717.75
     ],
     [
      16.088711,
      49.693116,
      719.25
     ],
     [
      16.088351,
      49.69321,
      720.25
     ],
     [
      16.08835,
      49.69321,
      722.25
     ],
     [
      16.088351,
      49.69321,
      720.25
     ],
     [
      16.088711,
      49.693116,
      719.25
     ],
     [
      16.089289,
      49.693001,
      717.75
     ],
     [
      16.090145,
      49.69293,
      716.25
     ],
     [
      16.090995,
      49.693013,
      716.75
     ],
     [
      16.09085,
      49.692628,
      711.75
     ],
     [
      16.090089,
      49.691932,
      699.75
     ],
     [
      16.089204,
      49.691138,
      681.5
     ],
     [
      16.087467,
      49.689634,
      655.75
     ],
     [
      16.086699,
      49.689041,
      645.5
     ],
     [
      16.086906,
      49.688322,
      640.5
     ],
     [
      16.086569,
      49.687488,
      634.0
     ],
     [
      16.086418,
      49.68711,
      630.75
     ],
     [
      16.086258,
      49.686765,
      628.0
     ],
     [
      16.086187,
      49.686588,
      627.25
     ],
     [
      16.086253,
      49.686592,
      629.5
     ],
     [
      16.086187,
      49.686588,
      627.25
     ],
     [
      16.086208,
      49.686301,
      626.25
     ],
     [
      16.086311,
      49.686013,
      626.0
     ],
     [
      16.086765,
      49.6854,
      627.5
     ],
     [
      16.087097,
      49.685052,
      628.25
     ],
     [
      16.087152,
      49.684994,
      628.25
     ],
     [
      16.087285,
      49.684606,
      628.0
     ],
     [
      16.087332,
      49.68438,
      627.25
     ],
     [
      16.087309,
      49.684159,
      626.25
     ],
     [
      16.087306,
      49.683963,
      625.25
     ],
     [
      16.087358,
      49.683825,
      624.75
     ],
     [
      16.087643,
      49.683507,
      624.75
     ],
     [
      16.087779,
      49.683231,
      624.25
     ],
     [
      16.087878,
      49.683062,
      623.75
     ],
     [
      16.088099,
      49.682851,
      623.75
     ],
     [
      16.088185,
      49.682748,
      623.5
     ],
     [
      16.088266,
      49.682609,
      623.25
     ],
     [
      16.08828,
      49.682493,
      622.5
     ],
     [
      16.088216,
      49.682318,
      620.75
     ],
     [
      16.087958,
      49.681841,
      615.75
     ],
     [
      16.087852,
      49.681545,
      613.25
     ],
     [
      16.087749,
      49.681208,
      611.0
     ],
     [
      16.087674,
      49.680776,
      607.75
     ],
     [
      16.087344,
      49.679468,
      602.25
     ],
     [
      16.086324,
      49.675431,
      591.0
     ],
     [
      16.086268,
      49.675276,
      591.0
     ],
     [
      16.087585,
      49.675005,
      591.25
     ],
     [
      16.087776,
      49.674964,
      591.5
     ],
     [
      16.087896,
      49.674962,
      592.5
     ],
     [
      16.087952,
      49.674975,
      593.0
     ],
     [
      16.087953,
      49.674825,
      592.75
     ],
     [
      16.087915,
      49.674653,
      591.75
     ],
     [
      16.087918,
      49.674222,
      591.0
     ],
     [
      16.08807,
      49.673742,
      590.0
     ],
     [
      16.088227,
      49.67339,
      590.5
     ],
     [
      16.088455,
      49.673103,
      590.5
     ],
     [
      16.088702,
      49.672814,
      590.25
     ],
     [
      16.088792,
      49.672612,
      590.0
     ],
     [
      16.088839,
      49.672549,
      589.75
     ],
     [
      16.089364,
      49.672397,
      589.5
     ],
     [
      16.089909,
      49.672272,
      589.0
     ],
     [
      16.090642,
      49.672126,
      589.75
     ],
     [
      16.091074,
      49.672092,
      589.5
     ],
     [
      16.092058,
      49.672235,
      590.0
     ],
     [
      16.092529,
      49.672384,
      590.5
     ],
     [
      16.092782,
      49.672118,
      588.75
     ],
     [
      16.092826,
      49.672024,
      587.75
     ],
     [
      16.092862,
      49.671906,
      587.0
     ],
     [
      16.092838,
      49.671857,
      587.25
     ],
     [
      16.09281,
      49.671818,
      587.25
     ],
     [
      16.092813,
      49.671783,
      587.5
     ],
     [
      16.092831,
      49.671755,
      587.5
     ],
     [
      16.092804,
      49.671723,
      587.75
     ],
     [
      16.092714,
      49.671662,
      588.0
     ],
     [
      16.092647,
      49.671582,
      588.0
     ],
     [
      16.092556,
      49.671509,
      588.0
     ],
     [
      16.092544,
      49.671473,
      588.0
     ],
     [
      16.092512,
      49.671397,
      588.0
     ],
     [
      16.092513,
      49.671374,
      587.75
     ],
     [
      16.09255,
      49.671333,
      588.0
     ],
     [
      16.092611,
      49.671299,
      588.0
     ],
     [
      16.092632,
      49.671289,
      588.0
     ],
     [
      16.092747,
      49.671237,
      588.0
     ],
     [
      16.092746,
      49.670762,
      588.0
     ],
     [
      16.092674,
      49.670562,
      587.75
     ],
     [
      16.092551,
      49.670363,
      588.0
     ],
     [
      16.09242,
      49.670099,
      588.0
     ],
     [
      16.092403,
      49.669981,
      588.0
     ],
     [
      16.092382,
      49.669941,
      588.0
     ],
     [
      16.091974,
      49.669748,
      588.75
     ],
     [
      16.091524,
      49.669364,
      590.25
     ],
     [
      16.090784,
      49.668761,
      594.25
     ],
     [
      16.090573,
      49.668406,
      595.5
     ],
     [
      16.090758,
      49.668282,
      596.0
     ],
     [
      16.090582,
      49.668179,
      596.5
     ],
     [
      16.090717,
      49.668085,
      596.25
     ],
     [
      16.090951,
      49.667868,
      595.5
     ],
     [
      16.090992,
      49.667797,
      595.25
     ],
     [
      16.091127,
      49.667824,
      595.0
     ]
    ]
   }
  }
 ]
}