{
 "type": "FeatureCollection",
 "features": [
  {
   "type": "Feature",
   "properties": {
    "creator": "BRouter-1.7.10",
    "name": "brouter_hiking-mountain_0",
    "track-length": "6052",
    "filtered ascend": "132",
    "plain-ascend": "0",
    "total-time": "4578",
    "total-energy": "134473",
    "cost": "7553",
    "messages": [
     [
      "Longitude",
      "Latitude",
      "Elevation",
      "Distance",
      "CostPerKm",
      "ElevCost",
      "TurnCost",
      "NodeCost",
      "InitialCost",
      "WayTags",
      "NodeTags",
      "Time",
      "Energy"
     ],
     [
      "15966793",
      "49644313",
      "660",
      "106",
      "1320",
      "0",
      "0",
      "0",
      "0",
      "reversedirection=yes highway=residential surface=unpaved",
      "estimated_crossing_class=1",
      "79",
      "2248"
     ],
     [
      "15967409",
      "49645041",
      "667",
      "93",
      "3900",
      "0",
      "0",
      "0",
      "0",
      "highway=secondary surface=asphalt route_foot_lwn=yes",
      "nodeaccessgranted=yes estimated_crossing_class=1",
      "153",
      "5513"
     ],
     [
      "15966496",
      "49646581",
      "672",
      "252",
      "1100",
      "0",
      "0",
      "0",
      "0",
      "reversedirection=yes highway=residential surface=asphalt route_hiking_rwn=yes",
      "",
      "336",
      "8966"
     ],
     [
      "15967086",
      "49646874",
      "674",
      "54",
      "1246",
      "0",
      "0",
      "0",
      "0",
      "reversedirection=yes highway=residential surface=asphalt",
      "",
      "378",
      "10498"
     ],
     [
      "15967544",
      "49647682",
      "680",
      "97",
      "1220",
      "0",
      "0",
      "0",
      "0",
      "highway=residential surface=asphalt mtb:scale=0",
      "",
      "456",
      "14524"
     ],
     [
      "15965276",
      "49650381",
      "693",
      "348",
      "1280",
      "0",
      "0",
      "0",
      "0",
      "highway=track surface=paved tracktype=grade1 mtb:scale=0",
      "",
      "746",
      "30904"
     ],
     [
      "15964019",
      "49653121",
      "702",
      "322",
      "1260",
      "0",
      "0",
      "0",
      "0",
      "highway=track tracktype=grade3 mtb:scale=0",
      "",
      "1003",
      "42864"
     ],
     [
      "15962186",
      "49653280",
      "703",
      "134",
      "1280",
      "0",
      "0",
      "0",
      "0",
      "reversedirection=yes highway=track surface=asphalt tracktype=grade1 foot=yes bicycle=yes mtb:scale=0",
      "",
      "1104",
      "45734"
     ],
     [
      "15958331",
      "49654005",
      "714",
      "294",
      "1050",
      "0",
      "0",
      "0",
      "0",
      "reversedirection=yes highway=track surface=asphalt tracktype=grade1 foot=yes bicycle=yes mtb:scale=0 route_hiking_nwn=yes route_foot_lwn=yes",
      "",
      "1335",
      "55536"
     ],
     [
      "15951593",
      "49652877",
      "767",
      "537",
      "1000",
      "0",
      "0",
      "0",
      "0",
      "highway=track tracktype=grade4 mtb:scale=1 route_hiking_nwn=yes route_foot_lwn=yes",
      "",
      "1859",
      "101365"
     ],
     [
      "15950806",
      "49652409",
      "778",
      "77",
      "1600",
      "0",
      "0",
      "0",
      "0",
      "reversedirection=yes highway=path tracktype=grade4 mtb:scale=2 route_hiking_nwn=yes route_foot_lwn=yes",
      "",
      "1949",
      "111767"
     ],
     [
      "15948773",
      "49651671",
      "786",
      "179",
      "1600",
      "0",
      "0",
      "0",
      "0",
      "highway=path surface=unpaved mtb:scale=2 route_hiking_nwn=yes route_foot_lwn=yes",
      "",
      "2114",
      "123957"
     ],
     [
      "15944395",
      "49650932",
      "742",
      "328",
      "1100",
      "0",
      "0",
      "0",
      "0",
      "highway=path surface=dirt mtb:scale=1 route_hiking_nwn=yes",
      "",
      "2360",
      "123957"
     ],
     [
      "15937914",
      "49649908",
      "699",
      "482",
      "1100",
      "0",
      "0",
      "0",
      "0",
      "reversedirection=yes highway=track surface=dirt tracktype=grade3 mtb:scale=1 route_hiking_nwn=yes",
      "",
      "2706",
      "123957"
     ],
     [
      "15936335",
      "49649632",
      "698",
      "118",
      "1000",
      "0",
      "0",
      "0",
      "0",
      "reversedirection=yes highway=track tracktype=grade4 mtb:scale=1 route_hiking_nwn=yes",
      "",
      "2784",
      "123966"
     ],
     [
      "15950979",
      "49645456",
      "692",
      "1193",
      "1100",
      "0",
      "0",
      "0",
      "0",
      "highway=track surface=fine_gravel tracktype=grade2 foot=yes bicycle=yes mtb:scale=0 route_hiking_rwn=yes",
      "",
      "3623",
      "130608"
     ],
     [
      "15956902",
      "49644999",
      "669",
      "442",
      "1260",
      "0",
      "0",
      "0",
      "0",
      "reversedirection=yes highway=track tracktype=grade5",
      "",
      "3902",
      "130876"
     ],
     [
      "15960733",
      "49644588",
      "663",
      "298",
      "1260",
      "0",
      "0",
      "0",
      "0",
      "reversedirection=yes highway=path tracktype=grade5",
      "",
      "4092",
      "130876"
     ],
     [
      "15963909",
      "49643781",
      "655",
      "255",
      "1260",
      "0",
      "0",
      "0",
      "0",
      "reversedirection=yes highway=track surface=unpaved tracktype=grade5",
      "",
      "4267",
      "132136"
     ],
     [
      "15964919",
      "49644483",
      "655",
      "133",
      "1320",
      "0",
      "0",
      "0",
      "0",
      "reversedirection=yes highway=residential surface=unpaved",
      "",
      "4358",
      "132248"
     ],
     [
      "15965547",
      "49644553",
      "656",
      "46",
      "1320",
      "0",
      "0",
      "0",
      "0",
      "reversedirection=yes highway=residential surface=paved",
      "",
      "4390",
      "132377"
     ],
     [
      "15966364",
      "49643848",
      "655",
      "98",
      "1100",
      "0",
      "0",
      "0",
      "0",
      "highway=residential surface=paved route_foot_lwn=yes",
      "nodeaccessgranted=yes estimated_crossing_class=1",
      "4458",
      "132752"
     ],
     [
      "15966793",
      "49644313",
      "660",
      "60",
      "4000",
      "0",
      "0",
      "0",
      "0",
      "highway=secondary surface=asphalt route_foot_lwn=yes",
      "nodeaccessgranted=yes estimated_crossing_class=1",
      "4503",
      "133958"
     ],
     [
      "15968121",
      "49643916",
      "658",
      "106",
      "1320",
      "0",
      "0",
      "0",
      "0",
      "highway=residential surface=unpaved",
      "",
      "4577",
      "134473"
     ]
    ],
    "times": [
     0,
     41.948,
     79.449,
     92.539,
     153.121,
     158.488,
     222.101,
     231.393,
     246.872,
     257.628,
     265.578,
     272.185,
     279.694,
     287.293,
     296.581,
     306.715,
     318.893,
     332.096,
     336.522,
     365.076,
     378.164,
     407.849,
     419.854,
     429.558,
     444.452,
     456.99,
     510.964,
     549.227,
     578.839,
     611.554,
     632.088,
     652.001,
     671.899,
     693.969,
     716.186,
     746.336,
     759.02,
     764.554,
     781.87,
     817.935,
     837.137,
     868.278,
     911.532,
     934.035,
     1003.701,
     1104.218,
     1126.424,
     1207.705,
     1267.919,
     1293.292,
     1307.577,
     1335.538,
     1364.849,
     1396.167,
     1414.708,
     1471.052,
     1490.769,
     1516.342,
     1550.572,
     1575.498,
     1604.432,
     1619.128,
     1673.032,
     1713.621,
     1750.536,
     1859.042,
     1949.766,
     1974.243,
     1993.209,
     2024.006,
     2039.801,
     2056.981,
     2071.15,
     2071.865,
     2079.47,
     2086.237,
     2095.846,
     2105.428,
     2114.157,
     2123.907,
     2141.772,
     2183.701,
     2210.612,
     2261.481,
     2360.35,
     2491.813,
     2608.993,
     2706.745,
     2783.75,
     2784.464,
     2851.504,
     2917.74,
     2957.735,
     3045.468,
     3077.756,
     3204.696,
     3222.742,
     3253.622,
     3414.965,
     3510.551,
     3601.156,
     3623.135,
     3639.689,
     3662.458,
     3687.001,
     3720.007,
     3757.337,
     3804.688,
     3846.978,
     3902.763,
     3913.64,
     3929.19,
     3949.999,
     3964.071,
     3985.713,
     4031.43,
     4066.526,
     4092.034,
     4131.555,
     4157.792,
     4179.114,
     4193.824,
     4217.755,
     4239.504,
     4257.335,
     4267.947,
     4309.411,
     4314.147,
     4321.688,
     4332.893,
     4344.042,
     4354.362,
     4358.472,
     4361.817,
     4377.459,
     4390.216,
     4458.762,
     4503.534,
     4539.417,
     4577.701
    ]
   },
   "geometry": {
    "type": "LineString",
    "coordinates": [
     [
      15.968121,
      49.643916,
      658.0
     ],
     [
      15.967435,
      49.644152,
      659.75
     ],
     [
      15.966793,
      49.644313,
      660.5
     ],
     [
      15.966914,
      49.644443,
      661.75
     ],
     [
      15.967409,
      49.645041,
      667.25
     ],
     [
      15.967326,
      49.645077,
      667.25
     ],
     [
      15.966303,
      49.645529,
      667.25
     ],
     [
      15.966142,
      49.645584,
      667.25
     ],
     [
      15.965869,
      49.645676,
      666.75
     ],
     [
      15.965773,
      49.645796,
      667.25
     ],
     [
      15.965759,
      49.64589,
      667.5
     ],
     [
      15.965782,
      49.645969,
      668.0
     ],
     [
      15.965847,
      49.646053,
      668.75
     ],
     [
      15.965939,
      49.646122,
      669.25
     ],
     [
      15.966034,
      49.646208,
      670.0
     ],
     [
      15.966111,
      49.646312,
      670.5
     ],
     [
      15.966247,
      49.64644,
      671.25
     ],
     [
      15.966427,
      49.646551,
      672.0
     ],
     [
      15.966496,
      49.646581,
      672.25
     ],
     [
      15.966923,
      49.646761,
      674.0
     ],
     [
      15.967086,
      49.646874,
      674.5
     ],
     [
      15.96735,
      49.647162,
      676.5
     ],
     [
      15.967442,
      49.647283,
      677.25
     ],
     [
      15.967492,
      49.647387,
      678.0
     ],
     [
      15.96754,
      49.647544,
      679.25
     ],
     [
      15.967544,
      49.647682,
      680.25
     ],
     [
      15.967406,
      49.648227,
      684.25
     ],
     [
      15.9672,
      49.648604,
      686.75
     ],
     [
      15.966973,
      49.648884,
      688.0
     ],
     [
      15.966628,
      49.649151,
      689.5
     ],
     [
      15.966377,
      49.64931,
      690.25
     ],
     [
      15.966134,
      49.649474,
      690.25
     ],
     [
      15.965931,
      49.649651,
      691.0
     ],
     [
      15.965737,
      49.649867,
      691.5
     ],
     [
      15.96555,
      49.65009,
      692.5
     ],
     [
      15.965276,
      49.650381,
      693.5
     ],
     [
      15.965173,
      49.650505,
      694.25
     ],
     [
      15.965143,
      49.650569,
      694.5
     ],
     [
      15.965084,
      49.650758,
      696.25
     ],
     [
      15.965019,
      49.651132,
      699.0
     ],
     [
      15.964998,
      49.651335,
      699.75
     ],
     [
      15.964918,
      49.651672,
      700.5
     ],
     [
      15.964738,
      49.652139,
      701.5
     ],
     [
      15.964581,
      49.652379,
      701.75
     ],
     [
      15.964019,
      49.653121,
      702.25
     ],
     [
      15.962186,
      49.65328,
      703.75
     ],
     [
      15.961769,
      49.653274,
      704.25
     ],
     [
      15.960358,
      49.653441,
      707.5
     ],
     [
      15.95934,
      49.653617,
      710.25
     ],
     [
      15.958939,
      49.653744,
      711.75
     ],
     [
      15.95871,
      49.653817,
      712.5
     ],
     [
      15.958331,
      49.654005,
      714.5
     ],
     [
      15.957844,
      49.654014,
      716.5
     ],
     [
      15.95734,
      49.654088,
      718.5
     ],
     [
      15.957038,
      49.654097,
      719.75
     ],
     [
      15.956189,
      49.654023,
      724.75
     ],
     [
      15.955887,
      49.654042,
      727.0
     ],
     [
      15.955527,
      49.654135,
      729.25
     ],
     [
      15.955009,
      49.654116,
      732.0
     ],
     [
      15.954635,
      49.654153,
      734.25
     ],
     [
      15.954253,
      49.654022,
      736.75
     ],
     [
      15.954067,
      49.653942,
      738.0
     ],
     [
      15.953329,
      49.653796,
      742.5
     ],
     [
      15.952833,
      49.65362,
      747.5
     ],
     [
      15.952553,
      49.653349,
      752.25
     ],
     [
      15.951593,
      49.652877,
      767.5
     ],
     [
      15.950806,
      49.652409,
      778.0
     ],
     [
      15.950546,
      49.652287,
      781.25
     ],
     [
      15.950299,
      49.652253,
      783.25
     ],
     [
      15.949998,
      49.652089,
      787.25
     ],
     [
      15.949886,
      49.651978,
      788.5
     ],
     [
      15.949657,
      49.651928,
      789.0
     ],
     [
      15.949454,
      49.651966,
      788.5
     ],
     [
      15.949438,
      49.65197,
      788.5
     ],
     [
      15.949285,
      49.651974,
      787.5
     ],
     [
      15.949152,
      49.651939,
      786.75
     ],
     [
      15.949044,
      49.651837,
      787.0
     ],
     [
      15.948916,
      49.651738,
      786.75
     ],
     [
      15.948773,
      49.651671,
      786.0
     ],
     [
      15.948602,
      49.651596,
      784.75
     ],
     [
      15.948254,
      49.651512,
      781.75
     ],
     [
      15.947405,
      49.651345,
      773.5
     ],
     [
      15.946881,
      49.651268,
      768.0
     ],
     [
      15.945967,
      49.6512,
      758.75
     ],
     [
      15.944395,
      49.650932,
      742.25
     ],
     [
      15.942289,
      49.650507,
      721.75
     ],
     [
      15.940021,
      49.650261,
      707.75
     ],
     [
      15.937914,
      49.649908,
      699.5
     ],
     [
      15.936353,
      49.649635,
      698.0
     ],
     [
      15.936335,
      49.649632,
      698.0
     ],
     [
      15.937575,
      49.649287,
      696.5
     ],
     [
      15.93877,
      49.648902,
      695.5
     ],
     [
      15.939435,
      49.64861,
      694.75
     ],
     [
      15.940697,
      49.647852,
      692.0
     ],
     [
      15.941207,
      49.647607,
      691.5
     ],
     [
      15.943174,
      49.646526,
      689.0
     ],
     [
      15.943451,
      49.646373,
      688.5
     ],
     [
      15.94399,
      49.646148,
      687.0
     ],
     [
      15.947115,
      49.645581,
      688.75
     ],
     [
      15.948854,
      49.645498,
      692.0
     ],
     [
      15.95057,
      49.645436,
      692.25
     ],
     [
      15.950979,
      49.645456,
      692.75
     ],
     [
      15.951186,
      49.645289,
      691.0
     ],
     [
      15.951578,
      49.645156,
      688.75
     ],
     [
      15.952064,
      49.645108,
      687.25
     ],
     [
      15.952773,
      49.645059,
      684.75
     ],
     [
      15.953614,
      49.645011,
      681.0
     ],
     [
      15.954697,
      49.645047,
      677.5
     ],
     [
      15.95565,
      49.645096,
      674.5
     ],
     [
      15.956902,
      49.644999,
      669.0
     ],
     [
      15.9571,
      49.645088,
      669.0
     ],
     [
      15.957411,
      49.645153,
      668.75
     ],
     [
      15.957833,
      49.645025,
      666.0
     ],
     [
      15.958051,
      49.644872,
      663.5
     ],
     [
      15.958527,
      49.644793,
      661.5
     ],
     [
      15.959536,
      49.64466,
      660.5
     ],
     [
      15.960227,
      49.644503,
      660.5
     ],
     [
      15.960733,
      49.644588,
      663.0
     ],
     [
      15.961285,
      49.644229,
      661.0
     ],
     [
      15.96175,
      49.644089,
      661.0
     ],
     [
      15.962138,
      49.643993,
      661.0
     ],
     [
      15.962421,
      49.643941,
      660.5
     ],
     [
      15.96289,
      49.643953,
      660.5
     ],
     [
      15.963321,
      49.643913,
      660.25
     ],
     [
      15.963679,
      49.643802,
      655.75
     ],
     [
      15.963909,
      49.643781,
      655.25
     ],
     [
      15.964755,
      49.64388,
      656.25
     ],
     [
      15.964825,
      49.643917,
      656.0
     ],
     [
      15.964867,
      49.644013,
      656.25
     ],
     [
      15.964909,
      49.644156,
      656.75
     ],
     [
      15.96489,
      49.644295,
      656.5
     ],
     [
      15.96489,
      49.644434,
      656.0
     ],
     [
      15.964919,
      49.644483,
      655.75
     ],
     [
      15.964989,
      49.644483,
      655.0
     ],
     [
      15.965306,
      49.644528,
      655.25
     ],
     [
      15.965547,
      49.644553,
      656.25
     ],
     [
      15.966364,
      49.643848,
      655.5
     ],
     [
      15.966793,
      49.644313,
      660.5
     ],
     [
      15.967435,
      49.644152,
      659.75
     ],
     [
      15.968121,
      49.643916,
      658.0
     ]
    ]
   }
  }
 ]
}