{
 "type": "FeatureCollection",
 "features": [
  {
   "type": "Feature",
   "properties": {
    "creator": "BRouter-1.7.10",
    "name": "brouter_hiking-mountain_0",
    "track-length": "11197",
    "filtered ascend": "203",
    "plain-ascend": "0",
    "total-time": "8363",
    "total-energy": "227822",
    "cost": "13066",
    "messages": [
     [
      "Longitude",
      "Latitude",
      "Elevation",
      "Distance",
      "CostPerKm",
      "ElevCost",
      "TurnCost",
      "NodeCost",
      "InitialCost",
      "WayTags",
      "NodeTags",
      "Time",
      "Energy"
     ],
     [
      "15966793",
      "49644313",
      "660",
      "106",
      "1320",
      "0",
      "0",
      "0",
      "0",
      "reversedirection=yes highway=residential surface=unpaved",
      "estimated_crossing_class=1",
      "79",
      "2248"
     ],
     [
      "15966364",
      "49643848",
      "655",
      "60",
      "4000",
      "0",
      "0",
      "0",
      "0",
      "reversedirection=yes highway=secondary surface=asphalt route_foot_lwn=yes",
      "nodeaccessgranted=yes estimated_crossing_class=1",
      "121",
      "2432"
     ],
     [
      "15965547",
      "49644553",
      "656",
      "98",
      "1100",
      "0",
      "0",
      "0",
      "0",
      "reversedirection=yes highway=residential surface=paved route_foot_lwn=yes",
      "",
      "187",
      "2432"
     ],
     [
      "15965869",
      "49645676",
      "666",
      "131",
      "1260",
      "0",
      "0",
      "0",
      "0",
      "highway=track surface=unpaved",
      "",
      "288",
      "6089"
     ],
     [
      "15966496",
      "49646581",
      "672",
      "121",
      "1000",
      "0",
      "0",
      "0",
      "0",
      "reversedirection=yes highway=residential surface=asphalt route_hiking_rwn=yes",
      "",
      "388",
      "11704"
     ],
     [
      "15967086",
      "49646874",
      "674",
      "54",
      "1220",
      "0",
      "0",
      "0",
      "0",
      "reversedirection=yes highway=residential surface=asphalt",
      "",
      "433",
      "14415"
     ],
     [
      "15967544",
      "49647682",
      "680",
      "97",
      "1220",
      "0",
      "0",
      "0",
      "0",
      "highway=residential surface=asphalt mtb:scale=0",
      "",
      "516",
      "19465"
     ],
     [
      "15969031",
      "49647465",
      "681",
      "110",
      "1220",
      "0",
      "0",
      "0",
      "0",
      "reversedirection=yes highway=residential surface=asphalt",
      "estimated_crossing_class=1",
      "605",
      "24070"
     ],
     [
      "15974823",
      "49647598",
      "689",
      "425",
      "1000",
      "0",
      "0",
      "0",
      "0",
      "reversedirection=yes highway=residential surface=paved route_hiking_rwn=yes route_foot_lwn=yes",
      "",
      "925",
      "33348"
     ],
     [
      "15982500",
      "49647077",
      "702",
      "639",
      "1050",
      "0",
      "0",
      "0",
      "0",
      "highway=track tracktype=grade4 route_hiking_rwn=yes route_foot_lwn=yes",
      "",
      "1435",
      "56636"
     ],
     [
      "15984720",
      "49645563",
      "710",
      "233",
      "1100",
      "0",
      "0",
      "0",
      "0",
      "highway=track tracktype=grade2 mtb:scale=0 route_hiking_rwn=yes route_foot_lwn=yes",
      "",
      "1614",
      "63156"
     ],
     [
      "15984765",
      "49645533",
      "711",
      "5",
      "1100",
      "0",
      "0",
      "0",
      "0",
      "highway=track tracktype=grade2 route_hiking_rwn=yes route_foot_lwn=yes",
      "",
      "1618",
      "63247"
     ],
     [
      "15985965",
      "49644840",
      "718",
      "116",
      "1100",
      "0",
      "0",
      "0",
      "0",
      "highway=track tracktype=grade2 mtb:scale=0 route_hiking_rwn=yes route_foot_lwn=yes",
      "",
      "1713",
      "68191"
     ],
     [
      "15988082",
      "49645814",
      "722",
      "190",
      "1050",
      "0",
      "0",
      "0",
      "0",
      "highway=track surface=paved tracktype=grade1 foot=yes bicycle=yes mtb:scale=0 route_hiking_rwn=yes route_foot_lwn=yes",
      "",
      "1863",
      "74776"
     ],
     [
      "15999081",
      "49643230",
      "782",
      "868",
      "1050",
      "0",
      "0",
      "0",
      "0",
      "highway=track surface=paved tracktype=grade1 foot=yes bicycle=yes mtb:scale=0 route_hiking_rwn=yes",
      "",
      "2648",
      "133648"
     ],
     [
      "15999447",
      "49643864",
      "778",
      "76",
      "1050",
      "0",
      "0",
      "0",
      "0",
      "highway=path route_hiking_lwn=yes",
      "",
      "2706",
      "135510"
     ],
     [
      "15999081",
      "49643230",
      "782",
      "76",
      "1050",
      "0",
      "0",
      "0",
      "0",
      "reversedirection=yes highway=path route_hiking_lwn=yes",
      "",
      "2762",
      "136968"
     ],
     [
      "16003790",
      "49641398",
      "788",
      "396",
      "1150",
      "0",
      "0",
      "0",
      "0",
      "highway=track surface=paved tracktype=grade1 foot=yes bicycle=yes mtb:scale=0 route_hiking_rwn=yes",
      "",
      "3060",
      "145860"
     ],
     [
      "16001933",
      "49638644",
      "800",
      "377",
      "1000",
      "0",
      "0",
      "0",
      "0",
      "highway=track surface=ground tracktype=grade4 mtb:scale=1 route_hiking_rwn=yes",
      "",
      "3356",
      "157895"
     ],
     [
      "16001992",
      "49638163",
      "801",
      "54",
      "1050",
      "0",
      "0",
      "0",
      "0",
      "highway=track surface=ground tracktype=grade3 route_hiking_lwn=yes",
      "",
      "3398",
      "159810"
     ],
     [
      "16002122",
      "49637698",
      "802",
      "53",
      "1050",
      "0",
      "0",
      "0",
      "0",
      "highway=path surface=ground route_hiking_lwn=yes",
      "",
      "3440",
      "161431"
     ],
     [
      "16001992",
      "49638163",
      "801",
      "53",
      "1050",
      "0",
      "0",
      "0",
      "0",
      "reversedirection=yes highway=path surface=ground route_hiking_lwn=yes",
      "",
      "3477",
      "161555"
     ],
     [
      "16001933",
      "49638644",
      "800",
      "54",
      "1050",
      "0",
      "0",
      "0",
      "0",
      "reversedirection=yes highway=track surface=ground tracktype=grade3 route_hiking_lwn=yes",
      "",
      "3514",
      "161701"
     ],
     [
      "16003790",
      "49641398",
      "788",
      "377",
      "1000",
      "0",
      "0",
      "0",
      "0",
      "reversedirection=yes highway=track surface=ground tracktype=grade4 mtb:scale=1 route_hiking_rwn=yes",
      "",
      "3760",
      "162029"
     ],
     [
      "16000470",
      "49648331",
      "771",
      "953",
      "1150",
      "0",
      "0",
      "0",
      "0",
      "highway=track surface=paved tracktype=grade1 foot=yes bicycle=yes route_hiking_rwn=yes",
      "",
      "4411",
      "163004"
     ],
     [
      "15996581",
      "49652165",
      "772",
      "608",
      "1150",
      "0",
      "0",
      "0",
      "0",
      "highway=track surface=asphalt tracktype=grade1 foot=yes bicycle=yes route_hiking_rwn=yes",
      "",
      "4836",
      "165859"
     ],
     [
      "15998109",
      "49652684",
      "776",
      "124",
      "1150",
      "0",
      "0",
      "0",
      "0",
      "highway=track surface=asphalt tracktype=grade1 foot=yes bicycle=yes route_hiking_rwn=yes route_hiking_lwn=yes route_foot_lwn=yes",
      "",
      "4927",
      "167950"
     ],
     [
      "15998647",
      "49654417",
      "777",
      "209",
      "1050",
      "0",
      "0",
      "0",
      "0",
      "highway=track surface=compacted tracktype=grade3 mtb:scale=0 route_hiking_rwn=yes route_hiking_lwn=yes route_foot_lwn=yes",
      "",
      "5088",
      "173966"
     ],
     [
      "15998908",
      "49654403",
      "775",
      "20",
      "1260",
      "0",
      "0",
      "0",
      "0",
      "reversedirection=yes highway=path",
      "",
      "5102",
      "173966"
     ],
     [
      "15998647",
      "49654417",
      "777",
      "20",
      "1260",
      "0",
      "0",
      "0",
      "0",
      "highway=path",
      "",
      "5117",
      "174421"
     ],
     [
      "15996485",
      "49657885",
      "769",
      "432",
      "1050",
      "0",
      "0",
      "0",
      "0",
      "highway=track surface=compacted tracktype=grade3 mtb:scale=0 route_hiking_rwn=yes route_hiking_lwn=yes route_foot_lwn=yes",
      "",
      "5423",
      "177509"
     ],
     [
      "15991994",
      "49657119",
      "809",
      "337",
      "1000",
      "0",
      "0",
      "0",
      "0",
      "highway=path foot=yes mtb:scale=1 route_hiking_nwn=yes route_hiking_lwn=yes route_foot_lwn=yes",
      "",
      "5736",
      "202371"
     ],
     [
      "15986412",
      "49656306",
      "744",
      "417",
      "1600",
      "0",
      "0",
      "0",
      "0",
      "highway=path foot=yes mtb:scale=2 route_hiking_nwn=yes route_hiking_lwn=yes route_foot_lwn=yes",
      "",
      "6078",
      "202723"
     ],
     [
      "15985199",
      "49656009",
      "731",
      "96",
      "1050",
      "0",
      "0",
      "0",
      "0",
      "highway=track tracktype=grade4 foot=yes mtb:scale=0+ route_hiking_nwn=yes route_hiking_lwn=yes route_foot_lwn=yes",
      "",
      "6158",
      "202723"
     ],
     [
      "15975001",
      "49654249",
      "682",
      "762",
      "1000",
      "0",
      "0",
      "0",
      "0",
      "highway=track surface=unpaved tracktype=grade4 mtb:scale=1 route_hiking_nwn=yes route_foot_lwn=yes",
      "",
      "6661",
      "202723"
     ],
     [
      "15969298",
      "49653785",
      "693",
      "422",
      "1050",
      "0",
      "0",
      "0",
      "0",
      "highway=track surface=unpaved tracktype=grade3 mtb:scale=0+ route_hiking_nwn=yes route_foot_lwn=yes",
      "",
      "6979",
      "212105"
     ],
     [
      "15968093",
      "49654165",
      "694",
      "97",
      "1100",
      "0",
      "0",
      "0",
      "0",
      "reversedirection=yes highway=track tracktype=grade2 mtb:scale=0 route_hiking_nwn=yes route_foot_lwn=yes",
      "nodeaccessgranted=yes estimated_crossing_class=1",
      "7051",
      "213971"
     ],
     [
      "15967268",
      "49654394",
      "695",
      "65",
      "1100",
      "0",
      "0",
      "0",
      "0",
      "reversedirection=yes highway=track surface=asphalt tracktype=grade2 mtb:scale=0 route_hiking_nwn=yes route_foot_lwn=yes",
      "",
      "7098",
      "214978"
     ],
     [
      "15962186",
      "49653280",
      "703",
      "395",
      "1050",
      "0",
      "0",
      "0",
      "0",
      "reversedirection=yes highway=track surface=unpaved tracktype=grade4 bicycle=yes mtb:scale=0 route_hiking_nwn=yes route_foot_lwn=yes",
      "",
      "7399",
      "224821"
     ],
     [
      "15964019",
      "49653121",
      "702",
      "134",
      "1380",
      "0",
      "0",
      "0",
      "0",
      "highway=track surface=asphalt tracktype=grade1 foot=yes bicycle=yes mtb:scale=0",
      "",
      "7496",
      "226513"
     ],
     [
      "15965276",
      "49650381",
      "693",
      "322",
      "1260",
      "0",
      "0",
      "0",
      "0",
      "reversedirection=yes highway=track tracktype=grade3 mtb:scale=0",
      "",
      "7719",
      "227452"
     ],
     [
      "15967544",
      "49647682",
      "680",
      "348",
      "1580",
      "0",
      "0",
      "0",
      "0",
      "reversedirection=yes highway=track surface=paved tracktype=grade1 mtb:scale=0",
      "",
      "7941",
      "227452"
     ],
     [
      "15967086",
      "49646874",
      "674",
      "97",
      "1520",
      "0",
      "0",
      "0",
      "0",
      "reversedirection=yes highway=residential surface=asphalt mtb:scale=0",
      "",
      "8000",
      "227452"
     ],
     [
      "15966496",
      "49646581",
      "672",
      "54",
      "1520",
      "0",
      "0",
      "0",
      "0",
      "highway=residential surface=asphalt",
      "",
      "8032",
      "227452"
     ],
     [
      "15965869",
      "49645676",
      "666",
      "121",
      "1300",
      "0",
      "0",
      "0",
      "0",
      "highway=residential surface=asphalt route_hiking_rwn=yes",
      "",
      "8106",
      "227452"
     ],
     [
      "15965547",
      "49644553",
      "656",
      "131",
      "1260",
      "0",
      "0",
      "0",
      "0",
      "reversedirection=yes highway=track surface=unpaved",
      "",
      "8189",
      "227452"
     ],
     [
      "15966364",
      "49643848",
      "655",
      "98",
      "1300",
      "0",
      "0",
      "0",
      "0",
      "highway=residential surface=paved route_foot_lwn=yes",
      "nodeaccessgranted=yes estimated_crossing_class=1",
      "8248",
      "227452"
     ],
     [
      "15966793",
      "49644313",
      "660",
      "60",
      "4000",
      "0",
      "0",
      "0",
      "0",
      "highway=secondary surface=asphalt route_foot_lwn=yes",
      "nodeaccessgranted=yes estimated_crossing_class=1",
      "8291",
      "227744"
     ],
     [
      "15968121",
      "49643916",
      "658",
      "106",
      "1320",
      "0",
      "0",
      "0",
      "0",
      "highway=residential surface=unpaved",
      "",
      "8363",
      "227822"
     ]
    ],
    "times": [
     0,
     41.948,
     79.449,
     121.288,
     187.142,
     218.781,
     229.166,
     237.563,
     262.767,
     282.432,
     288.151,
     300.434,
     309.367,
     316.71,
     324.975,
     333.263,
     343.303,
     354.156,
     368.385,
     383.432,
     388.401,
     419.766,
     433.823,
     465.178,
     477.697,
     487.763,
     503.135,
     516.014,
     605.515,
     626.213,
     718.986,
     741.035,
     756.616,
     767.768,
     793.565,
     817.854,
     843.933,
     872.363,
     912.663,
     925.116,
     942.39,
     964.504,
     1012.371,
     1026.176,
     1032.988,
     1044.889,
     1082.816,
     1203.542,
     1242.665,
     1264.956,
     1319.522,
     1352.034,
     1435.533,
     1614.938,
     1618.64,
     1674.58,
     1701.755,
     1713.313,
     1747.392,
     1800.873,
     1831.955,
     1863.712,
     1880.381,
     1892.979,
     1914.032,
     1919.686,
     1936.373,
     1952.423,
     2051.583,
     2076.189,
     2159.887,
     2253.237,
     2452.72,
     2460.746,
     2472.02,
     2481.943,
     2488.635,
     2505.11,
     2518.468,
     2535.618,
     2553.357,
     2563.835,
     2587.671,
     2597.265,
     2618.024,
     2648.398,
     2670.251,
     2686.064,
     2691.581,
     2706.146,
     2719.945,
     2725.062,
     2742.134,
     2762.674,
     2828.821,
     3060.958,
     3095.675,
     3121.615,
     3156.749,
     3184.077,
     3229.99,
     3258.285,
     3282.052,
     3310.341,
     3356.104,
     3375.535,
     3398.944,
     3424.66,
     3440.177,
     3454.247,
     3477.032,
     3498.099,
     3514.634,
     3550.963,
     3574.949,
     3594.124,
     3616.721,
     3655.281,
     3677.27,
     3706.185,
     3729.496,
     3752.785,
     3760.712,
     3885.205,
     3915.964,
     3945.405,
     4119.038,
     4139.34,
     4160.454,
     4186.545,
     4200.201,
     4213.861,
     4227.417,
     4241.456,
     4255.894,
     4282.166,
     4306.592,
     4411.619,
     4447.232,
     4469.216,
     4489.65,
     4504.781,
     4515.682,
     4527.255,
     4566.8,
     4641.356,
     4762.95,
     4780.863,
     4796.995,
     4807.811,
     4820.352,
     4836.128,
     4909.656,
     4927.474,
     4969.287,
     4997.838,
     5012.854,
     5020.65,
     5036.821,
     5056.381,
     5088.993,
     5098.623,
     5102.73,
     5107.056,
     5117.82,
     5137.249,
     5184.446,
     5207.328,
     5222.825,
     5264.735,
     5273.882,
     5329.064,
     5345.723,
     5356.978,
     5374.766,
     5386.076,
     5406.912,
     5423.031,
     5432.973,
     5467.995,
     5496.964,
     5557.215,
     5610.209,
     5640.22,
     5696.229,
     5728.001,
     5734.606,
     5736.048,
     5752.484,
     5770.782,
     5783.467,
     5806.817,
     5993.323,
     6011.952,
     6027.647,
     6057.178,
     6078.19,
     6098.873,
     6158.213,
     6661.46,
     6873.421,
     6896.436,
     6913.849,
     6937.177,
     6957.333,
     6979.145,
     6980.638,
     7051.277,
     7060.194,
     7098.901,
     7109.145,
     7118.045,
     7181.74,
     7224.803,
     7243.769,
     7256.728,
     7312.853,
     7340.822,
     7359.119,
     7375.932,
     7399.382,
     7496.446,
     7561.725,
     7582.217,
     7619.498,
     7645.5,
     7661.052,
     7690.093,
     7703.958,
     7708.59,
     7719.008,
     7743.568,
     7761.629,
     7779.867,
     7796.126,
     7812.728,
     7829.215,
     7854.383,
     7876.853,
     7904.102,
     7941.263,
     7950.393,
     7961.208,
     7968.417,
     7977.45,
     8000.14,
     8010.436,
     8032.708,
     8036.394,
     8047.373,
     8057.756,
     8065.741,
     8073.061,
     8079.159,
     8085.198,
     8090.625,
     8097.311,
     8106.459,
     8110.727,
     8125.131,
     8144.367,
     8151.146,
     8159.851,
     8189.148,
     8248.934,
     8291.075,
     8325.732,
     8363.238
    ]
   },
   "geometry": {
    "type": "LineString",
    "coordinates": [
     [
      15.968121,
      49.643916,
      658.0
     ],
     [
      15.967435,
      49.644152,
      659.75
     ],
     [
      15.966793,
      49.644313,
      660.5
     ],
     [
      15.966364,
      49.643848,
      655.5
     ],
     [
      15.965547,
      49.644553,
      656.25
     ],
     [
      15.965812,
      49.64491,
      660.5
     ],
     [
      15.965873,
      49.64503,
      661.5
     ],
     [
      15.965892,
      49.64513,
      662.5
     ],
     [
      15.965886,
      49.645405,
      665.0
     ],
     [
      15.965842,
      49.64562,
      666.25
     ],
     [
      15.965869,
      49.645676,
      666.75
     ],
     [
      15.965773,
      49.645796,
      667.25
     ],
     [
      15.965759,
      49.64589,
      667.5
     ],
     [
      15.965782,
      49.645969,
      668.0
     ],
     [
      15.965847,
      49.646053,
      668.75
     ],
     [
      15.965939,
      49.646122,
      669.25
     ],
     [
      15.966034,
      49.646208,
      670.0
     ],
     [
      15.966111,
      49.646312,
      670.5
     ],
     [
      15.966247,
      49.64644,
      671.25
     ],
     [
      15.966427,
      49.646551,
      672.0
     ],
     [
      15.966496,
      49.646581,
      672.25
     ],
     [
      15.966923,
      49.646761,
      674.0
     ],
     [
      15.967086,
      49.646874,
      674.5
     ],
     [
      15.96735,
      49.647162,
      676.5
     ],
     [
      15.967442,
      49.647283,
      677.25
     ],
     [
      15.967492,
      49.647387,
      678.0
     ],
     [
      15.96754,
      49.647544,
      679.25
     ],
     [
      15.967544,
      49.647682,
      680.25
     ],
     [
      15.969031,
      49.647465,
      681.5
     ],
     [
      15.969403,
      49.647495,
      681.75
     ],
     [
      15.971136,
      49.647587,
      681.5
     ],
     [
      15.971539,
      49.647633,
      682.0
     ],
     [
      15.971826,
      49.647681,
      682.5
     ],
     [
      15.97203,
      49.647676,
      682.75
     ],
     [
      15.972506,
      49.647605,
      682.75
     ],
     [
      15.972964,
      49.647564,
      683.0
     ],
     [
      15.973457,
      49.64755,
      682.75
     ],
     [
      15.973969,
      49.647479,
      684.0
     ],
     [
      15.974632,
      49.647555,
      688.0
     ],
     [
      15.974823,
      49.647598,
      689.5
     ],
     [
      15.975065,
      49.647679,
      691.5
     ],
     [
      15.975314,
      49.647836,
      693.5
     ],
     [
      15.975531,
      49.648293,
      696.75
     ],
     [
      15.97564,
      49.648414,
      697.5
     ],
     [
      15.975735,
      49.648448,
      697.75
     ],
     [
      15.975926,
      49.648464,
      698.25
     ],
     [
      15.976524,
      49.648399,
      700.25
     ],
     [
      15.978445,
      49.648033,
      704.25
     ],
     [
      15.979156,
      49.647917,
      703.5
     ],
     [
      15.979552,
      49.647819,
      703.0
     ],
     [
      15.980422,
      49.647521,
      702.75
     ],
     [
      15.980954,
      49.64733,
      702.5
     ],
     [
      15.9825,
      49.647077,
      702.5
     ],
     [
      15.98472,
      49.645563,
      710.75
     ],
     [
      15.984765,
      49.645533,
      711.25
     ],
     [
      15.985452,
      49.6451,
      715.25
     ],
     [
      15.985798,
      49.644912,
      717.5
     ],
     [
      15.985965,
      49.64484,
      718.5
     ],
     [
      15.986363,
      49.645084,
      720.75
     ],
     [
      15.987065,
      49.645476,
      721.0
     ],
     [
      15.987563,
      49.645664,
      720.0
     ],
     [
      15.988082,
      49.645814,
      722.0
     ],
     [
      15.988382,
      49.645863,
      722.0
     ],
     [
      15.988606,
      49.645872,
      723.5
     ],
     [
      15.98896,
      49.645835,
      725.0
     ],
     [
      15.989049,
      49.64582,
      725.5
     ],
     [
      15.989297,
      49.645748,
      727.0
     ],
     [
      15.989529,
      49.645664,
      728.25
     ],
     [
      15.990748,
      49.645119,
      736.0
     ],
     [
      15.991128,
      49.645037,
      737.5
     ],
     [
      15.992346,
      49.644844,
      744.25
     ],
     [
      15.993616,
      49.644464,
      751.5
     ],
     [
      15.996094,
      49.643586,
      768.25
     ],
     [
      15.996225,
      49.643546,
      769.0
     ],
     [
      15.996404,
      49.6435,
      769.5
     ],
     [
      15.996558,
      49.643469,
      770.75
     ],
     [
      15.99666,
      49.643454,
      771.5
     ],
     [
      15.996917,
      49.643438,
      773.25
     ],
     [
      15.997118,
      49.643443,
      775.0
     ],
     [
      15.997386,
      49.643462,
      776.5
     ],
     [
      15.997654,
      49.64349,
      777.25
     ],
     [
      15.997822,
      49.643498,
      777.75
     ],
     [
      15.998195,
      49.643481,
      779.25
     ],
     [
      15.998349,
      49.643458,
      780.0
     ],
     [
      15.998657,
      49.643382,
      780.75
     ],
     [
      15.999081,
      49.64323,
      782.5
     ],
     [
      15.999285,
      49.643449,
      780.75
     ],
     [
      15.999344,
      49.643642,
      778.75
     ],
     [
      15.999384,
      49.643698,
      778.5
     ],
     [
      15.999447,
      49.643864,
      778.0
     ],
     [
      15.999384,
      49.643698,
      778.5
     ],
     [
      15.999344,
      49.643642,
      778.75
     ],
     [
      15.999285,
      49.643449,
      780.75
     ],
     [
      15.999081,
      49.64323,
      782.5
     ],
     [
      16.000121,
      49.642829,
      784.5
     ],
     [
      16.00379,
      49.641398,
      788.0
     ],
     [
      16.003565,
      49.641022,
      787.5
     ],
     [
      16.003302,
      49.64076,
      787.0
     ],
     [
      16.00269,
      49.640661,
      788.5
     ],
     [
      16.002297,
      49.64048,
      790.0
     ],
     [
      16.001875,
      49.639994,
      792.25
     ],
     [
      16.001772,
      49.63968,
      794.75
     ],
     [
      16.001919,
      49.639433,
      797.0
     ],
     [
      16.002022,
      49.639138,
      798.75
     ],
     [
      16.001933,
      49.638644,
      800.75
     ],
     [
      16.001951,
      49.638428,
      801.5
     ],
     [
      16.001992,
      49.638163,
      801.25
     ],
     [
      16.002106,
      49.637879,
      802.0
     ],
     [
      16.002122,
      49.637698,
      802.75
     ],
     [
      16.002106,
      49.637879,
      802.0
     ],
     [
      16.001992,
      49.638163,
      801.25
     ],
     [
      16.001951,
      49.638428,
      801.5
     ],
     [
      16.001933,
      49.638644,
      800.75
     ],
     [
      16.002022,
      49.639138,
      798.75
     ],
     [
      16.001919,
      49.639433,
      797.0
     ],
     [
      16.001772,
      49.63968,
      794.75
     ],
     [
      16.001875,
      49.639994,
      792.25
     ],
     [
      16.002297,
      49.64048,
      790.0
     ],
     [
      16.00269,
      49.640661,
      788.5
     ],
     [
      16.003302,
      49.64076,
      787.0
     ],
     [
      16.003565,
      49.641022,
      787.5
     ],
     [
      16.003736,
      49.641307,
      788.0
     ],
     [
      16.00379,
      49.641398,
      788.0
     ],
     [
      16.003797,
      49.643017,
      785.75
     ],
     [
      16.003845,
      49.643424,
      784.5
     ],
     [
      16.00389,
      49.643812,
      784.0
     ],
     [
      16.004614,
      49.646013,
      779.75
     ],
     [
      16.004675,
      49.646271,
      779.25
     ],
     [
      16.00465,
      49.646536,
      779.25
     ],
     [
      16.004449,
      49.646852,
      778.25
     ],
     [
      16.004319,
      49.647013,
      777.75
     ],
     [
      16.004142,
      49.647147,
      777.5
     ],
     [
      16.003946,
      49.647279,
      777.0
     ],
     [
      16.003705,
      49.647386,
      776.25
     ],
     [
      16.003443,
      49.647485,
      775.25
     ],
     [
      16.002947,
      49.647638,
      774.5
     ],
     [
      16.002475,
      49.647767,
      773.75
     ],
     [
      16.00047,
      49.648331,
      771.5
     ],
     [
      15.999812,
      49.648507,
      771.5
     ],
     [
      15.999423,
      49.648628,
      771.75
     ],
     [
      15.999044,
      49.648768,
      772.25
     ],
     [
      15.998794,
      49.648873,
      773.0
     ],
     [
      15.998618,
      49.648967,
      772.5
     ],
     [
      15.998453,
      49.64907,
      772.25
     ],
     [
      15.997936,
      49.649468,
      771.75
     ],
     [
      15.997054,
      49.650232,
      769.0
     ],
     [
      15.99566,
      49.651497,
      768.25
     ],
     [
      15.995775,
      49.651731,
      769.0
     ],
     [
      15.995989,
      49.651889,
      770.25
     ],
     [
      15.99614,
      49.651976,
      771.0
     ],
     [
      15.996324,
      49.652068,
      771.75
     ],
     [
      15.996581,
      49.652165,
      772.5
     ],
     [
      15.997812,
      49.652583,
      775.5
     ],
     [
      15.998109,
      49.652684,
      776.25
     ],
     [
      15.998525,
      49.653089,
      778.25
     ],
     [
      15.998761,
      49.653367,
      781.0
     ],
     [
      15.998876,
      49.653522,
      781.0
     ],
     [
      15.998881,
      49.653615,
      781.0
     ],
     [
      15.998855,
      49.6538,
      781.0
     ],
     [
      15.9988,
      49.654032,
      780.75
     ],
     [
      15.998647,
      49.654417,
      777.75
     ],
     [
      15.998835,
      49.654424,
      775.75
     ],
     [
      15.998908,
      49.654403,
      775.5
     ],
     [
      15.998835,
      49.654424,
      775.75
     ],
     [
      15.998647,
      49.654417,
      777.75
     ],
     [
      15.998592,
      49.654652,
      777.25
     ],
     [
      15.998223,
      49.655182,
      776.75
     ],
     [
      15.997887,
      49.655352,
      777.5
     ],
     [
      15.997718,
      49.655512,
      776.25
     ],
     [
      15.99716,
      49.655911,
      775.75
     ],
     [
      15.997053,
      49.656009,
      775.75
     ],
     [
      15.996846,
      49.656694,
      772.75
     ],
     [
      15.996767,
      49.656902,
      772.0
     ],
     [
      15.996695,
      49.65704,
      772.25
     ],
     [
      15.996704,
      49.657278,
      771.25
     ],
     [
      15.996577,
      49.657398,
      772.0
     ],
     [
      15.996577,
      49.657677,
      770.25
     ],
     [
      15.996485,
      49.657885,
      769.75
     ],
     [
      15.99628,
      49.65786,
      772.0
     ],
     [
      15.995665,
      49.65776,
      779.25
     ],
     [
      15.995209,
      49.657688,
      783.75
     ],
     [
      15.994349,
      49.657595,
      790.75
     ],
     [
      15.993659,
      49.657405,
      796.5
     ],
     [
      15.993241,
      49.657358,
      799.75
     ],
     [
      15.992548,
      49.657205,
      806.75
     ],
     [
      15.992114,
      49.657143,
      809.25
     ],
     [
      15.992019,
      49.657124,
      809.75
     ],
     [
      15.991994,
      49.657119,
      809.75
     ],
     [
      15.99168,
      49.657086,
      809.5
     ],
     [
      15.991337,
      49.65703,
      806.0
     ],
     [
      15.991073,
      49.65705,
      804.25
     ],
     [
      15.990636,
      49.656911,
      796.5
     ],
     [
      15.987956,
      49.656454,
      762.5
     ],
     [
      15.987613,
      49.656367,
      757.75
     ],
     [
      15.987302,
      49.656378,
      754.5
     ],
     [
      15.986786,
      49.65633,
      748.5
     ],
     [
      15.986412,
      49.656306,
      744.5
     ],
     [
      15.98614,
      49.656149,
      740.5
     ],
     [
      15.985199,
      49.656009,
      731.25
     ],
     [
      15.975001,
      49.654249,
      682.5
     ],
     [
      15.971248,
      49.653686,
      694.0
     ],
     [
      15.970842,
      49.653748,
      693.0
     ],
     [
      15.970533,
      49.653837,
      691.75
     ],
     [
      15.970078,
      49.653855,
      691.0
     ],
     [
      15.9697,
      49.653802,
      691.5
     ],
     [
      15.969298,
      49.653785,
      693.0
     ],
     [
      15.969278,
      49.653791,
      694.75
     ],
     [
      15.968093,
      49.654165,
      694.75
     ],
     [
      15.96794,
      49.654199,
      695.25
     ],
     [
      15.967268,
      49.654394,
      695.0
     ],
     [
      15.967083,
      49.654366,
      695.25
     ],
     [
      15.966931,
      49.654328,
      695.75
     ],
     [
      15.965912,
      49.653963,
      697.25
     ],
     [
      15.965253,
      49.653685,
      698.25
     ],
     [
      15.964932,
      49.653597,
      699.0
     ],
     [
      15.964708,
      49.653557,
      699.5
     ],
     [
      15.963708,
      49.653486,
      700.75
     ],
     [
      15.963195,
      49.65347,
      701.25
     ],
     [
      15.962871,
      49.653443,
      702.0
     ],
     [
      15.962574,
      49.653388,
      702.5
     ],
     [
      15.962186,
      49.65328,
      703.75
     ],
     [
      15.964019,
      49.653121,
      702.25
     ],
     [
      15.964581,
      49.652379,
      701.75
     ],
     [
      15.964738,
      49.652139,
      701.5
     ],
     [
      15.964918,
      49.651672,
      700.5
     ],
     [
      15.964998,
      49.651335,
      699.75
     ],
     [
      15.965019,
      49.651132,
      699.0
     ],
     [
      15.965084,
      49.650758,
      696.25
     ],
     [
      15.965143,
      49.650569,
      694.5
     ],
     [
      15.965173,
      49.650505,
      694.25
     ],
     [
      15.965276,
      49.650381,
      693.5
     ],
     [
      15.96555,
      49.65009,
      692.5
     ],
     [
      15.965737,
      49.649867,
      691.5
     ],
     [
      15.965931,
      49.649651,
      691.0
     ],
     [
      15.966134,
      49.649474,
      690.25
     ],
     [
      15.966377,
      49.64931,
      690.25
     ],
     [
      15.966628,
      49.649151,
      689.5
     ],
     [
      15.966973,
      49.648884,
      688.0
     ],
     [
      15.9672,
      49.648604,
      686.75
     ],
     [
      15.967406,
      49.648227,
      684.25
     ],
     [
      15.967544,
      49.647682,
      680.25
     ],
     [
      15.96754,
      49.647544,
      679.25
     ],
     [
      15.967492,
      49.647387,
      678.0
     ],
     [
      15.967442,
      49.647283,
      677.25
     ],
     [
      15.96735,
      49.647162,
      676.5
     ],
     [
      15.967086,
      49.646874,
      674.5
     ],
     [
      15.966923,
      49.646761,
      674.0
     ],
     [
      15.966496,
      49.646581,
      672.25
     ],
     [
      15.966427,
      49.646551,
      672.0
     ],
     [
      15.966247,
      49.64644,
      671.25
     ],
     [
      15.966111,
      49.646312,
      670.5
     ],
     [
      15.966034,
      49.646208,
      670.0
     ],
     [
      15.965939,
      49.646122,
      669.25
     ],
     [
      15.965847,
      49.646053,
      668.75
     ],
     [
      15.965782,
      49.645969,
      668.0
     ],
     [
      15.965759,
      49.64589,
      667.5
     ],
     [
      15.965773,
      49.645796,
      667.25
     ],
     [
      15.965869,
      49.645676,
      666.75
     ],
     [
      15.965842,
      49.64562,
      666.25
     ],
     [
      15.965886,
      49.645405,
      665.0
     ],
     [
      15.965892,
      49.64513,
      662.5
     ],
     [
      15.965873,
      49.64503,
      661.5
     ],
     [
      15.965812,
      49.64491,
      660.5
     ],
     [
      15.965547,
      49.644553,
      656.25
     ],
     [
      15.966364,
      49.643848,
      655.5
     ],
     [
      15.966793,
      49.644313,
      660.5
     ],
     [
      15.967435,
      49.644152,
      659.75
     ],
     [
      15.968121,
      49.643916,
      658.0
     ]
    ]
   }
  }
 ]
}