<?xml version="1.0" encoding="UTF-8"?>
<gpx version="1.1" creator="Vysočina 2026 – Mlýn Vikinek" xmlns="http://www.topografix.com/GPX/1/1">
<metadata><name>K Velkému Dářku a sklárně</name><desc>Rodinný okruh: lesem do Škrdlovic ke sklárně, po hrázi Velkého Dářka k rašeliništi a zpět kolem Tisůvky.</desc></metadata>
<wpt lat="49.634240" lon="15.929900"><name>Sklárna U Hrocha (Škrdlovice)</name><desc>Malá sklářská huť, kde vám před očima vznikne půllitr nebo džbán.</desc></wpt>
<wpt lat="49.631770" lon="15.909620"><name>Velké Dářko</name><desc>Moře Vysočiny: největší rybník Českomoravské vrchoviny (206 ha).</desc></wpt>
<wpt lat="49.637880" lon="15.882830"><name>NS Dářská rašeliniště</name><desc>3 km dlouhá stezka po povalových chodnících přes rašeliniště, se dvěma vyhlídkami.</desc></wpt>
<wpt lat="49.633850" lon="15.930070"><name>Hotel a restaurace U Hrocha</name><desc>Restaurace hned vedle sklářské huti. Oběd se dá spojit s ukázkou foukání skla.</desc></wpt>
<wpt lat="49.637090" lon="15.925820"><name>Restaurace penzionu Velké Dářko</name><desc>Restaurace kousek od Velkého Dářka.</desc></wpt>
<wpt lat="49.651780" lon="15.949450"><name>Tisůvka (804 m)</name><desc>Nejbližší skály: 58 m dlouhá rulová hradba, až 15 m vysoká, skoro za humny.</desc></wpt>
<trk><name>K Velkému Dářku a sklárně</name><trkseg>
<trkpt lat="49.643916" lon="15.968121"><ele>658</ele></trkpt>
<trkpt lat="49.644152" lon="15.967435"><ele>660</ele></trkpt>
<trkpt lat="49.644313" lon="15.966793"><ele>660</ele></trkpt>
<trkpt lat="49.644443" lon="15.966914"><ele>662</ele></trkpt>
<trkpt lat="49.645041" lon="15.967409"><ele>667</ele></trkpt>
<trkpt lat="49.645077" lon="15.967326"><ele>667</ele></trkpt>
<trkpt lat="49.645529" lon="15.966303"><ele>667</ele></trkpt>
<trkpt lat="49.645584" lon="15.966142"><ele>667</ele></trkpt>
<trkpt lat="49.645676" lon="15.965869"><ele>667</ele></trkpt>
<trkpt lat="49.645755" lon="15.965103"><ele>661</ele></trkpt>
<trkpt lat="49.645748" lon="15.964597"><ele>661</ele></trkpt>
<trkpt lat="49.646981" lon="15.963798"><ele>668</ele></trkpt>
<trkpt lat="49.647133" lon="15.963712"><ele>668</ele></trkpt>
<trkpt lat="49.647641" lon="15.963362"><ele>671</ele></trkpt>
<trkpt lat="49.647762" lon="15.963181"><ele>672</ele></trkpt>
<trkpt lat="49.647878" lon="15.962931"><ele>673</ele></trkpt>
<trkpt lat="49.647942" lon="15.962766"><ele>674</ele></trkpt>
<trkpt lat="49.647990" lon="15.962622"><ele>675</ele></trkpt>
<trkpt lat="49.648046" lon="15.962365"><ele>676</ele></trkpt>
<trkpt lat="49.648080" lon="15.962146"><ele>678</ele></trkpt>
<trkpt lat="49.648063" lon="15.961927"><ele>679</ele></trkpt>
<trkpt lat="49.647950" lon="15.961510"><ele>680</ele></trkpt>
<trkpt lat="49.647831" lon="15.961152"><ele>682</ele></trkpt>
<trkpt lat="49.647750" lon="15.960832"><ele>683</ele></trkpt>
<trkpt lat="49.647701" lon="15.960655"><ele>684</ele></trkpt>
<trkpt lat="49.647590" lon="15.960335"><ele>686</ele></trkpt>
<trkpt lat="49.647500" lon="15.960110"><ele>686</ele></trkpt>
<trkpt lat="49.647337" lon="15.959889"><ele>686</ele></trkpt>
<trkpt lat="49.647287" lon="15.959803"><ele>686</ele></trkpt>
<trkpt lat="49.647268" lon="15.959676"><ele>686</ele></trkpt>
<trkpt lat="49.647287" lon="15.959578"><ele>687</ele></trkpt>
<trkpt lat="49.647356" lon="15.959510"><ele>687</ele></trkpt>
<trkpt lat="49.647707" lon="15.959078"><ele>690</ele></trkpt>
<trkpt lat="49.647725" lon="15.958800"><ele>691</ele></trkpt>
<trkpt lat="49.647582" lon="15.958652"><ele>690</ele></trkpt>
<trkpt lat="49.647425" lon="15.958422"><ele>690</ele></trkpt>
<trkpt lat="49.645919" lon="15.953988"><ele>692</ele></trkpt>
<trkpt lat="49.645608" lon="15.952976"><ele>692</ele></trkpt>
<trkpt lat="49.645516" lon="15.952425"><ele>692</ele></trkpt>
<trkpt lat="49.645496" lon="15.951800"><ele>693</ele></trkpt>
<trkpt lat="49.645456" lon="15.950979"><ele>693</ele></trkpt>
<trkpt lat="49.645436" lon="15.950570"><ele>692</ele></trkpt>
<trkpt lat="49.645498" lon="15.948854"><ele>692</ele></trkpt>
<trkpt lat="49.645581" lon="15.947115"><ele>689</ele></trkpt>
<trkpt lat="49.645569" lon="15.938204"><ele>672</ele></trkpt>
<trkpt lat="49.645549" lon="15.938109"><ele>672</ele></trkpt>
<trkpt lat="49.645318" lon="15.937503"><ele>673</ele></trkpt>
<trkpt lat="49.645215" lon="15.937203"><ele>674</ele></trkpt>
<trkpt lat="49.645186" lon="15.937085"><ele>676</ele></trkpt>
<trkpt lat="49.645066" lon="15.936872"><ele>677</ele></trkpt>
<trkpt lat="49.644895" lon="15.936723"><ele>678</ele></trkpt>
<trkpt lat="49.644593" lon="15.936519"><ele>677</ele></trkpt>
<trkpt lat="49.643966" lon="15.935538"><ele>675</ele></trkpt>
<trkpt lat="49.643349" lon="15.933765"><ele>674</ele></trkpt>
<trkpt lat="49.643165" lon="15.933476"><ele>673</ele></trkpt>
<trkpt lat="49.642874" lon="15.933051"><ele>672</ele></trkpt>
<trkpt lat="49.642547" lon="15.932763"><ele>669</ele></trkpt>
<trkpt lat="49.642335" lon="15.932419"><ele>669</ele></trkpt>
<trkpt lat="49.642141" lon="15.932319"><ele>669</ele></trkpt>
<trkpt lat="49.641776" lon="15.932293"><ele>667</ele></trkpt>
<trkpt lat="49.641764" lon="15.932290"><ele>666</ele></trkpt>
<trkpt lat="49.641546" lon="15.932235"><ele>666</ele></trkpt>
<trkpt lat="49.641182" lon="15.931971"><ele>665</ele></trkpt>
<trkpt lat="49.640917" lon="15.931833"><ele>666</ele></trkpt>
<trkpt lat="49.640623" lon="15.931729"><ele>666</ele></trkpt>
<trkpt lat="49.639969" lon="15.931320"><ele>666</ele></trkpt>
<trkpt lat="49.639752" lon="15.931297"><ele>666</ele></trkpt>
<trkpt lat="49.639404" lon="15.931485"><ele>662</ele></trkpt>
<trkpt lat="49.639202" lon="15.931488"><ele>662</ele></trkpt>
<trkpt lat="49.639039" lon="15.931476"><ele>662</ele></trkpt>
<trkpt lat="49.638864" lon="15.931440"><ele>662</ele></trkpt>
<trkpt lat="49.638812" lon="15.931429"><ele>662</ele></trkpt>
<trkpt lat="49.638651" lon="15.931275"><ele>663</ele></trkpt>
<trkpt lat="49.638488" lon="15.931057"><ele>664</ele></trkpt>
<trkpt lat="49.637804" lon="15.930300"><ele>663</ele></trkpt>
<trkpt lat="49.637406" lon="15.929805"><ele>661</ele></trkpt>
<trkpt lat="49.637249" lon="15.929506"><ele>658</ele></trkpt>
<trkpt lat="49.637126" lon="15.929230"><ele>658</ele></trkpt>
<trkpt lat="49.637018" lon="15.929017"><ele>657</ele></trkpt>
<trkpt lat="49.636832" lon="15.928747"><ele>655</ele></trkpt>
<trkpt lat="49.636754" lon="15.928540"><ele>655</ele></trkpt>
<trkpt lat="49.636629" lon="15.928315"><ele>654</ele></trkpt>
<trkpt lat="49.636487" lon="15.927842"><ele>652</ele></trkpt>
<trkpt lat="49.636300" lon="15.927478"><ele>650</ele></trkpt>
<trkpt lat="49.636129" lon="15.927693"><ele>649</ele></trkpt>
<trkpt lat="49.635681" lon="15.928340"><ele>648</ele></trkpt>
<trkpt lat="49.635590" lon="15.928416"><ele>648</ele></trkpt>
<trkpt lat="49.635234" lon="15.928525"><ele>648</ele></trkpt>
<trkpt lat="49.634792" lon="15.928575"><ele>648</ele></trkpt>
<trkpt lat="49.634149" lon="15.928814"><ele>647</ele></trkpt>
<trkpt lat="49.634221" lon="15.929471"><ele>650</ele></trkpt>
<trkpt lat="49.634241" lon="15.929936"><ele>652</ele></trkpt>
<trkpt lat="49.634250" lon="15.930135"><ele>652</ele></trkpt>
<trkpt lat="49.634262" lon="15.930263"><ele>652</ele></trkpt>
<trkpt lat="49.634250" lon="15.930135"><ele>652</ele></trkpt>
<trkpt lat="49.634241" lon="15.929936"><ele>652</ele></trkpt>
<trkpt lat="49.634221" lon="15.929471"><ele>650</ele></trkpt>
<trkpt lat="49.634149" lon="15.928814"><ele>647</ele></trkpt>
<trkpt lat="49.634792" lon="15.928575"><ele>648</ele></trkpt>
<trkpt lat="49.634597" lon="15.927131"><ele>648</ele></trkpt>
<trkpt lat="49.634646" lon="15.927014"><ele>648</ele></trkpt>
<trkpt lat="49.634798" lon="15.926856"><ele>649</ele></trkpt>
<trkpt lat="49.634577" lon="15.925956"><ele>653</ele></trkpt>
<trkpt lat="49.634490" lon="15.925966"><ele>652</ele></trkpt>
<trkpt lat="49.634346" lon="15.925510"><ele>653</ele></trkpt>
<trkpt lat="49.634205" lon="15.925243"><ele>654</ele></trkpt>
<trkpt lat="49.633890" lon="15.924794"><ele>655</ele></trkpt>
<trkpt lat="49.633623" lon="15.924283"><ele>655</ele></trkpt>
<trkpt lat="49.633410" lon="15.923822"><ele>655</ele></trkpt>
<trkpt lat="49.633316" lon="15.923518"><ele>654</ele></trkpt>
<trkpt lat="49.633213" lon="15.923118"><ele>653</ele></trkpt>
<trkpt lat="49.633151" lon="15.922741"><ele>652</ele></trkpt>
<trkpt lat="49.633085" lon="15.922020"><ele>650</ele></trkpt>
<trkpt lat="49.633081" lon="15.921804"><ele>649</ele></trkpt>
<trkpt lat="49.633084" lon="15.921615"><ele>648</ele></trkpt>
<trkpt lat="49.633073" lon="15.921069"><ele>646</ele></trkpt>
<trkpt lat="49.633060" lon="15.920865"><ele>644</ele></trkpt>
<trkpt lat="49.632950" lon="15.920303"><ele>641</ele></trkpt>
<trkpt lat="49.632845" lon="15.919955"><ele>639</ele></trkpt>
<trkpt lat="49.632712" lon="15.919352"><ele>636</ele></trkpt>
<trkpt lat="49.632623" lon="15.918878"><ele>634</ele></trkpt>
<trkpt lat="49.632580" lon="15.918363"><ele>632</ele></trkpt>
<trkpt lat="49.632594" lon="15.917807"><ele>631</ele></trkpt>
<trkpt lat="49.632598" lon="15.917316"><ele>629</ele></trkpt>
<trkpt lat="49.632656" lon="15.916725"><ele>628</ele></trkpt>
<trkpt lat="49.632739" lon="15.915736"><ele>626</ele></trkpt>
<trkpt lat="49.632737" lon="15.915473"><ele>626</ele></trkpt>
<trkpt lat="49.632628" lon="15.914795"><ele>624</ele></trkpt>
<trkpt lat="49.632475" lon="15.914108"><ele>624</ele></trkpt>
<trkpt lat="49.632432" lon="15.913823"><ele>623</ele></trkpt>
<trkpt lat="49.632398" lon="15.913510"><ele>622</ele></trkpt>
<trkpt lat="49.632367" lon="15.912998"><ele>621</ele></trkpt>
<trkpt lat="49.632344" lon="15.912721"><ele>621</ele></trkpt>
<trkpt lat="49.632125" lon="15.912071"><ele>619</ele></trkpt>
<trkpt lat="49.631964" lon="15.911632"><ele>619</ele></trkpt>
<trkpt lat="49.631872" lon="15.911239"><ele>618</ele></trkpt>
<trkpt lat="49.631700" lon="15.909636"><ele>619</ele></trkpt>
<trkpt lat="49.631689" lon="15.909529"><ele>619</ele></trkpt>
<trkpt lat="49.631733" lon="15.909117"><ele>618</ele></trkpt>
<trkpt lat="49.631842" lon="15.908227"><ele>617</ele></trkpt>
<trkpt lat="49.631948" lon="15.907668"><ele>616</ele></trkpt>
<trkpt lat="49.631969" lon="15.907463"><ele>616</ele></trkpt>
<trkpt lat="49.632013" lon="15.907047"><ele>616</ele></trkpt>
<trkpt lat="49.632076" lon="15.906226"><ele>615</ele></trkpt>
<trkpt lat="49.632090" lon="15.905383"><ele>614</ele></trkpt>
<trkpt lat="49.632031" lon="15.904304"><ele>616</ele></trkpt>
<trkpt lat="49.631990" lon="15.903540"><ele>617</ele></trkpt>
<trkpt lat="49.631897" lon="15.901852"><ele>616</ele></trkpt>
<trkpt lat="49.631846" lon="15.901677"><ele>616</ele></trkpt>
<trkpt lat="49.631812" lon="15.901623"><ele>616</ele></trkpt>
<trkpt lat="49.631769" lon="15.901556"><ele>616</ele></trkpt>
<trkpt lat="49.631744" lon="15.901405"><ele>618</ele></trkpt>
<trkpt lat="49.631647" lon="15.900791"><ele>618</ele></trkpt>
<trkpt lat="49.631450" lon="15.898904"><ele>618</ele></trkpt>
<trkpt lat="49.631302" lon="15.898240"><ele>617</ele></trkpt>
<trkpt lat="49.631174" lon="15.897737"><ele>617</ele></trkpt>
<trkpt lat="49.631029" lon="15.896379"><ele>619</ele></trkpt>
<trkpt lat="49.630972" lon="15.895211"><ele>620</ele></trkpt>
<trkpt lat="49.630911" lon="15.894147"><ele>622</ele></trkpt>
<trkpt lat="49.631005" lon="15.893538"><ele>621</ele></trkpt>
<trkpt lat="49.631136" lon="15.892929"><ele>622</ele></trkpt>
<trkpt lat="49.631141" lon="15.890229"><ele>621</ele></trkpt>
<trkpt lat="49.631361" lon="15.889942"><ele>620</ele></trkpt>
<trkpt lat="49.631714" lon="15.889037"><ele>618</ele></trkpt>
<trkpt lat="49.631798" lon="15.888819"><ele>617</ele></trkpt>
<trkpt lat="49.631743" lon="15.888772"><ele>618</ele></trkpt>
<trkpt lat="49.631798" lon="15.888819"><ele>617</ele></trkpt>
<trkpt lat="49.631714" lon="15.889037"><ele>618</ele></trkpt>
<trkpt lat="49.631361" lon="15.889942"><ele>620</ele></trkpt>
<trkpt lat="49.631141" lon="15.890229"><ele>621</ele></trkpt>
<trkpt lat="49.631136" lon="15.892929"><ele>622</ele></trkpt>
<trkpt lat="49.631005" lon="15.893538"><ele>621</ele></trkpt>
<trkpt lat="49.630911" lon="15.894147"><ele>622</ele></trkpt>
<trkpt lat="49.630972" lon="15.895211"><ele>620</ele></trkpt>
<trkpt lat="49.631029" lon="15.896379"><ele>619</ele></trkpt>
<trkpt lat="49.631174" lon="15.897737"><ele>617</ele></trkpt>
<trkpt lat="49.631302" lon="15.898240"><ele>617</ele></trkpt>
<trkpt lat="49.631450" lon="15.898904"><ele>618</ele></trkpt>
<trkpt lat="49.631647" lon="15.900791"><ele>618</ele></trkpt>
<trkpt lat="49.631744" lon="15.901405"><ele>616</ele></trkpt>
<trkpt lat="49.631769" lon="15.901556"><ele>616</ele></trkpt>
<trkpt lat="49.631812" lon="15.901623"><ele>616</ele></trkpt>
<trkpt lat="49.631846" lon="15.901677"><ele>616</ele></trkpt>
<trkpt lat="49.631897" lon="15.901852"><ele>616</ele></trkpt>
<trkpt lat="49.631990" lon="15.903540"><ele>617</ele></trkpt>
<trkpt lat="49.632031" lon="15.904304"><ele>616</ele></trkpt>
<trkpt lat="49.632090" lon="15.905383"><ele>614</ele></trkpt>
<trkpt lat="49.632076" lon="15.906226"><ele>615</ele></trkpt>
<trkpt lat="49.632013" lon="15.907047"><ele>616</ele></trkpt>
<trkpt lat="49.631969" lon="15.907463"><ele>616</ele></trkpt>
<trkpt lat="49.631948" lon="15.907668"><ele>616</ele></trkpt>
<trkpt lat="49.631842" lon="15.908227"><ele>617</ele></trkpt>
<trkpt lat="49.631733" lon="15.909117"><ele>618</ele></trkpt>
<trkpt lat="49.631689" lon="15.909529"><ele>619</ele></trkpt>
<trkpt lat="49.631700" lon="15.909636"><ele>618</ele></trkpt>
<trkpt lat="49.631872" lon="15.911239"><ele>618</ele></trkpt>
<trkpt lat="49.631964" lon="15.911632"><ele>619</ele></trkpt>
<trkpt lat="49.632125" lon="15.912071"><ele>619</ele></trkpt>
<trkpt lat="49.632344" lon="15.912721"><ele>621</ele></trkpt>
<trkpt lat="49.632367" lon="15.912998"><ele>621</ele></trkpt>
<trkpt lat="49.632398" lon="15.913510"><ele>622</ele></trkpt>
<trkpt lat="49.632432" lon="15.913823"><ele>623</ele></trkpt>
<trkpt lat="49.632475" lon="15.914108"><ele>624</ele></trkpt>
<trkpt lat="49.632628" lon="15.914795"><ele>624</ele></trkpt>
<trkpt lat="49.632737" lon="15.915473"><ele>626</ele></trkpt>
<trkpt lat="49.632739" lon="15.915736"><ele>626</ele></trkpt>
<trkpt lat="49.632656" lon="15.916725"><ele>628</ele></trkpt>
<trkpt lat="49.632598" lon="15.917316"><ele>629</ele></trkpt>
<trkpt lat="49.632594" lon="15.917807"><ele>631</ele></trkpt>
<trkpt lat="49.632580" lon="15.918363"><ele>632</ele></trkpt>
<trkpt lat="49.632623" lon="15.918878"><ele>634</ele></trkpt>
<trkpt lat="49.632712" lon="15.919352"><ele>636</ele></trkpt>
<trkpt lat="49.632845" lon="15.919955"><ele>639</ele></trkpt>
<trkpt lat="49.632950" lon="15.920303"><ele>641</ele></trkpt>
<trkpt lat="49.633060" lon="15.920865"><ele>644</ele></trkpt>
<trkpt lat="49.633073" lon="15.921069"><ele>646</ele></trkpt>
<trkpt lat="49.633084" lon="15.921615"><ele>648</ele></trkpt>
<trkpt lat="49.633081" lon="15.921804"><ele>649</ele></trkpt>
<trkpt lat="49.633085" lon="15.922020"><ele>650</ele></trkpt>
<trkpt lat="49.633151" lon="15.922741"><ele>652</ele></trkpt>
<trkpt lat="49.633213" lon="15.923118"><ele>653</ele></trkpt>
<trkpt lat="49.633316" lon="15.923518"><ele>654</ele></trkpt>
<trkpt lat="49.633410" lon="15.923822"><ele>655</ele></trkpt>
<trkpt lat="49.633623" lon="15.924283"><ele>655</ele></trkpt>
<trkpt lat="49.633890" lon="15.924794"><ele>655</ele></trkpt>
<trkpt lat="49.634205" lon="15.925243"><ele>654</ele></trkpt>
<trkpt lat="49.634346" lon="15.925510"><ele>653</ele></trkpt>
<trkpt lat="49.634490" lon="15.925966"><ele>652</ele></trkpt>
<trkpt lat="49.634577" lon="15.925956"><ele>653</ele></trkpt>
<trkpt lat="49.634700" lon="15.925929"><ele>654</ele></trkpt>
<trkpt lat="49.635033" lon="15.925859"><ele>654</ele></trkpt>
<trkpt lat="49.635445" lon="15.925793"><ele>656</ele></trkpt>
<trkpt lat="49.635822" lon="15.925707"><ele>656</ele></trkpt>
<trkpt lat="49.636694" lon="15.925510"><ele>657</ele></trkpt>
<trkpt lat="49.636628" lon="15.926224"><ele>654</ele></trkpt>
<trkpt lat="49.636626" lon="15.926567"><ele>653</ele></trkpt>
<trkpt lat="49.636511" lon="15.927004"><ele>652</ele></trkpt>
<trkpt lat="49.636300" lon="15.927478"><ele>650</ele></trkpt>
<trkpt lat="49.636487" lon="15.927842"><ele>652</ele></trkpt>
<trkpt lat="49.636629" lon="15.928315"><ele>654</ele></trkpt>
<trkpt lat="49.636754" lon="15.928540"><ele>655</ele></trkpt>
<trkpt lat="49.636832" lon="15.928747"><ele>655</ele></trkpt>
<trkpt lat="49.637018" lon="15.929017"><ele>657</ele></trkpt>
<trkpt lat="49.637126" lon="15.929230"><ele>658</ele></trkpt>
<trkpt lat="49.637249" lon="15.929506"><ele>658</ele></trkpt>
<trkpt lat="49.637406" lon="15.929805"><ele>661</ele></trkpt>
<trkpt lat="49.637804" lon="15.930300"><ele>663</ele></trkpt>
<trkpt lat="49.638488" lon="15.931057"><ele>664</ele></trkpt>
<trkpt lat="49.638651" lon="15.931275"><ele>663</ele></trkpt>
<trkpt lat="49.638812" lon="15.931429"><ele>662</ele></trkpt>
<trkpt lat="49.638864" lon="15.931440"><ele>662</ele></trkpt>
<trkpt lat="49.639039" lon="15.931476"><ele>662</ele></trkpt>
<trkpt lat="49.639202" lon="15.931488"><ele>662</ele></trkpt>
<trkpt lat="49.639404" lon="15.931485"><ele>662</ele></trkpt>
<trkpt lat="49.639752" lon="15.931297"><ele>666</ele></trkpt>
<trkpt lat="49.639969" lon="15.931320"><ele>666</ele></trkpt>
<trkpt lat="49.640623" lon="15.931729"><ele>666</ele></trkpt>
<trkpt lat="49.640917" lon="15.931833"><ele>666</ele></trkpt>
<trkpt lat="49.641182" lon="15.931971"><ele>665</ele></trkpt>
<trkpt lat="49.641546" lon="15.932235"><ele>666</ele></trkpt>
<trkpt lat="49.641776" lon="15.932293"><ele>667</ele></trkpt>
<trkpt lat="49.642141" lon="15.932319"><ele>669</ele></trkpt>
<trkpt lat="49.642335" lon="15.932419"><ele>669</ele></trkpt>
<trkpt lat="49.642547" lon="15.932763"><ele>669</ele></trkpt>
<trkpt lat="49.642874" lon="15.933051"><ele>672</ele></trkpt>
<trkpt lat="49.643165" lon="15.933476"><ele>673</ele></trkpt>
<trkpt lat="49.643349" lon="15.933765"><ele>674</ele></trkpt>
<trkpt lat="49.643966" lon="15.935538"><ele>675</ele></trkpt>
<trkpt lat="49.644593" lon="15.936519"><ele>677</ele></trkpt>
<trkpt lat="49.644895" lon="15.936723"><ele>678</ele></trkpt>
<trkpt lat="49.645066" lon="15.936872"><ele>677</ele></trkpt>
<trkpt lat="49.645186" lon="15.937085"><ele>676</ele></trkpt>
<trkpt lat="49.645606" lon="15.937211"><ele>678</ele></trkpt>
<trkpt lat="49.646036" lon="15.937273"><ele>681</ele></trkpt>
<trkpt lat="49.646509" lon="15.936957"><ele>686</ele></trkpt>
<trkpt lat="49.646882" lon="15.936916"><ele>688</ele></trkpt>
<trkpt lat="49.647181" lon="15.937019"><ele>688</ele></trkpt>
<trkpt lat="49.647480" lon="15.936988"><ele>690</ele></trkpt>
<trkpt lat="49.647933" lon="15.936814"><ele>693</ele></trkpt>
<trkpt lat="49.649287" lon="15.937575"><ele>696</ele></trkpt>
<trkpt lat="49.649632" lon="15.936335"><ele>698</ele></trkpt>
<trkpt lat="49.649635" lon="15.936353"><ele>700</ele></trkpt>
<trkpt lat="49.649632" lon="15.936335"><ele>698</ele></trkpt>
<trkpt lat="49.649287" lon="15.937575"><ele>696</ele></trkpt>
<trkpt lat="49.649908" lon="15.937914"><ele>700</ele></trkpt>
<trkpt lat="49.650261" lon="15.940021"><ele>708</ele></trkpt>
<trkpt lat="49.650507" lon="15.942289"><ele>722</ele></trkpt>
<trkpt lat="49.650932" lon="15.944395"><ele>742</ele></trkpt>
<trkpt lat="49.651200" lon="15.945967"><ele>759</ele></trkpt>
<trkpt lat="49.651268" lon="15.946881"><ele>768</ele></trkpt>
<trkpt lat="49.651345" lon="15.947405"><ele>774</ele></trkpt>
<trkpt lat="49.651512" lon="15.948254"><ele>782</ele></trkpt>
<trkpt lat="49.651596" lon="15.948602"><ele>785</ele></trkpt>
<trkpt lat="49.651671" lon="15.948773"><ele>786</ele></trkpt>
<trkpt lat="49.651738" lon="15.948916"><ele>787</ele></trkpt>
<trkpt lat="49.651837" lon="15.949044"><ele>787</ele></trkpt>
<trkpt lat="49.651939" lon="15.949152"><ele>787</ele></trkpt>
<trkpt lat="49.651974" lon="15.949285"><ele>788</ele></trkpt>
<trkpt lat="49.651970" lon="15.949438"><ele>788</ele></trkpt>
<trkpt lat="49.651928" lon="15.949657"><ele>789</ele></trkpt>
<trkpt lat="49.651978" lon="15.949886"><ele>788</ele></trkpt>
<trkpt lat="49.652089" lon="15.949998"><ele>787</ele></trkpt>
<trkpt lat="49.652253" lon="15.950299"><ele>783</ele></trkpt>
<trkpt lat="49.652287" lon="15.950546"><ele>781</ele></trkpt>
<trkpt lat="49.652409" lon="15.950806"><ele>778</ele></trkpt>
<trkpt lat="49.652877" lon="15.951593"><ele>768</ele></trkpt>
<trkpt lat="49.653349" lon="15.952553"><ele>752</ele></trkpt>
<trkpt lat="49.653620" lon="15.952833"><ele>748</ele></trkpt>
<trkpt lat="49.653796" lon="15.953329"><ele>742</ele></trkpt>
<trkpt lat="49.653942" lon="15.954067"><ele>738</ele></trkpt>
<trkpt lat="49.654022" lon="15.954253"><ele>737</ele></trkpt>
<trkpt lat="49.654294" lon="15.954447"><ele>734</ele></trkpt>
<trkpt lat="49.654711" lon="15.955068"><ele>729</ele></trkpt>
<trkpt lat="49.655239" lon="15.955938"><ele>722</ele></trkpt>
<trkpt lat="49.655023" lon="15.956460"><ele>720</ele></trkpt>
<trkpt lat="49.654749" lon="15.957010"><ele>718</ele></trkpt>
<trkpt lat="49.654499" lon="15.957513"><ele>717</ele></trkpt>
<trkpt lat="49.654005" lon="15.958331"><ele>714</ele></trkpt>
<trkpt lat="49.653817" lon="15.958710"><ele>712</ele></trkpt>
<trkpt lat="49.653744" lon="15.958939"><ele>712</ele></trkpt>
<trkpt lat="49.653617" lon="15.959340"><ele>710</ele></trkpt>
<trkpt lat="49.653441" lon="15.960358"><ele>708</ele></trkpt>
<trkpt lat="49.653274" lon="15.961769"><ele>704</ele></trkpt>
<trkpt lat="49.653280" lon="15.962186"><ele>704</ele></trkpt>
<trkpt lat="49.653121" lon="15.964019"><ele>702</ele></trkpt>
<trkpt lat="49.652871" lon="15.967052"><ele>706</ele></trkpt>
<trkpt lat="49.652846" lon="15.967664"><ele>704</ele></trkpt>
<trkpt lat="49.652504" lon="15.967713"><ele>705</ele></trkpt>
<trkpt lat="49.649557" lon="15.968814"><ele>700</ele></trkpt>
<trkpt lat="49.647923" lon="15.969163"><ele>686</ele></trkpt>
<trkpt lat="49.647465" lon="15.969031"><ele>682</ele></trkpt>
<trkpt lat="49.646446" lon="15.968590"><ele>673</ele></trkpt>
<trkpt lat="49.646193" lon="15.968458"><ele>671</ele></trkpt>
<trkpt lat="49.645609" lon="15.967880"><ele>670</ele></trkpt>
<trkpt lat="49.645302" lon="15.967593"><ele>669</ele></trkpt>
<trkpt lat="49.645041" lon="15.967409"><ele>667</ele></trkpt>
<trkpt lat="49.645077" lon="15.967326"><ele>667</ele></trkpt>
<trkpt lat="49.645041" lon="15.967409"><ele>667</ele></trkpt>
<trkpt lat="49.644443" lon="15.966914"><ele>662</ele></trkpt>
<trkpt lat="49.644313" lon="15.966793"><ele>660</ele></trkpt>
<trkpt lat="49.644152" lon="15.967435"><ele>660</ele></trkpt>
<trkpt lat="49.643916" lon="15.968121"><ele>658</ele></trkpt>
</trkseg></trk>
</gpx>
