<?xml version="1.0" encoding="UTF-8"?>
<gpx version="1.1" creator="Vysočina 2026 – Mlýn Vikinek" xmlns="http://www.topografix.com/GPX/1/1">
<metadata><name>Velká hřebenovka po skalách: Drátník – Malinská – Devět skal</name><desc>Nejhezčí skalní okruh Žďárských vrchů pro zdatné chodce, start i cíl v Blatinách.</desc></metadata>
<wpt lat="49.654750" lon="16.084040"><name>Drátník (Drátenická skála, 776 m)</name><desc>200 m dlouhá skalní hradba s věží Sokol (35 m), kde trénují horolezci.</desc></wpt>
<wpt lat="49.661030" lon="16.071390"><name>Malinská skála (813 m)</name><desc>Kruh až 20 m vysokých skal, jeden z nejhezčích výhledů a malá puklinová jeskyňka.</desc></wpt>
<wpt lat="49.661800" lon="16.038170"><name>Lisovská skála (802 m)</name><desc>Zalesněný skalní vrchol na hřebenovce kousek od Devíti skal.</desc></wpt>
<wpt lat="49.670730" lon="16.032240"><name>Devět skal (836 m)</name><desc>Nejvyšší vrchol Žďárských vrchů: skalní labyrint a vyhlídka se zábradlím.</desc></wpt>
<wpt lat="49.650390" lon="16.079900"><name>U Kolouška (Blatiny)</name><desc>Restaurace pod Drátníkem, na konci hřebenovky po skalách.</desc></wpt>
<trk><name>Velká hřebenovka po skalách: Drátník – Malinská – Devět skal</name><trkseg>
<trkpt lat="49.651047" lon="16.082531"><ele>731</ele></trkpt>
<trkpt lat="49.651073" lon="16.082492"><ele>731</ele></trkpt>
<trkpt lat="49.651204" lon="16.082687"><ele>731</ele></trkpt>
<trkpt lat="49.651506" lon="16.083181"><ele>731</ele></trkpt>
<trkpt lat="49.651844" lon="16.083633"><ele>733</ele></trkpt>
<trkpt lat="49.652060" lon="16.083870"><ele>732</ele></trkpt>
<trkpt lat="49.652295" lon="16.084182"><ele>730</ele></trkpt>
<trkpt lat="49.652339" lon="16.084223"><ele>730</ele></trkpt>
<trkpt lat="49.652383" lon="16.084240"><ele>730</ele></trkpt>
<trkpt lat="49.652454" lon="16.084247"><ele>730</ele></trkpt>
<trkpt lat="49.652620" lon="16.084189"><ele>730</ele></trkpt>
<trkpt lat="49.652970" lon="16.084139"><ele>734</ele></trkpt>
<trkpt lat="49.653426" lon="16.084169"><ele>739</ele></trkpt>
<trkpt lat="49.653523" lon="16.084155"><ele>740</ele></trkpt>
<trkpt lat="49.653633" lon="16.084179"><ele>742</ele></trkpt>
<trkpt lat="49.653789" lon="16.084030"><ele>742</ele></trkpt>
<trkpt lat="49.653900" lon="16.084009"><ele>742</ele></trkpt>
<trkpt lat="49.653974" lon="16.084045"><ele>743</ele></trkpt>
<trkpt lat="49.654059" lon="16.084102"><ele>744</ele></trkpt>
<trkpt lat="49.654114" lon="16.084046"><ele>745</ele></trkpt>
<trkpt lat="49.654146" lon="16.084105"><ele>746</ele></trkpt>
<trkpt lat="49.654228" lon="16.084199"><ele>746</ele></trkpt>
<trkpt lat="49.654266" lon="16.084190"><ele>747</ele></trkpt>
<trkpt lat="49.654295" lon="16.084160"><ele>748</ele></trkpt>
<trkpt lat="49.654318" lon="16.084102"><ele>747</ele></trkpt>
<trkpt lat="49.654364" lon="16.084051"><ele>746</ele></trkpt>
<trkpt lat="49.654406" lon="16.084088"><ele>747</ele></trkpt>
<trkpt lat="49.654421" lon="16.084145"><ele>749</ele></trkpt>
<trkpt lat="49.654511" lon="16.084102"><ele>752</ele></trkpt>
<trkpt lat="49.654537" lon="16.084068"><ele>752</ele></trkpt>
<trkpt lat="49.654535" lon="16.084041"><ele>750</ele></trkpt>
<trkpt lat="49.654499" lon="16.084003"><ele>747</ele></trkpt>
<trkpt lat="49.654466" lon="16.083952"><ele>744</ele></trkpt>
<trkpt lat="49.654462" lon="16.083826"><ele>742</ele></trkpt>
<trkpt lat="49.654399" lon="16.083776"><ele>742</ele></trkpt>
<trkpt lat="49.654505" lon="16.083686"><ele>740</ele></trkpt>
<trkpt lat="49.654633" lon="16.083424"><ele>738</ele></trkpt>
<trkpt lat="49.654711" lon="16.082758"><ele>730</ele></trkpt>
<trkpt lat="49.654720" lon="16.082256"><ele>723</ele></trkpt>
<trkpt lat="49.654743" lon="16.081796"><ele>718</ele></trkpt>
<trkpt lat="49.654802" lon="16.081307"><ele>712</ele></trkpt>
<trkpt lat="49.654789" lon="16.080854"><ele>708</ele></trkpt>
<trkpt lat="49.654919" lon="16.080075"><ele>702</ele></trkpt>
<trkpt lat="49.655051" lon="16.079876"><ele>700</ele></trkpt>
<trkpt lat="49.656153" lon="16.078242"><ele>689</ele></trkpt>
<trkpt lat="49.657130" lon="16.076792"><ele>690</ele></trkpt>
<trkpt lat="49.657197" lon="16.077202"><ele>689</ele></trkpt>
<trkpt lat="49.657313" lon="16.077489"><ele>688</ele></trkpt>
<trkpt lat="49.657197" lon="16.077202"><ele>689</ele></trkpt>
<trkpt lat="49.657130" lon="16.076792"><ele>690</ele></trkpt>
<trkpt lat="49.657091" lon="16.076443"><ele>692</ele></trkpt>
<trkpt lat="49.657153" lon="16.075757"><ele>695</ele></trkpt>
<trkpt lat="49.657488" lon="16.074397"><ele>701</ele></trkpt>
<trkpt lat="49.657675" lon="16.073566"><ele>706</ele></trkpt>
<trkpt lat="49.657683" lon="16.073229"><ele>708</ele></trkpt>
<trkpt lat="49.657625" lon="16.072344"><ele>712</ele></trkpt>
<trkpt lat="49.657621" lon="16.071772"><ele>715</ele></trkpt>
<trkpt lat="49.657633" lon="16.071140"><ele>718</ele></trkpt>
<trkpt lat="49.657707" lon="16.070352"><ele>722</ele></trkpt>
<trkpt lat="49.657923" lon="16.068959"><ele>730</ele></trkpt>
<trkpt lat="49.658050" lon="16.068933"><ele>731</ele></trkpt>
<trkpt lat="49.658339" lon="16.068898"><ele>735</ele></trkpt>
<trkpt lat="49.658541" lon="16.068944"><ele>738</ele></trkpt>
<trkpt lat="49.658829" lon="16.068996"><ele>743</ele></trkpt>
<trkpt lat="49.659673" lon="16.068945"><ele>757</ele></trkpt>
<trkpt lat="49.660087" lon="16.068738"><ele>764</ele></trkpt>
<trkpt lat="49.660290" lon="16.069122"><ele>768</ele></trkpt>
<trkpt lat="49.660428" lon="16.069268"><ele>770</ele></trkpt>
<trkpt lat="49.660621" lon="16.069326"><ele>774</ele></trkpt>
<trkpt lat="49.660782" lon="16.069227"><ele>776</ele></trkpt>
<trkpt lat="49.661010" lon="16.069120"><ele>779</ele></trkpt>
<trkpt lat="49.661456" lon="16.068833"><ele>783</ele></trkpt>
<trkpt lat="49.661401" lon="16.069248"><ele>783</ele></trkpt>
<trkpt lat="49.661337" lon="16.070315"><ele>785</ele></trkpt>
<trkpt lat="49.661438" lon="16.070823"><ele>784</ele></trkpt>
<trkpt lat="49.661472" lon="16.071148"><ele>788</ele></trkpt>
<trkpt lat="49.661345" lon="16.071668"><ele>792</ele></trkpt>
<trkpt lat="49.661472" lon="16.071148"><ele>788</ele></trkpt>
<trkpt lat="49.661438" lon="16.070823"><ele>784</ele></trkpt>
<trkpt lat="49.661337" lon="16.070315"><ele>785</ele></trkpt>
<trkpt lat="49.661401" lon="16.069248"><ele>783</ele></trkpt>
<trkpt lat="49.661456" lon="16.068833"><ele>783</ele></trkpt>
<trkpt lat="49.661930" lon="16.061913"><ele>815</ele></trkpt>
<trkpt lat="49.661941" lon="16.061820"><ele>815</ele></trkpt>
<trkpt lat="49.661997" lon="16.061663"><ele>815</ele></trkpt>
<trkpt lat="49.662090" lon="16.061490"><ele>814</ele></trkpt>
<trkpt lat="49.662113" lon="16.061379"><ele>814</ele></trkpt>
<trkpt lat="49.662158" lon="16.060963"><ele>813</ele></trkpt>
<trkpt lat="49.662022" lon="16.060695"><ele>812</ele></trkpt>
<trkpt lat="49.661823" lon="16.060263"><ele>809</ele></trkpt>
<trkpt lat="49.661666" lon="16.060009"><ele>806</ele></trkpt>
<trkpt lat="49.661499" lon="16.059543"><ele>806</ele></trkpt>
<trkpt lat="49.661355" lon="16.059500"><ele>805</ele></trkpt>
<trkpt lat="49.661205" lon="16.059429"><ele>805</ele></trkpt>
<trkpt lat="49.661124" lon="16.059321"><ele>804</ele></trkpt>
<trkpt lat="49.660997" lon="16.059153"><ele>803</ele></trkpt>
<trkpt lat="49.659470" lon="16.056450"><ele>811</ele></trkpt>
<trkpt lat="49.658825" lon="16.055289"><ele>813</ele></trkpt>
<trkpt lat="49.658573" lon="16.054830"><ele>814</ele></trkpt>
<trkpt lat="49.658512" lon="16.054683"><ele>815</ele></trkpt>
<trkpt lat="49.658466" lon="16.054467"><ele>815</ele></trkpt>
<trkpt lat="49.658439" lon="16.054230"><ele>815</ele></trkpt>
<trkpt lat="49.658394" lon="16.053365"><ele>816</ele></trkpt>
<trkpt lat="49.658320" lon="16.052511"><ele>815</ele></trkpt>
<trkpt lat="49.658298" lon="16.051953"><ele>816</ele></trkpt>
<trkpt lat="49.658318" lon="16.051348"><ele>816</ele></trkpt>
<trkpt lat="49.658377" lon="16.050901"><ele>817</ele></trkpt>
<trkpt lat="49.658507" lon="16.049019"><ele>816</ele></trkpt>
<trkpt lat="49.658536" lon="16.048733"><ele>816</ele></trkpt>
<trkpt lat="49.658559" lon="16.048556"><ele>815</ele></trkpt>
<trkpt lat="49.658649" lon="16.048068"><ele>814</ele></trkpt>
<trkpt lat="49.658754" lon="16.047555"><ele>812</ele></trkpt>
<trkpt lat="49.658901" lon="16.046749"><ele>811</ele></trkpt>
<trkpt lat="49.659020" lon="16.045925"><ele>807</ele></trkpt>
<trkpt lat="49.659070" lon="16.045640"><ele>806</ele></trkpt>
<trkpt lat="49.659162" lon="16.045409"><ele>805</ele></trkpt>
<trkpt lat="49.659182" lon="16.045261"><ele>805</ele></trkpt>
<trkpt lat="49.659351" lon="16.044695"><ele>804</ele></trkpt>
<trkpt lat="49.659449" lon="16.044033"><ele>806</ele></trkpt>
<trkpt lat="49.659552" lon="16.043459"><ele>805</ele></trkpt>
<trkpt lat="49.659790" lon="16.042445"><ele>800</ele></trkpt>
<trkpt lat="49.660069" lon="16.041743"><ele>794</ele></trkpt>
<trkpt lat="49.660285" lon="16.041488"><ele>791</ele></trkpt>
<trkpt lat="49.660449" lon="16.041227"><ele>789</ele></trkpt>
<trkpt lat="49.660546" lon="16.041112"><ele>788</ele></trkpt>
<trkpt lat="49.660617" lon="16.040955"><ele>787</ele></trkpt>
<trkpt lat="49.660849" lon="16.040839"><ele>785</ele></trkpt>
<trkpt lat="49.660925" lon="16.040744"><ele>784</ele></trkpt>
<trkpt lat="49.661060" lon="16.040352"><ele>784</ele></trkpt>
<trkpt lat="49.661421" lon="16.039655"><ele>785</ele></trkpt>
<trkpt lat="49.661841" lon="16.038658"><ele>787</ele></trkpt>
<trkpt lat="49.662100" lon="16.038126"><ele>785</ele></trkpt>
<trkpt lat="49.662614" lon="16.037167"><ele>774</ele></trkpt>
<trkpt lat="49.662755" lon="16.036416"><ele>765</ele></trkpt>
<trkpt lat="49.662965" lon="16.036073"><ele>760</ele></trkpt>
<trkpt lat="49.663043" lon="16.035850"><ele>757</ele></trkpt>
<trkpt lat="49.663181" lon="16.035342"><ele>753</ele></trkpt>
<trkpt lat="49.663306" lon="16.034972"><ele>751</ele></trkpt>
<trkpt lat="49.663458" lon="16.034621"><ele>749</ele></trkpt>
<trkpt lat="49.663537" lon="16.034405"><ele>748</ele></trkpt>
<trkpt lat="49.663581" lon="16.034189"><ele>747</ele></trkpt>
<trkpt lat="49.663537" lon="16.034405"><ele>748</ele></trkpt>
<trkpt lat="49.663458" lon="16.034621"><ele>749</ele></trkpt>
<trkpt lat="49.663306" lon="16.034972"><ele>751</ele></trkpt>
<trkpt lat="49.663181" lon="16.035342"><ele>753</ele></trkpt>
<trkpt lat="49.663043" lon="16.035850"><ele>757</ele></trkpt>
<trkpt lat="49.662965" lon="16.036073"><ele>760</ele></trkpt>
<trkpt lat="49.662755" lon="16.036416"><ele>765</ele></trkpt>
<trkpt lat="49.662614" lon="16.037167"><ele>774</ele></trkpt>
<trkpt lat="49.662100" lon="16.038126"><ele>785</ele></trkpt>
<trkpt lat="49.661978" lon="16.038375"><ele>787</ele></trkpt>
<trkpt lat="49.662100" lon="16.038126"><ele>785</ele></trkpt>
<trkpt lat="49.662614" lon="16.037167"><ele>774</ele></trkpt>
<trkpt lat="49.662755" lon="16.036416"><ele>765</ele></trkpt>
<trkpt lat="49.662965" lon="16.036073"><ele>760</ele></trkpt>
<trkpt lat="49.663043" lon="16.035850"><ele>757</ele></trkpt>
<trkpt lat="49.663181" lon="16.035342"><ele>753</ele></trkpt>
<trkpt lat="49.663306" lon="16.034972"><ele>751</ele></trkpt>
<trkpt lat="49.663458" lon="16.034621"><ele>749</ele></trkpt>
<trkpt lat="49.663537" lon="16.034405"><ele>748</ele></trkpt>
<trkpt lat="49.663600" lon="16.034097"><ele>747</ele></trkpt>
<trkpt lat="49.663828" lon="16.034069"><ele>746</ele></trkpt>
<trkpt lat="49.664339" lon="16.033848"><ele>745</ele></trkpt>
<trkpt lat="49.664593" lon="16.033621"><ele>745</ele></trkpt>
<trkpt lat="49.664819" lon="16.033341"><ele>745</ele></trkpt>
<trkpt lat="49.665019" lon="16.033055"><ele>746</ele></trkpt>
<trkpt lat="49.665642" lon="16.032552"><ele>748</ele></trkpt>
<trkpt lat="49.665962" lon="16.032178"><ele>751</ele></trkpt>
<trkpt lat="49.666435" lon="16.031826"><ele>755</ele></trkpt>
<trkpt lat="49.666635" lon="16.031454"><ele>758</ele></trkpt>
<trkpt lat="49.666654" lon="16.031248"><ele>758</ele></trkpt>
<trkpt lat="49.666806" lon="16.030948"><ele>760</ele></trkpt>
<trkpt lat="49.666922" lon="16.030676"><ele>761</ele></trkpt>
<trkpt lat="49.666983" lon="16.030406"><ele>763</ele></trkpt>
<trkpt lat="49.667019" lon="16.030191"><ele>764</ele></trkpt>
<trkpt lat="49.667031" lon="16.029662"><ele>764</ele></trkpt>
<trkpt lat="49.667040" lon="16.029500"><ele>764</ele></trkpt>
<trkpt lat="49.667118" lon="16.029484"><ele>765</ele></trkpt>
<trkpt lat="49.667852" lon="16.028707"><ele>773</ele></trkpt>
<trkpt lat="49.668032" lon="16.028409"><ele>776</ele></trkpt>
<trkpt lat="49.668236" lon="16.028173"><ele>778</ele></trkpt>
<trkpt lat="49.668643" lon="16.027854"><ele>782</ele></trkpt>
<trkpt lat="49.669106" lon="16.027654"><ele>786</ele></trkpt>
<trkpt lat="49.669375" lon="16.027494"><ele>788</ele></trkpt>
<trkpt lat="49.669621" lon="16.027279"><ele>790</ele></trkpt>
<trkpt lat="49.669846" lon="16.027192"><ele>792</ele></trkpt>
<trkpt lat="49.670163" lon="16.027170"><ele>793</ele></trkpt>
<trkpt lat="49.670293" lon="16.028059"><ele>794</ele></trkpt>
<trkpt lat="49.670639" lon="16.030484"><ele>804</ele></trkpt>
<trkpt lat="49.670733" lon="16.030799"><ele>805</ele></trkpt>
<trkpt lat="49.670878" lon="16.030959"><ele>805</ele></trkpt>
<trkpt lat="49.671105" lon="16.031190"><ele>805</ele></trkpt>
<trkpt lat="49.671113" lon="16.031220"><ele>806</ele></trkpt>
<trkpt lat="49.671105" lon="16.031190"><ele>805</ele></trkpt>
<trkpt lat="49.670878" lon="16.030959"><ele>805</ele></trkpt>
<trkpt lat="49.670733" lon="16.030799"><ele>805</ele></trkpt>
<trkpt lat="49.670639" lon="16.030484"><ele>804</ele></trkpt>
<trkpt lat="49.670293" lon="16.028059"><ele>794</ele></trkpt>
<trkpt lat="49.670163" lon="16.027170"><ele>793</ele></trkpt>
<trkpt lat="49.669846" lon="16.027192"><ele>792</ele></trkpt>
<trkpt lat="49.669621" lon="16.027279"><ele>790</ele></trkpt>
<trkpt lat="49.669375" lon="16.027494"><ele>788</ele></trkpt>
<trkpt lat="49.669106" lon="16.027654"><ele>786</ele></trkpt>
<trkpt lat="49.668643" lon="16.027854"><ele>782</ele></trkpt>
<trkpt lat="49.668236" lon="16.028173"><ele>778</ele></trkpt>
<trkpt lat="49.668032" lon="16.028409"><ele>776</ele></trkpt>
<trkpt lat="49.667852" lon="16.028707"><ele>773</ele></trkpt>
<trkpt lat="49.667118" lon="16.029484"><ele>765</ele></trkpt>
<trkpt lat="49.667046" lon="16.029498"><ele>764</ele></trkpt>
<trkpt lat="49.667040" lon="16.029500"><ele>764</ele></trkpt>
<trkpt lat="49.667031" lon="16.029662"><ele>764</ele></trkpt>
<trkpt lat="49.667019" lon="16.030191"><ele>764</ele></trkpt>
<trkpt lat="49.666983" lon="16.030406"><ele>763</ele></trkpt>
<trkpt lat="49.666922" lon="16.030676"><ele>761</ele></trkpt>
<trkpt lat="49.666806" lon="16.030948"><ele>760</ele></trkpt>
<trkpt lat="49.666654" lon="16.031248"><ele>758</ele></trkpt>
<trkpt lat="49.666635" lon="16.031454"><ele>758</ele></trkpt>
<trkpt lat="49.666435" lon="16.031826"><ele>755</ele></trkpt>
<trkpt lat="49.665962" lon="16.032178"><ele>751</ele></trkpt>
<trkpt lat="49.665642" lon="16.032552"><ele>748</ele></trkpt>
<trkpt lat="49.665019" lon="16.033055"><ele>746</ele></trkpt>
<trkpt lat="49.664819" lon="16.033341"><ele>745</ele></trkpt>
<trkpt lat="49.664593" lon="16.033621"><ele>745</ele></trkpt>
<trkpt lat="49.664339" lon="16.033848"><ele>745</ele></trkpt>
<trkpt lat="49.663828" lon="16.034069"><ele>746</ele></trkpt>
<trkpt lat="49.663600" lon="16.034097"><ele>747</ele></trkpt>
<trkpt lat="49.662603" lon="16.033005"><ele>744</ele></trkpt>
<trkpt lat="49.662415" lon="16.032874"><ele>742</ele></trkpt>
<trkpt lat="49.662252" lon="16.032825"><ele>742</ele></trkpt>
<trkpt lat="49.662041" lon="16.032843"><ele>742</ele></trkpt>
<trkpt lat="49.661369" lon="16.032777"><ele>741</ele></trkpt>
<trkpt lat="49.661089" lon="16.032836"><ele>740</ele></trkpt>
<trkpt lat="49.660707" lon="16.033084"><ele>740</ele></trkpt>
<trkpt lat="49.660581" lon="16.033172"><ele>740</ele></trkpt>
<trkpt lat="49.660001" lon="16.033462"><ele>738</ele></trkpt>
<trkpt lat="49.659638" lon="16.033606"><ele>738</ele></trkpt>
<trkpt lat="49.659534" lon="16.033637"><ele>737</ele></trkpt>
<trkpt lat="49.659075" lon="16.034046"><ele>737</ele></trkpt>
<trkpt lat="49.658530" lon="16.034669"><ele>736</ele></trkpt>
<trkpt lat="49.658435" lon="16.034729"><ele>736</ele></trkpt>
<trkpt lat="49.658503" lon="16.035112"><ele>738</ele></trkpt>
<trkpt lat="49.658615" lon="16.035294"><ele>739</ele></trkpt>
<trkpt lat="49.658656" lon="16.035439"><ele>740</ele></trkpt>
<trkpt lat="49.658628" lon="16.035616"><ele>741</ele></trkpt>
<trkpt lat="49.658476" lon="16.035906"><ele>741</ele></trkpt>
<trkpt lat="49.658250" lon="16.036212"><ele>741</ele></trkpt>
<trkpt lat="49.657231" lon="16.037493"><ele>741</ele></trkpt>
<trkpt lat="49.656779" lon="16.037999"><ele>742</ele></trkpt>
<trkpt lat="49.656021" lon="16.038776"><ele>743</ele></trkpt>
<trkpt lat="49.655263" lon="16.039500"><ele>745</ele></trkpt>
<trkpt lat="49.654923" lon="16.039843"><ele>746</ele></trkpt>
<trkpt lat="49.654697" lon="16.039897"><ele>746</ele></trkpt>
<trkpt lat="49.654475" lon="16.039779"><ele>745</ele></trkpt>
<trkpt lat="49.654215" lon="16.039543"><ele>743</ele></trkpt>
<trkpt lat="49.653998" lon="16.039144"><ele>741</ele></trkpt>
<trkpt lat="49.653637" lon="16.039646"><ele>743</ele></trkpt>
<trkpt lat="49.653157" lon="16.040236"><ele>745</ele></trkpt>
<trkpt lat="49.652945" lon="16.039579"><ele>742</ele></trkpt>
<trkpt lat="49.652845" lon="16.039288"><ele>741</ele></trkpt>
<trkpt lat="49.652703" lon="16.038939"><ele>740</ele></trkpt>
<trkpt lat="49.652506" lon="16.038537"><ele>738</ele></trkpt>
<trkpt lat="49.652468" lon="16.038504"><ele>738</ele></trkpt>
<trkpt lat="49.652408" lon="16.038474"><ele>738</ele></trkpt>
<trkpt lat="49.652175" lon="16.038422"><ele>738</ele></trkpt>
<trkpt lat="49.652032" lon="16.038408"><ele>738</ele></trkpt>
<trkpt lat="49.651615" lon="16.038396"><ele>738</ele></trkpt>
<trkpt lat="49.650843" lon="16.038439"><ele>741</ele></trkpt>
<trkpt lat="49.650716" lon="16.038456"><ele>741</ele></trkpt>
<trkpt lat="49.650587" lon="16.038494"><ele>742</ele></trkpt>
<trkpt lat="49.650482" lon="16.038546"><ele>742</ele></trkpt>
<trkpt lat="49.650444" lon="16.038582"><ele>742</ele></trkpt>
<trkpt lat="49.650420" lon="16.038618"><ele>742</ele></trkpt>
<trkpt lat="49.650180" lon="16.039092"><ele>744</ele></trkpt>
<trkpt lat="49.650015" lon="16.039458"><ele>745</ele></trkpt>
<trkpt lat="49.649968" lon="16.039543"><ele>746</ele></trkpt>
<trkpt lat="49.649927" lon="16.039604"><ele>746</ele></trkpt>
<trkpt lat="49.649882" lon="16.039641"><ele>746</ele></trkpt>
<trkpt lat="49.649822" lon="16.039655"><ele>746</ele></trkpt>
<trkpt lat="49.649743" lon="16.039636"><ele>747</ele></trkpt>
<trkpt lat="49.649690" lon="16.039600"><ele>747</ele></trkpt>
<trkpt lat="49.649627" lon="16.039542"><ele>747</ele></trkpt>
<trkpt lat="49.649573" lon="16.039464"><ele>748</ele></trkpt>
<trkpt lat="49.649537" lon="16.039383"><ele>748</ele></trkpt>
<trkpt lat="49.649500" lon="16.039275"><ele>748</ele></trkpt>
<trkpt lat="49.649350" lon="16.038708"><ele>748</ele></trkpt>
<trkpt lat="49.649336" lon="16.038675"><ele>749</ele></trkpt>
<trkpt lat="49.649251" lon="16.038564"><ele>750</ele></trkpt>
<trkpt lat="49.648671" lon="16.040424"><ele>754</ele></trkpt>
<trkpt lat="49.648537" lon="16.041023"><ele>755</ele></trkpt>
<trkpt lat="49.648514" lon="16.041362"><ele>756</ele></trkpt>
<trkpt lat="49.648486" lon="16.042286"><ele>756</ele></trkpt>
<trkpt lat="49.648433" lon="16.043421"><ele>757</ele></trkpt>
<trkpt lat="49.648366" lon="16.044404"><ele>758</ele></trkpt>
<trkpt lat="49.648240" lon="16.045362"><ele>759</ele></trkpt>
<trkpt lat="49.648042" lon="16.046370"><ele>760</ele></trkpt>
<trkpt lat="49.647761" lon="16.047796"><ele>760</ele></trkpt>
<trkpt lat="49.647705" lon="16.048610"><ele>760</ele></trkpt>
<trkpt lat="49.647716" lon="16.049420"><ele>759</ele></trkpt>
<trkpt lat="49.647687" lon="16.049623"><ele>758</ele></trkpt>
<trkpt lat="49.647642" lon="16.049839"><ele>758</ele></trkpt>
<trkpt lat="49.647562" lon="16.050067"><ele>758</ele></trkpt>
<trkpt lat="49.647491" lon="16.050241"><ele>757</ele></trkpt>
<trkpt lat="49.647392" lon="16.050441"><ele>757</ele></trkpt>
<trkpt lat="49.647379" lon="16.050463"><ele>757</ele></trkpt>
<trkpt lat="49.647392" lon="16.050441"><ele>757</ele></trkpt>
<trkpt lat="49.647491" lon="16.050241"><ele>757</ele></trkpt>
<trkpt lat="49.647562" lon="16.050067"><ele>758</ele></trkpt>
<trkpt lat="49.647642" lon="16.049839"><ele>758</ele></trkpt>
<trkpt lat="49.647687" lon="16.049623"><ele>758</ele></trkpt>
<trkpt lat="49.647716" lon="16.049420"><ele>759</ele></trkpt>
<trkpt lat="49.647705" lon="16.048610"><ele>760</ele></trkpt>
<trkpt lat="49.647761" lon="16.047796"><ele>760</ele></trkpt>
<trkpt lat="49.648042" lon="16.046370"><ele>760</ele></trkpt>
<trkpt lat="49.648184" lon="16.046656"><ele>759</ele></trkpt>
<trkpt lat="49.648317" lon="16.046842"><ele>759</ele></trkpt>
<trkpt lat="49.648843" lon="16.047409"><ele>759</ele></trkpt>
<trkpt lat="49.650326" lon="16.048969"><ele>765</ele></trkpt>
<trkpt lat="49.650407" lon="16.049085"><ele>766</ele></trkpt>
<trkpt lat="49.650536" lon="16.049396"><ele>766</ele></trkpt>
<trkpt lat="49.650684" lon="16.049729"><ele>767</ele></trkpt>
<trkpt lat="49.650809" lon="16.050054"><ele>769</ele></trkpt>
<trkpt lat="49.651066" lon="16.050572"><ele>771</ele></trkpt>
<trkpt lat="49.651253" lon="16.050885"><ele>772</ele></trkpt>
<trkpt lat="49.651452" lon="16.051243"><ele>773</ele></trkpt>
<trkpt lat="49.651704" lon="16.051936"><ele>774</ele></trkpt>
<trkpt lat="49.651813" lon="16.052331"><ele>773</ele></trkpt>
<trkpt lat="49.651844" lon="16.052625"><ele>773</ele></trkpt>
<trkpt lat="49.651688" lon="16.053723"><ele>768</ele></trkpt>
<trkpt lat="49.651641" lon="16.054195"><ele>766</ele></trkpt>
<trkpt lat="49.651606" lon="16.054586"><ele>765</ele></trkpt>
<trkpt lat="49.651597" lon="16.054807"><ele>764</ele></trkpt>
<trkpt lat="49.651554" lon="16.054846"><ele>763</ele></trkpt>
<trkpt lat="49.651487" lon="16.055010"><ele>762</ele></trkpt>
<trkpt lat="49.651359" lon="16.055254"><ele>760</ele></trkpt>
<trkpt lat="49.651320" lon="16.055742"><ele>759</ele></trkpt>
<trkpt lat="49.651283" lon="16.056067"><ele>757</ele></trkpt>
<trkpt lat="49.651269" lon="16.056552"><ele>756</ele></trkpt>
<trkpt lat="49.651308" lon="16.056921"><ele>754</ele></trkpt>
<trkpt lat="49.651339" lon="16.057332"><ele>753</ele></trkpt>
<trkpt lat="49.651343" lon="16.057556"><ele>752</ele></trkpt>
<trkpt lat="49.651289" lon="16.058020"><ele>750</ele></trkpt>
<trkpt lat="49.651100" lon="16.058404"><ele>747</ele></trkpt>
<trkpt lat="49.650951" lon="16.058660"><ele>746</ele></trkpt>
<trkpt lat="49.650913" lon="16.058851"><ele>745</ele></trkpt>
<trkpt lat="49.650893" lon="16.059198"><ele>744</ele></trkpt>
<trkpt lat="49.650872" lon="16.059521"><ele>743</ele></trkpt>
<trkpt lat="49.650861" lon="16.059798"><ele>743</ele></trkpt>
<trkpt lat="49.650824" lon="16.060191"><ele>743</ele></trkpt>
<trkpt lat="49.650770" lon="16.060411"><ele>742</ele></trkpt>
<trkpt lat="49.650433" lon="16.061147"><ele>741</ele></trkpt>
<trkpt lat="49.650303" lon="16.061413"><ele>741</ele></trkpt>
<trkpt lat="49.649607" lon="16.062534"><ele>740</ele></trkpt>
<trkpt lat="49.649536" lon="16.062734"><ele>740</ele></trkpt>
<trkpt lat="49.649522" lon="16.063311"><ele>740</ele></trkpt>
<trkpt lat="49.649491" lon="16.063549"><ele>741</ele></trkpt>
<trkpt lat="49.649369" lon="16.064350"><ele>742</ele></trkpt>
<trkpt lat="49.649349" lon="16.064634"><ele>743</ele></trkpt>
<trkpt lat="49.649280" lon="16.065004"><ele>743</ele></trkpt>
<trkpt lat="49.649172" lon="16.065769"><ele>743</ele></trkpt>
<trkpt lat="49.649145" lon="16.066012"><ele>744</ele></trkpt>
<trkpt lat="49.649101" lon="16.066054"><ele>743</ele></trkpt>
<trkpt lat="49.649033" lon="16.066090"><ele>743</ele></trkpt>
<trkpt lat="49.648665" lon="16.066484"><ele>742</ele></trkpt>
<trkpt lat="49.648386" lon="16.066715"><ele>743</ele></trkpt>
<trkpt lat="49.647947" lon="16.066955"><ele>744</ele></trkpt>
<trkpt lat="49.647866" lon="16.066992"><ele>744</ele></trkpt>
<trkpt lat="49.647579" lon="16.067382"><ele>744</ele></trkpt>
<trkpt lat="49.647506" lon="16.067519"><ele>745</ele></trkpt>
<trkpt lat="49.647393" lon="16.067781"><ele>746</ele></trkpt>
<trkpt lat="49.647223" lon="16.068226"><ele>747</ele></trkpt>
<trkpt lat="49.647039" lon="16.068892"><ele>750</ele></trkpt>
<trkpt lat="49.646809" lon="16.069511"><ele>753</ele></trkpt>
<trkpt lat="49.646696" lon="16.069873"><ele>755</ele></trkpt>
<trkpt lat="49.646652" lon="16.070126"><ele>756</ele></trkpt>
<trkpt lat="49.646615" lon="16.070386"><ele>757</ele></trkpt>
<trkpt lat="49.646445" lon="16.071002"><ele>760</ele></trkpt>
<trkpt lat="49.646392" lon="16.071235"><ele>761</ele></trkpt>
<trkpt lat="49.646358" lon="16.071492"><ele>762</ele></trkpt>
<trkpt lat="49.646349" lon="16.071698"><ele>763</ele></trkpt>
<trkpt lat="49.646365" lon="16.071969"><ele>764</ele></trkpt>
<trkpt lat="49.646404" lon="16.072300"><ele>764</ele></trkpt>
<trkpt lat="49.646444" lon="16.072791"><ele>764</ele></trkpt>
<trkpt lat="49.646505" lon="16.073314"><ele>764</ele></trkpt>
<trkpt lat="49.646471" lon="16.073852"><ele>762</ele></trkpt>
<trkpt lat="49.646468" lon="16.074226"><ele>761</ele></trkpt>
<trkpt lat="49.646475" lon="16.074360"><ele>760</ele></trkpt>
<trkpt lat="49.646545" lon="16.074899"><ele>756</ele></trkpt>
<trkpt lat="49.646560" lon="16.075194"><ele>754</ele></trkpt>
<trkpt lat="49.646557" lon="16.075526"><ele>752</ele></trkpt>
<trkpt lat="49.646545" lon="16.075753"><ele>752</ele></trkpt>
<trkpt lat="49.646507" lon="16.076211"><ele>751</ele></trkpt>
<trkpt lat="49.646498" lon="16.076451"><ele>751</ele></trkpt>
<trkpt lat="49.646487" lon="16.076546"><ele>751</ele></trkpt>
<trkpt lat="49.646468" lon="16.076638"><ele>751</ele></trkpt>
<trkpt lat="49.646348" lon="16.076997"><ele>752</ele></trkpt>
<trkpt lat="49.646478" lon="16.076952"><ele>752</ele></trkpt>
<trkpt lat="49.646608" lon="16.076893"><ele>752</ele></trkpt>
<trkpt lat="49.646723" lon="16.076780"><ele>752</ele></trkpt>
<trkpt lat="49.646804" lon="16.076683"><ele>752</ele></trkpt>
<trkpt lat="49.646869" lon="16.076632"><ele>752</ele></trkpt>
<trkpt lat="49.646961" lon="16.076578"><ele>752</ele></trkpt>
<trkpt lat="49.647037" lon="16.076535"><ele>752</ele></trkpt>
<trkpt lat="49.647418" lon="16.076352"><ele>748</ele></trkpt>
<trkpt lat="49.647903" lon="16.076095"><ele>742</ele></trkpt>
<trkpt lat="49.648065" lon="16.075952"><ele>739</ele></trkpt>
<trkpt lat="49.648239" lon="16.075769"><ele>736</ele></trkpt>
<trkpt lat="49.648358" lon="16.075729"><ele>734</ele></trkpt>
<trkpt lat="49.649182" lon="16.075791"><ele>724</ele></trkpt>
<trkpt lat="49.649227" lon="16.076036"><ele>724</ele></trkpt>
<trkpt lat="49.649250" lon="16.076560"><ele>726</ele></trkpt>
<trkpt lat="49.649289" lon="16.076683"><ele>726</ele></trkpt>
<trkpt lat="49.649343" lon="16.076815"><ele>726</ele></trkpt>
<trkpt lat="49.649464" lon="16.076961"><ele>725</ele></trkpt>
<trkpt lat="49.649641" lon="16.077239"><ele>725</ele></trkpt>
<trkpt lat="49.649753" lon="16.077462"><ele>725</ele></trkpt>
<trkpt lat="49.649911" lon="16.078046"><ele>725</ele></trkpt>
<trkpt lat="49.649979" lon="16.078478"><ele>725</ele></trkpt>
<trkpt lat="49.650010" lon="16.079013"><ele>727</ele></trkpt>
<trkpt lat="49.650105" lon="16.079598"><ele>728</ele></trkpt>
<trkpt lat="49.650236" lon="16.079988"><ele>728</ele></trkpt>
<trkpt lat="49.650438" lon="16.080628"><ele>728</ele></trkpt>
<trkpt lat="49.650600" lon="16.081003"><ele>728</ele></trkpt>
<trkpt lat="49.650857" lon="16.081456"><ele>728</ele></trkpt>
<trkpt lat="49.651015" lon="16.081797"><ele>729</ele></trkpt>
<trkpt lat="49.651073" lon="16.082492"><ele>731</ele></trkpt>
<trkpt lat="49.651047" lon="16.082531"><ele>734</ele></trkpt>
</trkseg></trk>
</gpx>
