<?xml version="1.0" encoding="UTF-8"?>
<gpx version="1.1" creator="Vysočina 2026 – Mlýn Vikinek" xmlns="http://www.topografix.com/GPX/1/1">
<metadata><name>Drátník a Malinská skála (krátký okruh)</name><desc>Dvě nejhezčí skály ve zkrácené verzi: lezci na Drátníku a vyhlídka z Malinské skály.</desc></metadata>
<wpt lat="49.654750" lon="16.084040"><name>Drátník (Drátenická skála, 776 m)</name><desc>200 m dlouhá skalní hradba s věží Sokol (35 m), kde trénují horolezci.</desc></wpt>
<wpt lat="49.661030" lon="16.071390"><name>Malinská skála (813 m)</name><desc>Kruh až 20 m vysokých skal, jeden z nejhezčích výhledů a malá puklinová jeskyňka.</desc></wpt>
<wpt lat="49.650390" lon="16.079900"><name>Hospoda U Kolouška</name><desc>Hospůdka uprostřed luk pod skálou Dráteničky, na konci skalní hřebenovky.</desc></wpt>
<trk><name>Drátník a Malinská skála (krátký okruh)</name><trkseg>
<trkpt lat="49.651047" lon="16.082531"><ele>731</ele></trkpt>
<trkpt lat="49.651073" lon="16.082492"><ele>731</ele></trkpt>
<trkpt lat="49.651204" lon="16.082687"><ele>731</ele></trkpt>
<trkpt lat="49.651506" lon="16.083181"><ele>731</ele></trkpt>
<trkpt lat="49.651844" lon="16.083633"><ele>733</ele></trkpt>
<trkpt lat="49.652060" lon="16.083870"><ele>732</ele></trkpt>
<trkpt lat="49.652295" lon="16.084182"><ele>730</ele></trkpt>
<trkpt lat="49.652339" lon="16.084223"><ele>730</ele></trkpt>
<trkpt lat="49.652383" lon="16.084240"><ele>730</ele></trkpt>
<trkpt lat="49.652454" lon="16.084247"><ele>730</ele></trkpt>
<trkpt lat="49.652620" lon="16.084189"><ele>730</ele></trkpt>
<trkpt lat="49.652970" lon="16.084139"><ele>734</ele></trkpt>
<trkpt lat="49.653426" lon="16.084169"><ele>739</ele></trkpt>
<trkpt lat="49.653523" lon="16.084155"><ele>740</ele></trkpt>
<trkpt lat="49.653633" lon="16.084179"><ele>742</ele></trkpt>
<trkpt lat="49.653789" lon="16.084030"><ele>742</ele></trkpt>
<trkpt lat="49.653900" lon="16.084009"><ele>742</ele></trkpt>
<trkpt lat="49.653974" lon="16.084045"><ele>743</ele></trkpt>
<trkpt lat="49.654059" lon="16.084102"><ele>744</ele></trkpt>
<trkpt lat="49.654114" lon="16.084046"><ele>745</ele></trkpt>
<trkpt lat="49.654146" lon="16.084105"><ele>746</ele></trkpt>
<trkpt lat="49.654228" lon="16.084199"><ele>746</ele></trkpt>
<trkpt lat="49.654266" lon="16.084190"><ele>747</ele></trkpt>
<trkpt lat="49.654295" lon="16.084160"><ele>748</ele></trkpt>
<trkpt lat="49.654318" lon="16.084102"><ele>747</ele></trkpt>
<trkpt lat="49.654364" lon="16.084051"><ele>746</ele></trkpt>
<trkpt lat="49.654406" lon="16.084088"><ele>747</ele></trkpt>
<trkpt lat="49.654421" lon="16.084145"><ele>749</ele></trkpt>
<trkpt lat="49.654511" lon="16.084102"><ele>752</ele></trkpt>
<trkpt lat="49.654537" lon="16.084068"><ele>752</ele></trkpt>
<trkpt lat="49.654535" lon="16.084041"><ele>750</ele></trkpt>
<trkpt lat="49.654499" lon="16.084003"><ele>747</ele></trkpt>
<trkpt lat="49.654466" lon="16.083952"><ele>744</ele></trkpt>
<trkpt lat="49.654462" lon="16.083826"><ele>742</ele></trkpt>
<trkpt lat="49.654399" lon="16.083776"><ele>742</ele></trkpt>
<trkpt lat="49.654505" lon="16.083686"><ele>740</ele></trkpt>
<trkpt lat="49.654633" lon="16.083424"><ele>738</ele></trkpt>
<trkpt lat="49.654711" lon="16.082758"><ele>730</ele></trkpt>
<trkpt lat="49.654720" lon="16.082256"><ele>723</ele></trkpt>
<trkpt lat="49.654743" lon="16.081796"><ele>718</ele></trkpt>
<trkpt lat="49.654802" lon="16.081307"><ele>712</ele></trkpt>
<trkpt lat="49.654789" lon="16.080854"><ele>708</ele></trkpt>
<trkpt lat="49.654919" lon="16.080075"><ele>702</ele></trkpt>
<trkpt lat="49.655051" lon="16.079876"><ele>700</ele></trkpt>
<trkpt lat="49.656153" lon="16.078242"><ele>689</ele></trkpt>
<trkpt lat="49.657130" lon="16.076792"><ele>690</ele></trkpt>
<trkpt lat="49.657197" lon="16.077202"><ele>689</ele></trkpt>
<trkpt lat="49.657313" lon="16.077489"><ele>688</ele></trkpt>
<trkpt lat="49.657197" lon="16.077202"><ele>689</ele></trkpt>
<trkpt lat="49.657130" lon="16.076792"><ele>690</ele></trkpt>
<trkpt lat="49.657091" lon="16.076443"><ele>692</ele></trkpt>
<trkpt lat="49.657153" lon="16.075757"><ele>695</ele></trkpt>
<trkpt lat="49.657488" lon="16.074397"><ele>701</ele></trkpt>
<trkpt lat="49.657675" lon="16.073566"><ele>706</ele></trkpt>
<trkpt lat="49.657683" lon="16.073229"><ele>708</ele></trkpt>
<trkpt lat="49.657625" lon="16.072344"><ele>712</ele></trkpt>
<trkpt lat="49.657621" lon="16.071772"><ele>715</ele></trkpt>
<trkpt lat="49.657633" lon="16.071140"><ele>718</ele></trkpt>
<trkpt lat="49.657707" lon="16.070352"><ele>722</ele></trkpt>
<trkpt lat="49.657923" lon="16.068959"><ele>730</ele></trkpt>
<trkpt lat="49.658050" lon="16.068933"><ele>731</ele></trkpt>
<trkpt lat="49.658339" lon="16.068898"><ele>735</ele></trkpt>
<trkpt lat="49.658541" lon="16.068944"><ele>738</ele></trkpt>
<trkpt lat="49.658829" lon="16.068996"><ele>743</ele></trkpt>
<trkpt lat="49.659673" lon="16.068945"><ele>757</ele></trkpt>
<trkpt lat="49.660087" lon="16.068738"><ele>764</ele></trkpt>
<trkpt lat="49.660290" lon="16.069122"><ele>768</ele></trkpt>
<trkpt lat="49.660428" lon="16.069268"><ele>770</ele></trkpt>
<trkpt lat="49.660621" lon="16.069326"><ele>774</ele></trkpt>
<trkpt lat="49.660782" lon="16.069227"><ele>776</ele></trkpt>
<trkpt lat="49.661010" lon="16.069120"><ele>779</ele></trkpt>
<trkpt lat="49.661456" lon="16.068833"><ele>783</ele></trkpt>
<trkpt lat="49.661401" lon="16.069248"><ele>783</ele></trkpt>
<trkpt lat="49.661337" lon="16.070315"><ele>785</ele></trkpt>
<trkpt lat="49.661438" lon="16.070823"><ele>784</ele></trkpt>
<trkpt lat="49.661472" lon="16.071148"><ele>788</ele></trkpt>
<trkpt lat="49.661345" lon="16.071668"><ele>792</ele></trkpt>
<trkpt lat="49.661472" lon="16.071148"><ele>788</ele></trkpt>
<trkpt lat="49.661438" lon="16.070823"><ele>784</ele></trkpt>
<trkpt lat="49.661337" lon="16.070315"><ele>785</ele></trkpt>
<trkpt lat="49.661401" lon="16.069248"><ele>783</ele></trkpt>
<trkpt lat="49.661456" lon="16.068833"><ele>783</ele></trkpt>
<trkpt lat="49.661010" lon="16.069120"><ele>779</ele></trkpt>
<trkpt lat="49.660782" lon="16.069227"><ele>776</ele></trkpt>
<trkpt lat="49.660621" lon="16.069326"><ele>774</ele></trkpt>
<trkpt lat="49.660428" lon="16.069268"><ele>770</ele></trkpt>
<trkpt lat="49.660290" lon="16.069122"><ele>768</ele></trkpt>
<trkpt lat="49.660087" lon="16.068738"><ele>764</ele></trkpt>
<trkpt lat="49.659673" lon="16.068945"><ele>757</ele></trkpt>
<trkpt lat="49.658829" lon="16.068996"><ele>743</ele></trkpt>
<trkpt lat="49.658541" lon="16.068944"><ele>738</ele></trkpt>
<trkpt lat="49.658339" lon="16.068898"><ele>735</ele></trkpt>
<trkpt lat="49.658050" lon="16.068933"><ele>731</ele></trkpt>
<trkpt lat="49.657923" lon="16.068959"><ele>730</ele></trkpt>
<trkpt lat="49.657707" lon="16.070352"><ele>722</ele></trkpt>
<trkpt lat="49.657633" lon="16.071140"><ele>718</ele></trkpt>
<trkpt lat="49.657621" lon="16.071772"><ele>715</ele></trkpt>
<trkpt lat="49.657625" lon="16.072344"><ele>712</ele></trkpt>
<trkpt lat="49.657683" lon="16.073229"><ele>708</ele></trkpt>
<trkpt lat="49.657675" lon="16.073566"><ele>706</ele></trkpt>
<trkpt lat="49.657488" lon="16.074397"><ele>701</ele></trkpt>
<trkpt lat="49.657153" lon="16.075757"><ele>695</ele></trkpt>
<trkpt lat="49.657091" lon="16.076443"><ele>692</ele></trkpt>
<trkpt lat="49.657130" lon="16.076792"><ele>690</ele></trkpt>
<trkpt lat="49.656153" lon="16.078242"><ele>689</ele></trkpt>
<trkpt lat="49.655051" lon="16.079876"><ele>700</ele></trkpt>
<trkpt lat="49.654919" lon="16.080075"><ele>702</ele></trkpt>
<trkpt lat="49.654595" lon="16.080567"><ele>706</ele></trkpt>
<trkpt lat="49.654473" lon="16.080731"><ele>707</ele></trkpt>
<trkpt lat="49.654229" lon="16.081064"><ele>710</ele></trkpt>
<trkpt lat="49.653928" lon="16.081519"><ele>714</ele></trkpt>
<trkpt lat="49.653649" lon="16.081907"><ele>718</ele></trkpt>
<trkpt lat="49.653467" lon="16.082108"><ele>720</ele></trkpt>
<trkpt lat="49.653097" lon="16.082620"><ele>724</ele></trkpt>
<trkpt lat="49.652914" lon="16.082915"><ele>726</ele></trkpt>
<trkpt lat="49.652721" lon="16.083257"><ele>728</ele></trkpt>
<trkpt lat="49.652546" lon="16.083549"><ele>729</ele></trkpt>
<trkpt lat="49.652457" lon="16.083904"><ele>730</ele></trkpt>
<trkpt lat="49.652415" lon="16.084139"><ele>730</ele></trkpt>
<trkpt lat="49.652383" lon="16.084240"><ele>730</ele></trkpt>
<trkpt lat="49.652339" lon="16.084223"><ele>730</ele></trkpt>
<trkpt lat="49.652295" lon="16.084182"><ele>730</ele></trkpt>
<trkpt lat="49.652060" lon="16.083870"><ele>732</ele></trkpt>
<trkpt lat="49.651844" lon="16.083633"><ele>733</ele></trkpt>
<trkpt lat="49.651506" lon="16.083181"><ele>731</ele></trkpt>
<trkpt lat="49.651204" lon="16.082687"><ele>731</ele></trkpt>
<trkpt lat="49.651073" lon="16.082492"><ele>731</ele></trkpt>
<trkpt lat="49.651015" lon="16.081797"><ele>729</ele></trkpt>
<trkpt lat="49.650857" lon="16.081456"><ele>728</ele></trkpt>
<trkpt lat="49.650600" lon="16.081003"><ele>728</ele></trkpt>
<trkpt lat="49.650438" lon="16.080628"><ele>728</ele></trkpt>
<trkpt lat="49.650236" lon="16.079988"><ele>728</ele></trkpt>
<trkpt lat="49.650105" lon="16.079598"><ele>728</ele></trkpt>
<trkpt lat="49.650010" lon="16.079013"><ele>727</ele></trkpt>
<trkpt lat="49.649979" lon="16.078478"><ele>725</ele></trkpt>
<trkpt lat="49.649911" lon="16.078046"><ele>725</ele></trkpt>
<trkpt lat="49.649753" lon="16.077462"><ele>725</ele></trkpt>
<trkpt lat="49.649641" lon="16.077239"><ele>725</ele></trkpt>
<trkpt lat="49.649464" lon="16.076961"><ele>725</ele></trkpt>
<trkpt lat="49.649343" lon="16.076815"><ele>726</ele></trkpt>
<trkpt lat="49.649289" lon="16.076683"><ele>726</ele></trkpt>
<trkpt lat="49.649250" lon="16.076560"><ele>726</ele></trkpt>
<trkpt lat="49.649227" lon="16.076036"><ele>724</ele></trkpt>
<trkpt lat="49.649182" lon="16.075791"><ele>724</ele></trkpt>
<trkpt lat="49.648358" lon="16.075729"><ele>734</ele></trkpt>
<trkpt lat="49.648239" lon="16.075769"><ele>736</ele></trkpt>
<trkpt lat="49.648065" lon="16.075952"><ele>739</ele></trkpt>
<trkpt lat="49.647903" lon="16.076095"><ele>742</ele></trkpt>
<trkpt lat="49.647418" lon="16.076352"><ele>748</ele></trkpt>
<trkpt lat="49.647037" lon="16.076535"><ele>752</ele></trkpt>
<trkpt lat="49.646961" lon="16.076578"><ele>752</ele></trkpt>
<trkpt lat="49.647037" lon="16.076535"><ele>752</ele></trkpt>
<trkpt lat="49.647418" lon="16.076352"><ele>748</ele></trkpt>
<trkpt lat="49.647903" lon="16.076095"><ele>742</ele></trkpt>
<trkpt lat="49.648065" lon="16.075952"><ele>739</ele></trkpt>
<trkpt lat="49.648239" lon="16.075769"><ele>736</ele></trkpt>
<trkpt lat="49.648358" lon="16.075729"><ele>734</ele></trkpt>
<trkpt lat="49.649182" lon="16.075791"><ele>724</ele></trkpt>
<trkpt lat="49.649227" lon="16.076036"><ele>724</ele></trkpt>
<trkpt lat="49.649250" lon="16.076560"><ele>726</ele></trkpt>
<trkpt lat="49.649289" lon="16.076683"><ele>726</ele></trkpt>
<trkpt lat="49.649343" lon="16.076815"><ele>726</ele></trkpt>
<trkpt lat="49.649464" lon="16.076961"><ele>725</ele></trkpt>
<trkpt lat="49.649641" lon="16.077239"><ele>725</ele></trkpt>
<trkpt lat="49.649753" lon="16.077462"><ele>725</ele></trkpt>
<trkpt lat="49.649911" lon="16.078046"><ele>725</ele></trkpt>
<trkpt lat="49.649979" lon="16.078478"><ele>725</ele></trkpt>
<trkpt lat="49.650010" lon="16.079013"><ele>727</ele></trkpt>
<trkpt lat="49.650105" lon="16.079598"><ele>728</ele></trkpt>
<trkpt lat="49.650236" lon="16.079988"><ele>728</ele></trkpt>
<trkpt lat="49.650438" lon="16.080628"><ele>728</ele></trkpt>
<trkpt lat="49.650600" lon="16.081003"><ele>728</ele></trkpt>
<trkpt lat="49.650857" lon="16.081456"><ele>728</ele></trkpt>
<trkpt lat="49.651015" lon="16.081797"><ele>729</ele></trkpt>
<trkpt lat="49.651073" lon="16.082492"><ele>731</ele></trkpt>
<trkpt lat="49.651047" lon="16.082531"><ele>734</ele></trkpt>
</trkseg></trk>
</gpx>
