<?xml version="1.0" encoding="UTF-8"?>
<gpx version="1.1" creator="Vysočina 2026 – Mlýn Vikinek" xmlns="http://www.topografix.com/GPX/1/1">
<metadata><name>Moravský kras: Skalní Mlýn – Punkevní jeskyně – Macocha</name><desc>Pěšky nebo ekovláčkem k Punkevním jeskyním, lodičkou podzemím, lanovkou na Macochu a zpět.</desc></metadata>
<wpt lat="49.371140" lon="16.726190"><name>Punkevní jeskyně a propast Macocha</name><desc>Krápníky, dno propasti Macocha a plavba na lodičkách po podzemní říčce Punkvě.</desc></wpt>
<wpt lat="49.373140" lon="16.729320"><name>Propast Macocha – horní můstek</name><desc>Pohled 138 m do hloubky z vyhlídkového můstku, zdarma i bez prohlídky jeskyní.</desc></wpt>
<wpt lat="49.360540" lon="16.710050"><name>Kateřinská jeskyně</name><desc>Obří podzemní dóm a „bambusový lesík“ hůlkových krápníků. Krátká prohlídka.</desc></wpt>
<wpt lat="49.376800" lon="16.758150"><name>Jeskyně Balcarka</name><desc>V sobotu 10. 10. „Škola malých jeskyňářů“ pro děti od 5 let, s diplomem!</desc></wpt>
<wpt lat="49.363730" lon="16.708220"><name>Hotel a restaurace Skalní Mlýn</name><desc>Restaurace a informační centrum u Punkevních a Kateřinské jeskyně.</desc></wpt>
<trk><name>Moravský kras: Skalní Mlýn – Punkevní jeskyně – Macocha</name><trkseg>
<trkpt lat="49.363437" lon="16.708736"><ele>331</ele></trkpt>
<trkpt lat="49.363449" lon="16.709190"><ele>331</ele></trkpt>
<trkpt lat="49.363536" lon="16.709181"><ele>332</ele></trkpt>
<trkpt lat="49.363534" lon="16.709363"><ele>332</ele></trkpt>
<trkpt lat="49.363533" lon="16.709655"><ele>332</ele></trkpt>
<trkpt lat="49.363547" lon="16.709790"><ele>332</ele></trkpt>
<trkpt lat="49.363571" lon="16.709882"><ele>332</ele></trkpt>
<trkpt lat="49.363661" lon="16.709832"><ele>334</ele></trkpt>
<trkpt lat="49.363756" lon="16.709838"><ele>336</ele></trkpt>
<trkpt lat="49.363844" lon="16.709904"><ele>338</ele></trkpt>
<trkpt lat="49.363959" lon="16.710087"><ele>338</ele></trkpt>
<trkpt lat="49.363999" lon="16.710263"><ele>336</ele></trkpt>
<trkpt lat="49.364099" lon="16.710385"><ele>337</ele></trkpt>
<trkpt lat="49.364294" lon="16.710495"><ele>340</ele></trkpt>
<trkpt lat="49.364582" lon="16.710749"><ele>339</ele></trkpt>
<trkpt lat="49.364973" lon="16.711117"><ele>340</ele></trkpt>
<trkpt lat="49.365344" lon="16.711541"><ele>338</ele></trkpt>
<trkpt lat="49.365897" lon="16.711411"><ele>344</ele></trkpt>
<trkpt lat="49.366557" lon="16.711615"><ele>343</ele></trkpt>
<trkpt lat="49.367504" lon="16.712504"><ele>343</ele></trkpt>
<trkpt lat="49.367613" lon="16.712759"><ele>343</ele></trkpt>
<trkpt lat="49.367656" lon="16.712924"><ele>342</ele></trkpt>
<trkpt lat="49.367686" lon="16.713039"><ele>342</ele></trkpt>
<trkpt lat="49.367727" lon="16.713197"><ele>342</ele></trkpt>
<trkpt lat="49.367849" lon="16.713423"><ele>342</ele></trkpt>
<trkpt lat="49.368080" lon="16.713721"><ele>340</ele></trkpt>
<trkpt lat="49.368216" lon="16.713818"><ele>342</ele></trkpt>
<trkpt lat="49.368466" lon="16.713979"><ele>344</ele></trkpt>
<trkpt lat="49.368781" lon="16.714302"><ele>344</ele></trkpt>
<trkpt lat="49.368950" lon="16.714510"><ele>344</ele></trkpt>
<trkpt lat="49.369106" lon="16.714980"><ele>342</ele></trkpt>
<trkpt lat="49.369178" lon="16.715465"><ele>342</ele></trkpt>
<trkpt lat="49.369219" lon="16.716283"><ele>344</ele></trkpt>
<trkpt lat="49.369249" lon="16.716451"><ele>345</ele></trkpt>
<trkpt lat="49.369270" lon="16.716572"><ele>345</ele></trkpt>
<trkpt lat="49.369306" lon="16.716774"><ele>346</ele></trkpt>
<trkpt lat="49.369562" lon="16.718216"><ele>346</ele></trkpt>
<trkpt lat="49.369580" lon="16.720481"><ele>351</ele></trkpt>
<trkpt lat="49.369541" lon="16.721169"><ele>347</ele></trkpt>
<trkpt lat="49.369419" lon="16.721652"><ele>346</ele></trkpt>
<trkpt lat="49.369467" lon="16.722000"><ele>348</ele></trkpt>
<trkpt lat="49.369800" lon="16.722317"><ele>352</ele></trkpt>
<trkpt lat="49.369979" lon="16.722439"><ele>352</ele></trkpt>
<trkpt lat="49.370040" lon="16.722679"><ele>354</ele></trkpt>
<trkpt lat="49.369900" lon="16.723225"><ele>360</ele></trkpt>
<trkpt lat="49.369924" lon="16.723651"><ele>352</ele></trkpt>
<trkpt lat="49.370177" lon="16.724006"><ele>354</ele></trkpt>
<trkpt lat="49.370350" lon="16.724385"><ele>356</ele></trkpt>
<trkpt lat="49.370699" lon="16.725322"><ele>358</ele></trkpt>
<trkpt lat="49.370882" lon="16.725636"><ele>356</ele></trkpt>
<trkpt lat="49.371005" lon="16.725690"><ele>358</ele></trkpt>
<trkpt lat="49.371116" lon="16.725688"><ele>360</ele></trkpt>
<trkpt lat="49.371672" lon="16.725286"><ele>363</ele></trkpt>
<trkpt lat="49.371818" lon="16.725161"><ele>363</ele></trkpt>
<trkpt lat="49.372028" lon="16.725041"><ele>360</ele></trkpt>
<trkpt lat="49.372202" lon="16.724953"><ele>360</ele></trkpt>
<trkpt lat="49.372306" lon="16.724914"><ele>360</ele></trkpt>
<trkpt lat="49.372477" lon="16.724787"><ele>360</ele></trkpt>
<trkpt lat="49.372557" lon="16.724674"><ele>362</ele></trkpt>
<trkpt lat="49.372572" lon="16.724550"><ele>364</ele></trkpt>
<trkpt lat="49.372540" lon="16.724334"><ele>362</ele></trkpt>
<trkpt lat="49.372547" lon="16.724013"><ele>364</ele></trkpt>
<trkpt lat="49.372513" lon="16.723685"><ele>362</ele></trkpt>
<trkpt lat="49.372384" lon="16.723441"><ele>367</ele></trkpt>
<trkpt lat="49.372181" lon="16.723205"><ele>366</ele></trkpt>
<trkpt lat="49.372100" lon="16.723081"><ele>367</ele></trkpt>
<trkpt lat="49.372059" lon="16.722914"><ele>366</ele></trkpt>
<trkpt lat="49.372100" lon="16.722704"><ele>367</ele></trkpt>
<trkpt lat="49.372216" lon="16.722535"><ele>365</ele></trkpt>
<trkpt lat="49.372402" lon="16.722665"><ele>368</ele></trkpt>
<trkpt lat="49.372520" lon="16.722633"><ele>369</ele></trkpt>
<trkpt lat="49.372658" lon="16.722612"><ele>370</ele></trkpt>
<trkpt lat="49.372861" lon="16.722595"><ele>371</ele></trkpt>
<trkpt lat="49.372901" lon="16.722700"><ele>373</ele></trkpt>
<trkpt lat="49.373463" lon="16.722974"><ele>371</ele></trkpt>
<trkpt lat="49.373938" lon="16.722807"><ele>371</ele></trkpt>
<trkpt lat="49.374489" lon="16.722914"><ele>378</ele></trkpt>
<trkpt lat="49.374558" lon="16.722977"><ele>379</ele></trkpt>
<trkpt lat="49.374812" lon="16.722988"><ele>381</ele></trkpt>
<trkpt lat="49.374954" lon="16.722904"><ele>380</ele></trkpt>
<trkpt lat="49.375094" lon="16.722873"><ele>379</ele></trkpt>
<trkpt lat="49.375150" lon="16.722912"><ele>380</ele></trkpt>
<trkpt lat="49.375316" lon="16.723113"><ele>385</ele></trkpt>
<trkpt lat="49.375400" lon="16.723172"><ele>386</ele></trkpt>
<trkpt lat="49.375414" lon="16.723199"><ele>388</ele></trkpt>
<trkpt lat="49.375380" lon="16.723209"><ele>389</ele></trkpt>
<trkpt lat="49.375316" lon="16.723201"><ele>390</ele></trkpt>
<trkpt lat="49.375303" lon="16.723222"><ele>392</ele></trkpt>
<trkpt lat="49.375336" lon="16.723260"><ele>393</ele></trkpt>
<trkpt lat="49.375402" lon="16.723302"><ele>394</ele></trkpt>
<trkpt lat="49.375434" lon="16.723341"><ele>396</ele></trkpt>
<trkpt lat="49.375414" lon="16.723354"><ele>398</ele></trkpt>
<trkpt lat="49.375368" lon="16.723335"><ele>397</ele></trkpt>
<trkpt lat="49.375340" lon="16.723337"><ele>398</ele></trkpt>
<trkpt lat="49.375360" lon="16.723368"><ele>399</ele></trkpt>
<trkpt lat="49.375432" lon="16.723404"><ele>400</ele></trkpt>
<trkpt lat="49.375469" lon="16.723450"><ele>402</ele></trkpt>
<trkpt lat="49.375446" lon="16.723475"><ele>403</ele></trkpt>
<trkpt lat="49.375378" lon="16.723465"><ele>403</ele></trkpt>
<trkpt lat="49.375310" lon="16.723440"><ele>403</ele></trkpt>
<trkpt lat="49.375312" lon="16.723458"><ele>404</ele></trkpt>
<trkpt lat="49.375414" lon="16.723548"><ele>407</ele></trkpt>
<trkpt lat="49.375568" lon="16.723709"><ele>411</ele></trkpt>
<trkpt lat="49.375754" lon="16.723850"><ele>412</ele></trkpt>
<trkpt lat="49.375777" lon="16.723908"><ele>415</ele></trkpt>
<trkpt lat="49.375758" lon="16.723940"><ele>417</ele></trkpt>
<trkpt lat="49.375684" lon="16.723937"><ele>419</ele></trkpt>
<trkpt lat="49.375491" lon="16.723891"><ele>420</ele></trkpt>
<trkpt lat="49.375280" lon="16.723864"><ele>424</ele></trkpt>
<trkpt lat="49.375173" lon="16.723860"><ele>428</ele></trkpt>
<trkpt lat="49.375040" lon="16.723760"><ele>430</ele></trkpt>
<trkpt lat="49.374992" lon="16.723703"><ele>432</ele></trkpt>
<trkpt lat="49.374927" lon="16.723691"><ele>431</ele></trkpt>
<trkpt lat="49.374853" lon="16.723714"><ele>432</ele></trkpt>
<trkpt lat="49.374683" lon="16.723712"><ele>431</ele></trkpt>
<trkpt lat="49.374531" lon="16.723766"><ele>433</ele></trkpt>
<trkpt lat="49.374333" lon="16.723979"><ele>436</ele></trkpt>
<trkpt lat="49.374204" lon="16.724088"><ele>437</ele></trkpt>
<trkpt lat="49.374047" lon="16.724174"><ele>440</ele></trkpt>
<trkpt lat="49.373983" lon="16.724220"><ele>441</ele></trkpt>
<trkpt lat="49.373961" lon="16.724289"><ele>442</ele></trkpt>
<trkpt lat="49.373968" lon="16.724373"><ele>443</ele></trkpt>
<trkpt lat="49.373986" lon="16.724458"><ele>444</ele></trkpt>
<trkpt lat="49.374050" lon="16.724603"><ele>446</ele></trkpt>
<trkpt lat="49.374217" lon="16.724917"><ele>450</ele></trkpt>
<trkpt lat="49.374396" lon="16.725287"><ele>455</ele></trkpt>
<trkpt lat="49.374408" lon="16.725370"><ele>456</ele></trkpt>
<trkpt lat="49.374367" lon="16.725504"><ele>456</ele></trkpt>
<trkpt lat="49.374334" lon="16.725698"><ele>454</ele></trkpt>
<trkpt lat="49.374266" lon="16.725901"><ele>452</ele></trkpt>
<trkpt lat="49.374021" lon="16.726084"><ele>453</ele></trkpt>
<trkpt lat="49.373791" lon="16.726293"><ele>458</ele></trkpt>
<trkpt lat="49.373715" lon="16.726493"><ele>461</ele></trkpt>
<trkpt lat="49.373655" lon="16.726754"><ele>464</ele></trkpt>
<trkpt lat="49.373647" lon="16.726914"><ele>464</ele></trkpt>
<trkpt lat="49.373730" lon="16.727186"><ele>464</ele></trkpt>
<trkpt lat="49.373766" lon="16.727450"><ele>465</ele></trkpt>
<trkpt lat="49.373762" lon="16.727696"><ele>466</ele></trkpt>
<trkpt lat="49.373630" lon="16.727613"><ele>469</ele></trkpt>
<trkpt lat="49.373275" lon="16.727667"><ele>478</ele></trkpt>
<trkpt lat="49.373100" lon="16.727837"><ele>485</ele></trkpt>
<trkpt lat="49.372969" lon="16.728193"><ele>488</ele></trkpt>
<trkpt lat="49.372955" lon="16.728842"><ele>488</ele></trkpt>
<trkpt lat="49.372985" lon="16.729018"><ele>489</ele></trkpt>
<trkpt lat="49.373073" lon="16.729231"><ele>484</ele></trkpt>
<trkpt lat="49.373060" lon="16.729327"><ele>485</ele></trkpt>
<trkpt lat="49.373139" lon="16.729316"><ele>466</ele></trkpt>
<trkpt lat="49.373060" lon="16.729327"><ele>485</ele></trkpt>
<trkpt lat="49.372888" lon="16.729306"><ele>488</ele></trkpt>
<trkpt lat="49.372734" lon="16.729347"><ele>489</ele></trkpt>
<trkpt lat="49.372699" lon="16.729428"><ele>489</ele></trkpt>
<trkpt lat="49.372416" lon="16.729789"><ele>489</ele></trkpt>
<trkpt lat="49.372386" lon="16.729827"><ele>488</ele></trkpt>
<trkpt lat="49.372042" lon="16.729158"><ele>489</ele></trkpt>
<trkpt lat="49.371755" lon="16.728965"><ele>489</ele></trkpt>
<trkpt lat="49.371631" lon="16.728925"><ele>488</ele></trkpt>
<trkpt lat="49.371422" lon="16.728819"><ele>487</ele></trkpt>
<trkpt lat="49.371083" lon="16.728468"><ele>487</ele></trkpt>
<trkpt lat="49.370882" lon="16.728297"><ele>487</ele></trkpt>
<trkpt lat="49.370660" lon="16.728149"><ele>487</ele></trkpt>
<trkpt lat="49.370417" lon="16.728022"><ele>487</ele></trkpt>
<trkpt lat="49.370256" lon="16.727889"><ele>488</ele></trkpt>
<trkpt lat="49.370127" lon="16.727830"><ele>488</ele></trkpt>
<trkpt lat="49.369824" lon="16.727828"><ele>487</ele></trkpt>
<trkpt lat="49.369766" lon="16.727828"><ele>487</ele></trkpt>
<trkpt lat="49.369620" lon="16.727780"><ele>487</ele></trkpt>
<trkpt lat="49.369540" lon="16.727658"><ele>487</ele></trkpt>
<trkpt lat="49.369447" lon="16.727443"><ele>487</ele></trkpt>
<trkpt lat="49.369318" lon="16.727145"><ele>486</ele></trkpt>
<trkpt lat="49.369277" lon="16.727051"><ele>486</ele></trkpt>
<trkpt lat="49.369199" lon="16.726653"><ele>484</ele></trkpt>
<trkpt lat="49.369129" lon="16.725954"><ele>479</ele></trkpt>
<trkpt lat="49.369104" lon="16.725387"><ele>474</ele></trkpt>
<trkpt lat="49.369027" lon="16.725041"><ele>470</ele></trkpt>
<trkpt lat="49.368836" lon="16.724713"><ele>466</ele></trkpt>
<trkpt lat="49.368597" lon="16.724429"><ele>463</ele></trkpt>
<trkpt lat="49.368415" lon="16.724193"><ele>461</ele></trkpt>
<trkpt lat="49.368210" lon="16.723893"><ele>461</ele></trkpt>
<trkpt lat="49.368033" lon="16.723534"><ele>460</ele></trkpt>
<trkpt lat="49.367713" lon="16.722567"><ele>457</ele></trkpt>
<trkpt lat="49.367260" lon="16.721677"><ele>458</ele></trkpt>
<trkpt lat="49.367019" lon="16.720484"><ele>459</ele></trkpt>
<trkpt lat="49.366791" lon="16.719793"><ele>463</ele></trkpt>
<trkpt lat="49.366667" lon="16.719252"><ele>466</ele></trkpt>
<trkpt lat="49.366398" lon="16.718508"><ele>470</ele></trkpt>
<trkpt lat="49.366132" lon="16.718067"><ele>465</ele></trkpt>
<trkpt lat="49.365685" lon="16.717167"><ele>455</ele></trkpt>
<trkpt lat="49.365576" lon="16.716918"><ele>450</ele></trkpt>
<trkpt lat="49.365282" lon="16.716552"><ele>449</ele></trkpt>
<trkpt lat="49.365128" lon="16.716239"><ele>447</ele></trkpt>
<trkpt lat="49.365084" lon="16.715492"><ele>438</ele></trkpt>
<trkpt lat="49.364978" lon="16.714994"><ele>435</ele></trkpt>
<trkpt lat="49.364786" lon="16.714609"><ele>432</ele></trkpt>
<trkpt lat="49.364684" lon="16.713756"><ele>419</ele></trkpt>
<trkpt lat="49.364592" lon="16.713563"><ele>417</ele></trkpt>
<trkpt lat="49.364324" lon="16.713462"><ele>418</ele></trkpt>
<trkpt lat="49.364109" lon="16.713370"><ele>414</ele></trkpt>
<trkpt lat="49.363858" lon="16.713086"><ele>405</ele></trkpt>
<trkpt lat="49.363573" lon="16.712670"><ele>396</ele></trkpt>
<trkpt lat="49.362899" lon="16.711888"><ele>384</ele></trkpt>
<trkpt lat="49.362057" lon="16.710843"><ele>354</ele></trkpt>
<trkpt lat="49.361192" lon="16.709712"><ele>346</ele></trkpt>
<trkpt lat="49.361046" lon="16.709442"><ele>337</ele></trkpt>
<trkpt lat="49.361134" lon="16.709469"><ele>338</ele></trkpt>
<trkpt lat="49.361144" lon="16.709415"><ele>336</ele></trkpt>
<trkpt lat="49.361220" lon="16.709452"><ele>336</ele></trkpt>
<trkpt lat="49.361490" lon="16.709672"><ele>336</ele></trkpt>
<trkpt lat="49.361906" lon="16.710050"><ele>335</ele></trkpt>
<trkpt lat="49.362055" lon="16.710174"><ele>336</ele></trkpt>
<trkpt lat="49.362247" lon="16.710126"><ele>334</ele></trkpt>
<trkpt lat="49.362421" lon="16.710103"><ele>333</ele></trkpt>
<trkpt lat="49.362514" lon="16.710130"><ele>333</ele></trkpt>
<trkpt lat="49.362651" lon="16.710113"><ele>332</ele></trkpt>
<trkpt lat="49.362819" lon="16.710073"><ele>332</ele></trkpt>
<trkpt lat="49.362932" lon="16.710048"><ele>332</ele></trkpt>
<trkpt lat="49.363076" lon="16.710032"><ele>332</ele></trkpt>
<trkpt lat="49.363148" lon="16.710024"><ele>332</ele></trkpt>
<trkpt lat="49.363265" lon="16.710052"><ele>331</ele></trkpt>
<trkpt lat="49.363295" lon="16.710037"><ele>331</ele></trkpt>
<trkpt lat="49.363479" lon="16.709957"><ele>332</ele></trkpt>
<trkpt lat="49.363535" lon="16.709941"><ele>332</ele></trkpt>
<trkpt lat="49.363571" lon="16.709882"><ele>332</ele></trkpt>
<trkpt lat="49.363547" lon="16.709790"><ele>332</ele></trkpt>
<trkpt lat="49.363533" lon="16.709655"><ele>332</ele></trkpt>
<trkpt lat="49.363534" lon="16.709363"><ele>332</ele></trkpt>
<trkpt lat="49.363536" lon="16.709181"><ele>332</ele></trkpt>
<trkpt lat="49.363449" lon="16.709190"><ele>331</ele></trkpt>
<trkpt lat="49.363437" lon="16.708736"><ele>331</ele></trkpt>
</trkseg></trk>
</gpx>
