<?xml version="1.0" encoding="UTF-8"?>
<gpx version="1.1" creator="Vysočina 2026 – Mlýn Vikinek" xmlns="http://www.topografix.com/GPX/1/1">
<metadata><name>Pramen Svratky a Žákova hora</name><desc>Z mlýna k pramenu Svratky, na Fryšavský kopec k partyzánskému památníku a přes Žákovu horu zpět.</desc></metadata>
<wpt lat="49.643880" lon="15.999420"><name>Pramen Svratky</name><desc>Tady se rodí Svratka. Její voda doteče přes Brno a Dunaj až do Černého moře.</desc></wpt>
<wpt lat="49.637700" lon="16.002170"><name>Fryšavský kopec: partyzánský památník</name><desc>Pomník partyzánské brigády Mistr Jan Hus s replikou partyzánského bunkru.</desc></wpt>
<wpt lat="49.654390" lon="15.998900"><name>Stříbrná studánka</name><desc>Studánka na jižním svahu Žákovy hory, dlouho považovaná za pramen Svratky.</desc></wpt>
<wpt lat="49.656990" lon="15.991830"><name>Žákova hora (810 m): prales</name><desc>Národní přírodní rezervace se starým jedlo-bukovým lesem a naučnou stezkou.</desc></wpt>
<trk><name>Pramen Svratky a Žákova hora</name><trkseg>
<trkpt lat="49.643916" lon="15.968121"><ele>658</ele></trkpt>
<trkpt lat="49.644152" lon="15.967435"><ele>660</ele></trkpt>
<trkpt lat="49.644313" lon="15.966793"><ele>660</ele></trkpt>
<trkpt lat="49.643848" lon="15.966364"><ele>656</ele></trkpt>
<trkpt lat="49.644553" lon="15.965547"><ele>656</ele></trkpt>
<trkpt lat="49.644910" lon="15.965812"><ele>660</ele></trkpt>
<trkpt lat="49.645030" lon="15.965873"><ele>662</ele></trkpt>
<trkpt lat="49.645130" lon="15.965892"><ele>662</ele></trkpt>
<trkpt lat="49.645405" lon="15.965886"><ele>665</ele></trkpt>
<trkpt lat="49.645620" lon="15.965842"><ele>666</ele></trkpt>
<trkpt lat="49.645676" lon="15.965869"><ele>667</ele></trkpt>
<trkpt lat="49.645796" lon="15.965773"><ele>667</ele></trkpt>
<trkpt lat="49.645890" lon="15.965759"><ele>668</ele></trkpt>
<trkpt lat="49.645969" lon="15.965782"><ele>668</ele></trkpt>
<trkpt lat="49.646053" lon="15.965847"><ele>669</ele></trkpt>
<trkpt lat="49.646122" lon="15.965939"><ele>669</ele></trkpt>
<trkpt lat="49.646208" lon="15.966034"><ele>670</ele></trkpt>
<trkpt lat="49.646312" lon="15.966111"><ele>670</ele></trkpt>
<trkpt lat="49.646440" lon="15.966247"><ele>671</ele></trkpt>
<trkpt lat="49.646551" lon="15.966427"><ele>672</ele></trkpt>
<trkpt lat="49.646581" lon="15.966496"><ele>672</ele></trkpt>
<trkpt lat="49.646761" lon="15.966923"><ele>674</ele></trkpt>
<trkpt lat="49.646874" lon="15.967086"><ele>674</ele></trkpt>
<trkpt lat="49.647162" lon="15.967350"><ele>676</ele></trkpt>
<trkpt lat="49.647283" lon="15.967442"><ele>677</ele></trkpt>
<trkpt lat="49.647387" lon="15.967492"><ele>678</ele></trkpt>
<trkpt lat="49.647544" lon="15.967540"><ele>679</ele></trkpt>
<trkpt lat="49.647682" lon="15.967544"><ele>680</ele></trkpt>
<trkpt lat="49.647465" lon="15.969031"><ele>682</ele></trkpt>
<trkpt lat="49.647495" lon="15.969403"><ele>682</ele></trkpt>
<trkpt lat="49.647587" lon="15.971136"><ele>682</ele></trkpt>
<trkpt lat="49.647633" lon="15.971539"><ele>682</ele></trkpt>
<trkpt lat="49.647681" lon="15.971826"><ele>682</ele></trkpt>
<trkpt lat="49.647676" lon="15.972030"><ele>683</ele></trkpt>
<trkpt lat="49.647605" lon="15.972506"><ele>683</ele></trkpt>
<trkpt lat="49.647564" lon="15.972964"><ele>683</ele></trkpt>
<trkpt lat="49.647550" lon="15.973457"><ele>683</ele></trkpt>
<trkpt lat="49.647479" lon="15.973969"><ele>684</ele></trkpt>
<trkpt lat="49.647555" lon="15.974632"><ele>688</ele></trkpt>
<trkpt lat="49.647598" lon="15.974823"><ele>690</ele></trkpt>
<trkpt lat="49.647679" lon="15.975065"><ele>692</ele></trkpt>
<trkpt lat="49.647836" lon="15.975314"><ele>694</ele></trkpt>
<trkpt lat="49.648293" lon="15.975531"><ele>697</ele></trkpt>
<trkpt lat="49.648414" lon="15.975640"><ele>698</ele></trkpt>
<trkpt lat="49.648448" lon="15.975735"><ele>698</ele></trkpt>
<trkpt lat="49.648464" lon="15.975926"><ele>698</ele></trkpt>
<trkpt lat="49.648399" lon="15.976524"><ele>700</ele></trkpt>
<trkpt lat="49.648033" lon="15.978445"><ele>704</ele></trkpt>
<trkpt lat="49.647917" lon="15.979156"><ele>704</ele></trkpt>
<trkpt lat="49.647819" lon="15.979552"><ele>703</ele></trkpt>
<trkpt lat="49.647521" lon="15.980422"><ele>703</ele></trkpt>
<trkpt lat="49.647330" lon="15.980954"><ele>702</ele></trkpt>
<trkpt lat="49.647077" lon="15.982500"><ele>702</ele></trkpt>
<trkpt lat="49.645563" lon="15.984720"><ele>711</ele></trkpt>
<trkpt lat="49.645533" lon="15.984765"><ele>711</ele></trkpt>
<trkpt lat="49.645100" lon="15.985452"><ele>715</ele></trkpt>
<trkpt lat="49.644912" lon="15.985798"><ele>718</ele></trkpt>
<trkpt lat="49.644840" lon="15.985965"><ele>718</ele></trkpt>
<trkpt lat="49.645084" lon="15.986363"><ele>721</ele></trkpt>
<trkpt lat="49.645476" lon="15.987065"><ele>721</ele></trkpt>
<trkpt lat="49.645664" lon="15.987563"><ele>720</ele></trkpt>
<trkpt lat="49.645814" lon="15.988082"><ele>722</ele></trkpt>
<trkpt lat="49.645863" lon="15.988382"><ele>722</ele></trkpt>
<trkpt lat="49.645872" lon="15.988606"><ele>724</ele></trkpt>
<trkpt lat="49.645835" lon="15.988960"><ele>725</ele></trkpt>
<trkpt lat="49.645820" lon="15.989049"><ele>726</ele></trkpt>
<trkpt lat="49.645748" lon="15.989297"><ele>727</ele></trkpt>
<trkpt lat="49.645664" lon="15.989529"><ele>728</ele></trkpt>
<trkpt lat="49.645119" lon="15.990748"><ele>736</ele></trkpt>
<trkpt lat="49.645037" lon="15.991128"><ele>738</ele></trkpt>
<trkpt lat="49.644844" lon="15.992346"><ele>744</ele></trkpt>
<trkpt lat="49.644464" lon="15.993616"><ele>752</ele></trkpt>
<trkpt lat="49.643586" lon="15.996094"><ele>768</ele></trkpt>
<trkpt lat="49.643546" lon="15.996225"><ele>769</ele></trkpt>
<trkpt lat="49.643500" lon="15.996404"><ele>770</ele></trkpt>
<trkpt lat="49.643469" lon="15.996558"><ele>771</ele></trkpt>
<trkpt lat="49.643454" lon="15.996660"><ele>772</ele></trkpt>
<trkpt lat="49.643438" lon="15.996917"><ele>773</ele></trkpt>
<trkpt lat="49.643443" lon="15.997118"><ele>775</ele></trkpt>
<trkpt lat="49.643462" lon="15.997386"><ele>776</ele></trkpt>
<trkpt lat="49.643490" lon="15.997654"><ele>777</ele></trkpt>
<trkpt lat="49.643498" lon="15.997822"><ele>778</ele></trkpt>
<trkpt lat="49.643481" lon="15.998195"><ele>779</ele></trkpt>
<trkpt lat="49.643458" lon="15.998349"><ele>780</ele></trkpt>
<trkpt lat="49.643382" lon="15.998657"><ele>781</ele></trkpt>
<trkpt lat="49.643230" lon="15.999081"><ele>782</ele></trkpt>
<trkpt lat="49.643449" lon="15.999285"><ele>781</ele></trkpt>
<trkpt lat="49.643642" lon="15.999344"><ele>779</ele></trkpt>
<trkpt lat="49.643698" lon="15.999384"><ele>778</ele></trkpt>
<trkpt lat="49.643864" lon="15.999447"><ele>778</ele></trkpt>
<trkpt lat="49.643698" lon="15.999384"><ele>778</ele></trkpt>
<trkpt lat="49.643642" lon="15.999344"><ele>779</ele></trkpt>
<trkpt lat="49.643449" lon="15.999285"><ele>781</ele></trkpt>
<trkpt lat="49.643230" lon="15.999081"><ele>782</ele></trkpt>
<trkpt lat="49.642829" lon="16.000121"><ele>784</ele></trkpt>
<trkpt lat="49.641398" lon="16.003790"><ele>788</ele></trkpt>
<trkpt lat="49.641022" lon="16.003565"><ele>788</ele></trkpt>
<trkpt lat="49.640760" lon="16.003302"><ele>787</ele></trkpt>
<trkpt lat="49.640661" lon="16.002690"><ele>788</ele></trkpt>
<trkpt lat="49.640480" lon="16.002297"><ele>790</ele></trkpt>
<trkpt lat="49.639994" lon="16.001875"><ele>792</ele></trkpt>
<trkpt lat="49.639680" lon="16.001772"><ele>795</ele></trkpt>
<trkpt lat="49.639433" lon="16.001919"><ele>797</ele></trkpt>
<trkpt lat="49.639138" lon="16.002022"><ele>799</ele></trkpt>
<trkpt lat="49.638644" lon="16.001933"><ele>801</ele></trkpt>
<trkpt lat="49.638428" lon="16.001951"><ele>802</ele></trkpt>
<trkpt lat="49.638163" lon="16.001992"><ele>801</ele></trkpt>
<trkpt lat="49.637879" lon="16.002106"><ele>802</ele></trkpt>
<trkpt lat="49.637698" lon="16.002122"><ele>803</ele></trkpt>
<trkpt lat="49.637879" lon="16.002106"><ele>802</ele></trkpt>
<trkpt lat="49.638163" lon="16.001992"><ele>801</ele></trkpt>
<trkpt lat="49.638428" lon="16.001951"><ele>802</ele></trkpt>
<trkpt lat="49.638644" lon="16.001933"><ele>801</ele></trkpt>
<trkpt lat="49.639138" lon="16.002022"><ele>799</ele></trkpt>
<trkpt lat="49.639433" lon="16.001919"><ele>797</ele></trkpt>
<trkpt lat="49.639680" lon="16.001772"><ele>795</ele></trkpt>
<trkpt lat="49.639994" lon="16.001875"><ele>792</ele></trkpt>
<trkpt lat="49.640480" lon="16.002297"><ele>790</ele></trkpt>
<trkpt lat="49.640661" lon="16.002690"><ele>788</ele></trkpt>
<trkpt lat="49.640760" lon="16.003302"><ele>787</ele></trkpt>
<trkpt lat="49.641022" lon="16.003565"><ele>788</ele></trkpt>
<trkpt lat="49.641307" lon="16.003736"><ele>788</ele></trkpt>
<trkpt lat="49.641398" lon="16.003790"><ele>788</ele></trkpt>
<trkpt lat="49.643017" lon="16.003797"><ele>786</ele></trkpt>
<trkpt lat="49.643424" lon="16.003845"><ele>784</ele></trkpt>
<trkpt lat="49.643812" lon="16.003890"><ele>784</ele></trkpt>
<trkpt lat="49.646013" lon="16.004614"><ele>780</ele></trkpt>
<trkpt lat="49.646271" lon="16.004675"><ele>779</ele></trkpt>
<trkpt lat="49.646536" lon="16.004650"><ele>779</ele></trkpt>
<trkpt lat="49.646852" lon="16.004449"><ele>778</ele></trkpt>
<trkpt lat="49.647013" lon="16.004319"><ele>778</ele></trkpt>
<trkpt lat="49.647147" lon="16.004142"><ele>778</ele></trkpt>
<trkpt lat="49.647279" lon="16.003946"><ele>777</ele></trkpt>
<trkpt lat="49.647386" lon="16.003705"><ele>776</ele></trkpt>
<trkpt lat="49.647485" lon="16.003443"><ele>775</ele></trkpt>
<trkpt lat="49.647638" lon="16.002947"><ele>774</ele></trkpt>
<trkpt lat="49.647767" lon="16.002475"><ele>774</ele></trkpt>
<trkpt lat="49.648331" lon="16.000470"><ele>772</ele></trkpt>
<trkpt lat="49.648507" lon="15.999812"><ele>772</ele></trkpt>
<trkpt lat="49.648628" lon="15.999423"><ele>772</ele></trkpt>
<trkpt lat="49.648768" lon="15.999044"><ele>772</ele></trkpt>
<trkpt lat="49.648873" lon="15.998794"><ele>773</ele></trkpt>
<trkpt lat="49.648967" lon="15.998618"><ele>772</ele></trkpt>
<trkpt lat="49.649070" lon="15.998453"><ele>772</ele></trkpt>
<trkpt lat="49.649468" lon="15.997936"><ele>772</ele></trkpt>
<trkpt lat="49.650232" lon="15.997054"><ele>769</ele></trkpt>
<trkpt lat="49.651497" lon="15.995660"><ele>768</ele></trkpt>
<trkpt lat="49.651731" lon="15.995775"><ele>769</ele></trkpt>
<trkpt lat="49.651889" lon="15.995989"><ele>770</ele></trkpt>
<trkpt lat="49.651976" lon="15.996140"><ele>771</ele></trkpt>
<trkpt lat="49.652068" lon="15.996324"><ele>772</ele></trkpt>
<trkpt lat="49.652165" lon="15.996581"><ele>772</ele></trkpt>
<trkpt lat="49.652583" lon="15.997812"><ele>776</ele></trkpt>
<trkpt lat="49.652684" lon="15.998109"><ele>776</ele></trkpt>
<trkpt lat="49.653089" lon="15.998525"><ele>778</ele></trkpt>
<trkpt lat="49.653367" lon="15.998761"><ele>781</ele></trkpt>
<trkpt lat="49.653522" lon="15.998876"><ele>781</ele></trkpt>
<trkpt lat="49.653615" lon="15.998881"><ele>781</ele></trkpt>
<trkpt lat="49.653800" lon="15.998855"><ele>781</ele></trkpt>
<trkpt lat="49.654032" lon="15.998800"><ele>781</ele></trkpt>
<trkpt lat="49.654417" lon="15.998647"><ele>778</ele></trkpt>
<trkpt lat="49.654424" lon="15.998835"><ele>776</ele></trkpt>
<trkpt lat="49.654403" lon="15.998908"><ele>776</ele></trkpt>
<trkpt lat="49.654424" lon="15.998835"><ele>776</ele></trkpt>
<trkpt lat="49.654417" lon="15.998647"><ele>778</ele></trkpt>
<trkpt lat="49.654652" lon="15.998592"><ele>777</ele></trkpt>
<trkpt lat="49.655182" lon="15.998223"><ele>777</ele></trkpt>
<trkpt lat="49.655352" lon="15.997887"><ele>778</ele></trkpt>
<trkpt lat="49.655512" lon="15.997718"><ele>776</ele></trkpt>
<trkpt lat="49.655911" lon="15.997160"><ele>776</ele></trkpt>
<trkpt lat="49.656009" lon="15.997053"><ele>776</ele></trkpt>
<trkpt lat="49.656694" lon="15.996846"><ele>773</ele></trkpt>
<trkpt lat="49.656902" lon="15.996767"><ele>772</ele></trkpt>
<trkpt lat="49.657040" lon="15.996695"><ele>772</ele></trkpt>
<trkpt lat="49.657278" lon="15.996704"><ele>771</ele></trkpt>
<trkpt lat="49.657398" lon="15.996577"><ele>772</ele></trkpt>
<trkpt lat="49.657677" lon="15.996577"><ele>770</ele></trkpt>
<trkpt lat="49.657885" lon="15.996485"><ele>770</ele></trkpt>
<trkpt lat="49.657860" lon="15.996280"><ele>772</ele></trkpt>
<trkpt lat="49.657760" lon="15.995665"><ele>779</ele></trkpt>
<trkpt lat="49.657688" lon="15.995209"><ele>784</ele></trkpt>
<trkpt lat="49.657595" lon="15.994349"><ele>791</ele></trkpt>
<trkpt lat="49.657405" lon="15.993659"><ele>796</ele></trkpt>
<trkpt lat="49.657358" lon="15.993241"><ele>800</ele></trkpt>
<trkpt lat="49.657205" lon="15.992548"><ele>807</ele></trkpt>
<trkpt lat="49.657143" lon="15.992114"><ele>809</ele></trkpt>
<trkpt lat="49.657124" lon="15.992019"><ele>810</ele></trkpt>
<trkpt lat="49.657119" lon="15.991994"><ele>810</ele></trkpt>
<trkpt lat="49.657086" lon="15.991680"><ele>810</ele></trkpt>
<trkpt lat="49.657030" lon="15.991337"><ele>806</ele></trkpt>
<trkpt lat="49.657050" lon="15.991073"><ele>804</ele></trkpt>
<trkpt lat="49.656911" lon="15.990636"><ele>796</ele></trkpt>
<trkpt lat="49.656454" lon="15.987956"><ele>762</ele></trkpt>
<trkpt lat="49.656367" lon="15.987613"><ele>758</ele></trkpt>
<trkpt lat="49.656378" lon="15.987302"><ele>754</ele></trkpt>
<trkpt lat="49.656330" lon="15.986786"><ele>748</ele></trkpt>
<trkpt lat="49.656306" lon="15.986412"><ele>744</ele></trkpt>
<trkpt lat="49.656149" lon="15.986140"><ele>740</ele></trkpt>
<trkpt lat="49.656009" lon="15.985199"><ele>731</ele></trkpt>
<trkpt lat="49.654249" lon="15.975001"><ele>682</ele></trkpt>
<trkpt lat="49.653686" lon="15.971248"><ele>694</ele></trkpt>
<trkpt lat="49.653748" lon="15.970842"><ele>693</ele></trkpt>
<trkpt lat="49.653837" lon="15.970533"><ele>692</ele></trkpt>
<trkpt lat="49.653855" lon="15.970078"><ele>691</ele></trkpt>
<trkpt lat="49.653802" lon="15.969700"><ele>692</ele></trkpt>
<trkpt lat="49.653785" lon="15.969298"><ele>693</ele></trkpt>
<trkpt lat="49.653791" lon="15.969278"><ele>695</ele></trkpt>
<trkpt lat="49.654165" lon="15.968093"><ele>695</ele></trkpt>
<trkpt lat="49.654199" lon="15.967940"><ele>695</ele></trkpt>
<trkpt lat="49.654394" lon="15.967268"><ele>695</ele></trkpt>
<trkpt lat="49.654366" lon="15.967083"><ele>695</ele></trkpt>
<trkpt lat="49.654328" lon="15.966931"><ele>696</ele></trkpt>
<trkpt lat="49.653963" lon="15.965912"><ele>697</ele></trkpt>
<trkpt lat="49.653685" lon="15.965253"><ele>698</ele></trkpt>
<trkpt lat="49.653597" lon="15.964932"><ele>699</ele></trkpt>
<trkpt lat="49.653557" lon="15.964708"><ele>700</ele></trkpt>
<trkpt lat="49.653486" lon="15.963708"><ele>701</ele></trkpt>
<trkpt lat="49.653470" lon="15.963195"><ele>701</ele></trkpt>
<trkpt lat="49.653443" lon="15.962871"><ele>702</ele></trkpt>
<trkpt lat="49.653388" lon="15.962574"><ele>702</ele></trkpt>
<trkpt lat="49.653280" lon="15.962186"><ele>704</ele></trkpt>
<trkpt lat="49.653121" lon="15.964019"><ele>702</ele></trkpt>
<trkpt lat="49.652379" lon="15.964581"><ele>702</ele></trkpt>
<trkpt lat="49.652139" lon="15.964738"><ele>702</ele></trkpt>
<trkpt lat="49.651672" lon="15.964918"><ele>700</ele></trkpt>
<trkpt lat="49.651335" lon="15.964998"><ele>700</ele></trkpt>
<trkpt lat="49.651132" lon="15.965019"><ele>699</ele></trkpt>
<trkpt lat="49.650758" lon="15.965084"><ele>696</ele></trkpt>
<trkpt lat="49.650569" lon="15.965143"><ele>694</ele></trkpt>
<trkpt lat="49.650505" lon="15.965173"><ele>694</ele></trkpt>
<trkpt lat="49.650381" lon="15.965276"><ele>694</ele></trkpt>
<trkpt lat="49.650090" lon="15.965550"><ele>692</ele></trkpt>
<trkpt lat="49.649867" lon="15.965737"><ele>692</ele></trkpt>
<trkpt lat="49.649651" lon="15.965931"><ele>691</ele></trkpt>
<trkpt lat="49.649474" lon="15.966134"><ele>690</ele></trkpt>
<trkpt lat="49.649310" lon="15.966377"><ele>690</ele></trkpt>
<trkpt lat="49.649151" lon="15.966628"><ele>690</ele></trkpt>
<trkpt lat="49.648884" lon="15.966973"><ele>688</ele></trkpt>
<trkpt lat="49.648604" lon="15.967200"><ele>687</ele></trkpt>
<trkpt lat="49.648227" lon="15.967406"><ele>684</ele></trkpt>
<trkpt lat="49.647682" lon="15.967544"><ele>680</ele></trkpt>
<trkpt lat="49.647544" lon="15.967540"><ele>679</ele></trkpt>
<trkpt lat="49.647387" lon="15.967492"><ele>678</ele></trkpt>
<trkpt lat="49.647283" lon="15.967442"><ele>677</ele></trkpt>
<trkpt lat="49.647162" lon="15.967350"><ele>676</ele></trkpt>
<trkpt lat="49.646874" lon="15.967086"><ele>674</ele></trkpt>
<trkpt lat="49.646761" lon="15.966923"><ele>674</ele></trkpt>
<trkpt lat="49.646581" lon="15.966496"><ele>672</ele></trkpt>
<trkpt lat="49.646551" lon="15.966427"><ele>672</ele></trkpt>
<trkpt lat="49.646440" lon="15.966247"><ele>671</ele></trkpt>
<trkpt lat="49.646312" lon="15.966111"><ele>670</ele></trkpt>
<trkpt lat="49.646208" lon="15.966034"><ele>670</ele></trkpt>
<trkpt lat="49.646122" lon="15.965939"><ele>669</ele></trkpt>
<trkpt lat="49.646053" lon="15.965847"><ele>669</ele></trkpt>
<trkpt lat="49.645969" lon="15.965782"><ele>668</ele></trkpt>
<trkpt lat="49.645890" lon="15.965759"><ele>668</ele></trkpt>
<trkpt lat="49.645796" lon="15.965773"><ele>667</ele></trkpt>
<trkpt lat="49.645676" lon="15.965869"><ele>667</ele></trkpt>
<trkpt lat="49.645620" lon="15.965842"><ele>666</ele></trkpt>
<trkpt lat="49.645405" lon="15.965886"><ele>665</ele></trkpt>
<trkpt lat="49.645130" lon="15.965892"><ele>662</ele></trkpt>
<trkpt lat="49.645030" lon="15.965873"><ele>662</ele></trkpt>
<trkpt lat="49.644910" lon="15.965812"><ele>660</ele></trkpt>
<trkpt lat="49.644553" lon="15.965547"><ele>656</ele></trkpt>
<trkpt lat="49.643848" lon="15.966364"><ele>656</ele></trkpt>
<trkpt lat="49.644313" lon="15.966793"><ele>660</ele></trkpt>
<trkpt lat="49.644152" lon="15.967435"><ele>660</ele></trkpt>
<trkpt lat="49.643916" lon="15.968121"><ele>658</ele></trkpt>
</trkseg></trk>
</gpx>
